{"type": "FeatureCollection", "features": [{"type": "Feature", "geometry": {"type": "Polygon", "coordinates": [[[-108.69015355787731, 36.948696841728044], [-108.6901589998161, 36.94851669845962], [-108.69004675111566, 36.9485145140147], [-108.69004130891298, 36.948694657268916], [-108.69015355787731, 36.948696841728044]]]}, "properties": {"class": "riparian", "min_prob": 0.5}}, {"type": "Feature", "geometry": {"type": "Polygon", "coordinates": [[[-108.7154753574565, 36.826525684940236], [-108.7154780367111, 36.826435609850506], [-108.71536596459975, 36.82643345541787], [-108.71536328521398, 36.82652353050058], [-108.7154753574565, 36.826525684940236]]]}, "properties": {"class": "riparian", "min_prob": 0.5}}, {"type": "Feature", "geometry": {"type": "Polygon", "coordinates": [[[-108.71548339518462, 36.82625545966646], [-108.71548607440351, 36.826165384572136], [-108.71537400268564, 36.82616323016055], [-108.71537132333557, 36.82625330524785], [-108.71548339518462, 36.82625545966646]]]}, "properties": {"class": "riparian", "min_prob": 0.5}}, {"type": "Feature", "geometry": {"type": "Polygon", "coordinates": [[[-108.71190246874622, 36.82600631619056], [-108.71190515213823, 36.825916241317834], [-108.71179308106412, 36.82591408354355], [-108.71179039754095, 36.82600415840925], [-108.71190246874622, 36.82600631619056]]]}, "properties": {"class": "riparian", "min_prob": 0.5}}, {"type": "Feature", "geometry": {"type": "Polygon", "coordinates": [[[-108.71571557575248, 36.8259895428574], [-108.71572093358232, 36.825809392629935], [-108.71560886236522, 36.82580723845746], [-108.71560350427308, 36.825987388670896], [-108.71571557575248, 36.8259895428574]]]}, "properties": {"class": "riparian", "min_prob": 0.5}}, {"type": "Feature", "geometry": {"type": "Polygon", "coordinates": [[[-108.71572361247937, 36.825719317513915], [-108.71572629136452, 36.825629242396325], [-108.71583836233121, 36.82563139644926], [-108.71584104107332, 36.825541321323136], [-108.71595311192078, 36.82554347526353], [-108.71595579051981, 36.82545340012886], [-108.71561957840665, 36.82544693801216], [-108.71561154139343, 36.825717163348436], [-108.71572361247937, 36.825719317513915]]]}, "properties": {"class": "riparian", "min_prob": 0.5}}, {"type": "Feature", "geometry": {"type": "Polygon", "coordinates": [[[-108.71629200274016, 36.82545986129587], [-108.71630003728552, 36.82518963581953], [-108.71618796692695, 36.82518748222375], [-108.71619064521607, 36.82509740706891], [-108.71607857500057, 36.825095253374634], [-108.7160732181481, 36.82527540366875], [-108.7159611476822, 36.82527324985492], [-108.71595579051981, 36.82545340012886], [-108.71629200274016, 36.82545986129587]]]}, "properties": {"class": "riparian", "min_prob": 0.5}}, {"type": "Feature", "geometry": {"type": "Polygon", "coordinates": [[[-108.70844439150058, 36.82539892795102], [-108.70844707888666, 36.82530885328706], [-108.70900742865136, 36.82531965672035], [-108.70901280207623, 36.825139507317466], [-108.70912487180271, 36.8251416676735], [-108.70912755836609, 36.82505159296271], [-108.70901548877076, 36.82504943261372], [-108.70901817545334, 36.82495935790844], [-108.7087940365608, 36.824955036907966], [-108.70879672349373, 36.82486496221521], [-108.70868465419652, 36.82486280156373], [-108.70868734124866, 36.82477272687648], [-108.70801492650317, 36.82475976079399], [-108.7080095508132, 36.824939910082506], [-108.7082336895385, 36.82494423256022], [-108.70822831432534, 36.825124381870744], [-108.70834038396819, 36.8251265429654], [-108.70833769647486, 36.8252166176254], [-108.70822562670084, 36.82521445652371], [-108.70822025141604, 36.82539460582501], [-108.70844439150058, 36.82539892795102]], [[-108.70856989771603, 36.824950715485414], [-108.70845782831158, 36.824948554615865], [-108.70846051563795, 36.824858479944226], [-108.70857258491127, 36.82486064080674], [-108.70856989771603, 36.824950715485414]]]}, "properties": {"class": "riparian", "min_prob": 0.5}}, {"type": "Feature", "geometry": {"type": "Polygon", "coordinates": [[[-108.70509306046318, 36.82497375392283], [-108.70510113424528, 36.824703530541704], [-108.70498906547375, 36.82470136641523], [-108.70499175684166, 36.824611291958824], [-108.70476761959678, 36.824606963403426], [-108.70475954467028, 36.82487718672573], [-108.70498368270202, 36.824881515323426], [-108.70498099129823, 36.82497158977522], [-108.70509306046318, 36.82497375392283]]]}, "properties": {"class": "riparian", "min_prob": 0.5}}, {"type": "Feature", "geometry": {"type": "Polygon", "coordinates": [[[-108.70801492650317, 36.82475976079399], [-108.70801761433022, 36.82466968614743], [-108.70790554537894, 36.82466752477141], [-108.70790285742073, 36.82475759941093], [-108.70801492650317, 36.82475976079399]]]}, "properties": {"class": "riparian", "min_prob": 0.5}}, {"type": "Feature", "geometry": {"type": "Polygon", "coordinates": [[[-108.71631074984606, 36.82482933516291], [-108.71631342795644, 36.824739259994914], [-108.71642549767117, 36.824741413450106], [-108.7164281756385, 36.82465133827357], [-108.71631610605492, 36.824649184825375], [-108.71631878414148, 36.824559109654324], [-108.71620671470095, 36.824556956107635], [-108.71620403648322, 36.82464703127168], [-108.71609196692346, 36.82464487761247], [-108.71608661019, 36.824825027921946], [-108.71631074984606, 36.82482933516291]]]}, "properties": {"class": "riparian", "min_prob": 0.5}}, {"type": "Feature", "geometry": {"type": "Polygon", "coordinates": [[[-108.70432472952426, 36.824418156193595], [-108.70432742164314, 36.82432808177487], [-108.70421535347994, 36.82432591693799], [-108.7042126612299, 36.82441599134965], [-108.70432472952426, 36.824418156193595]]]}, "properties": {"class": "riparian", "min_prob": 0.5}}, {"type": "Feature", "geometry": {"type": "Polygon", "coordinates": [[[-108.70454886614885, 36.82442248556491], [-108.7045542498501, 36.82424233669774], [-108.70433011375006, 36.82423800735461], [-108.70432742164314, 36.82432808177487], [-108.70443948981831, 36.82433024650625], [-108.70443679783057, 36.824420320932006], [-108.70454886614885, 36.82442248556491]]]}, "properties": {"class": "riparian", "min_prob": 0.5}}, {"type": "Feature", "geometry": {"type": "Polygon", "coordinates": [[[-108.70433011375006, 36.82423800735461], [-108.70433280584503, 36.82414793293281], [-108.70422073794411, 36.82414576811003], [-108.704218045718, 36.82423584252478], [-108.70433011375006, 36.82423800735461]]]}, "properties": {"class": "riparian", "min_prob": 0.5}}, {"type": "Feature", "geometry": {"type": "Polygon", "coordinates": [[[-108.71599061122421, 36.824282423238444], [-108.71599328965662, 36.82419234808228], [-108.71588122077638, 36.824190194247095], [-108.71587854221283, 36.82428026939625], [-108.71599061122421, 36.824282423238444]]]}, "properties": {"class": "riparian", "min_prob": 0.5}}, {"type": "Feature", "geometry": {"type": "Polygon", "coordinates": [[[-108.71621474928271, 36.82428673060628], [-108.71622278375736, 36.8240165050911], [-108.7161107151156, 36.82401435148098], [-108.71611339338116, 36.8239242763132], [-108.71588925639561, 36.82391996879044], [-108.71588657786778, 36.82401004394419], [-108.71599864648573, 36.824012197765335], [-108.71599328965662, 36.82419234808228], [-108.71610535854877, 36.82419450181194], [-108.71610268024752, 36.824284576975124], [-108.71621474928271, 36.82428673060628]]]}, "properties": {"class": "riparian", "min_prob": 0.5}}, {"type": "Feature", "geometry": {"type": "Polygon", "coordinates": [[[-108.7158946134156, 36.823739818478316], [-108.71589729190774, 36.82364974331996], [-108.71578522382624, 36.82364758942135], [-108.71578254520298, 36.82373766457269], [-108.7158946134156, 36.823739818478316]]]}, "properties": {"class": "riparian", "min_prob": 0.5}}, {"type": "Feature", "geometry": {"type": "Polygon", "coordinates": [[[-108.71365593254139, 36.823606645300075], [-108.7136586136444, 36.82351657028052], [-108.71343447823219, 36.82351225817127], [-108.7134317968669, 36.82360233317679], [-108.71365593254139, 36.823606645300075]]]}, "properties": {"class": "riparian", "min_prob": 0.5}}, {"type": "Feature", "geometry": {"type": "Polygon", "coordinates": [[[-108.70950943028645, 36.823526802699476], [-108.70951211624153, 36.823436727939935], [-108.70940004897089, 36.8234345680341], [-108.70939736288467, 36.82352464278661], [-108.70950943028645, 36.823526802699476]]]}, "properties": {"class": "riparian", "min_prob": 0.5}}, {"type": "Feature", "geometry": {"type": "Polygon", "coordinates": [[[-108.71567047700226, 36.82373551056155], [-108.71567315575668, 36.82364543541723], [-108.71578522382624, 36.82364758942135], [-108.71578790243763, 36.82355751426846], [-108.71567583449918, 36.82355536027134], [-108.71567851322979, 36.823465285123945], [-108.7155664454344, 36.82346313102834], [-108.71556376657266, 36.823553206168725], [-108.71545169865804, 36.82355105196059], [-108.71544634063656, 36.82373120222272], [-108.71567047700226, 36.82373551056155]]]}, "properties": {"class": "riparian", "min_prob": 0.5}}, {"type": "Feature", "geometry": {"type": "Polygon", "coordinates": [[[-108.71231380188651, 36.82349069129425], [-108.71231648455127, 36.82340061635745], [-108.71220441711341, 36.82339845909645], [-108.71220173431755, 36.82348853402623], [-108.71231380188651, 36.82349069129425]]]}, "properties": {"class": "riparian", "min_prob": 0.5}}, {"type": "Feature", "geometry": {"type": "Polygon", "coordinates": [[[-108.70940004897089, 36.8234345680341], [-108.70940273504519, 36.82334449328007], [-108.70929066791764, 36.82334233327576], [-108.70928798171222, 36.82343240802276], [-108.70940004897089, 36.8234345680341]]]}, "properties": {"class": "riparian", "min_prob": 0.5}}, {"type": "Feature", "geometry": {"type": "Polygon", "coordinates": [[[-108.71254061946273, 36.82340493056291], [-108.71254330185327, 36.82331485561052], [-108.71243123452271, 36.82331269856757], [-108.71242855200103, 36.82340277351294], [-108.71254061946273, 36.82340493056291]]]}, "properties": {"class": "riparian", "min_prob": 0.5}}, {"type": "Feature", "geometry": {"type": "Polygon", "coordinates": [[[-108.71196686686352, 36.82384451882122], [-108.71196954996937, 36.823754443911625], [-108.71219368585838, 36.82375875880636], [-108.71220173431755, 36.82348853402623], [-108.7117534641609, 36.823479903899006], [-108.71175614748132, 36.823389828997335], [-108.71164408010313, 36.82338767120878], [-108.71164676354276, 36.82329759631259], [-108.71142262908442, 36.82329328043299], [-108.71141994538252, 36.82338335531512], [-108.71085960878979, 36.82337256373452], [-108.71086229314739, 36.823282488887536], [-108.7106381588561, 36.823278171530774], [-108.71064084346403, 36.8231880966963], [-108.71052877646743, 36.823185937866675], [-108.71052609172835, 36.823276012694116], [-108.71018989041676, 36.823269535551105], [-108.71018720527236, 36.8233596103559], [-108.71007513806124, 36.823357451090175], [-108.71006976747435, 36.82353760068112], [-108.7102939024331, 36.82354191913518], [-108.71029658747022, 36.823451844326414], [-108.71052072221443, 36.82345616234438], [-108.71051803743957, 36.8235462371672], [-108.71040596993036, 36.82354407820395], [-108.71039791514079, 36.82381430264212], [-108.71050998304342, 36.82381646162647], [-108.71051535265279, 36.82363631198849], [-108.71062742030507, 36.82363847085326], [-108.71063278960445, 36.82345832119508], [-108.7107448570064, 36.82346047994028], [-108.71073948796929, 36.82364062961253], [-108.71085155564545, 36.82364278826626], [-108.71084887124015, 36.82373286310712], [-108.71096093905936, 36.82373502166238], [-108.71095825477327, 36.82382509650872], [-108.71118239070981, 36.82382941331676], [-108.71118507473363, 36.82373933845636], [-108.71129714258865, 36.82374149669508], [-108.7112998264694, 36.82365142182612], [-108.71152396195299, 36.82365573797296], [-108.7115212783345, 36.82374581285599], [-108.71140921045561, 36.82374365482829], [-108.71140652669408, 36.82383372970274], [-108.71196686686352, 36.82384451882122]], [[-108.71196954996937, 36.823754443911625], [-108.71174541412807, 36.82375012859484], [-108.71174809748427, 36.823660053697765], [-108.71197223306329, 36.82366436900051], [-108.71196954996937, 36.823754443911625]]]}, "properties": {"class": "riparian", "min_prob": 0.5}}, {"type": "Feature", "geometry": {"type": "Polygon", "coordinates": [[[-108.71533963075534, 36.82354889764693], [-108.71534498899148, 36.82336874739269], [-108.71512085374636, 36.82336443847691], [-108.71512353310884, 36.823274363361506], [-108.71501146563527, 36.823272208752364], [-108.71500610663612, 36.82345235896759], [-108.71511817437195, 36.82345451359076], [-108.71511549498565, 36.823544588703086], [-108.71533963075534, 36.82354889764693]]]}, "properties": {"class": "riparian", "min_prob": 0.5}}, {"type": "Feature", "geometry": {"type": "Polygon", "coordinates": [[[-108.71287682191937, 36.82341140107975], [-108.7128795039165, 36.82332132610629], [-108.71276743655017, 36.82331916937988], [-108.71277011866653, 36.8232290944119], [-108.71265805144326, 36.82322693758699], [-108.71265268693635, 36.82340708750737], [-108.71287682191937, 36.82341140107975]]]}, "properties": {"class": "riparian", "min_prob": 0.5}}, {"type": "Feature", "geometry": {"type": "Polygon", "coordinates": [[[-108.71005634079835, 36.82398797463158], [-108.7100590261574, 36.82389789984457], [-108.71028316216524, 36.82390221835488], [-108.71028584725012, 36.823812143552274], [-108.71017377937136, 36.8238099843569], [-108.71017914976755, 36.8236298347611], [-108.71006708216302, 36.823627675474285], [-108.71006439683974, 36.823717750265914], [-108.70984026140421, 36.82371343136167], [-108.70984563256337, 36.823533281805], [-108.7099577000129, 36.82353544129582], [-108.70996844166346, 36.823175142135916], [-108.71008050860038, 36.82317730149308], [-108.71008319385206, 36.82308722669224], [-108.70985906025243, 36.82308290788645], [-108.7098536892126, 36.823263057458476], [-108.70951748811589, 36.82325657841626], [-108.70951211624153, 36.823436727939935], [-108.7096241835241, 36.82343888774026], [-108.70961612601644, 36.823709112035374], [-108.70972819370435, 36.82371127175127], [-108.70972550797573, 36.82380134652027], [-108.70994964364968, 36.823805665649616], [-108.70994427268118, 36.82398581521112], [-108.71005634079835, 36.82398797463158]], [[-108.70984563256337, 36.823533281805], [-108.70973356512579, 36.82353112220867], [-108.7097362508186, 36.82344104743507], [-108.70984831812505, 36.82344320702436], [-108.70984563256337, 36.823533281805]]]}, "properties": {"class": "riparian", "min_prob": 0.5}}, {"type": "Feature", "geometry": {"type": "Polygon", "coordinates": [[[-108.7144404077775, 36.823621734407915], [-108.71444844829688, 36.82335150919726], [-108.71489671854887, 36.823360129139076], [-108.71489939817363, 36.82327005403771], [-108.7147873307239, 36.823267899217534], [-108.71479001046788, 36.82317782412166], [-108.7146779431612, 36.823175669203], [-108.71468062302444, 36.8230855941126], [-108.71434442156928, 36.82307912874459], [-108.7143337004713, 36.82343942901275], [-108.71422163281888, 36.82343727365098], [-108.71421895238348, 36.82352734870716], [-108.71399481685208, 36.82352303765305], [-108.7139921361425, 36.82361311269366], [-108.7144404077775, 36.823621734407915]]]}, "properties": {"class": "riparian", "min_prob": 0.5}}, {"type": "Feature", "geometry": {"type": "Polygon", "coordinates": [[[-108.71422967405363, 36.82316704847322], [-108.71423235444139, 36.82307697341089], [-108.71400822022137, 36.82307266242698], [-108.71400553957133, 36.82316273747526], [-108.71422967405363, 36.82316704847322]]]}, "properties": {"class": "riparian", "min_prob": 0.5}}, {"type": "Feature", "geometry": {"type": "Polygon", "coordinates": [[[-108.71142799645246, 36.82311313066412], [-108.71143068011861, 36.82302305577738], [-108.71131861330073, 36.8230208977004], [-108.71131592950347, 36.8231109725801], [-108.71142799645246, 36.82311313066412]]]}, "properties": {"class": "riparian", "min_prob": 0.5}}, {"type": "Feature", "geometry": {"type": "Polygon", "coordinates": [[[-108.70728152729036, 36.823033211285555], [-108.70728421580843, 36.82294313665907], [-108.70717214943241, 36.822940974678225], [-108.7071694607832, 36.823031049297654], [-108.70728152729036, 36.823033211285555]]]}, "properties": {"class": "riparian", "min_prob": 0.5}}, {"type": "Feature", "geometry": {"type": "Polygon", "coordinates": [[[-108.71702868198136, 36.82331097557349], [-108.71703671330941, 36.8230407498604], [-108.71692464602684, 36.82303859706602], [-108.71691661430539, 36.82330882275806], [-108.71702868198136, 36.82331097557349]]]}, "properties": {"class": "riparian", "min_prob": 0.5}}, {"type": "Feature", "geometry": {"type": "Polygon", "coordinates": [[[-108.7125513489534, 36.82304463074413], [-108.71255403129626, 36.82295455578559], [-108.71232989769615, 36.82295024165038], [-108.71232721509102, 36.823040316594856], [-108.7125513489534, 36.82304463074413]]]}, "properties": {"class": "riparian", "min_prob": 0.5}}, {"type": "Feature", "geometry": {"type": "Polygon", "coordinates": [[[-108.70974967910365, 36.822990673544005], [-108.70975236472486, 36.82290059876117], [-108.70964029821717, 36.82289843910856], [-108.70963761246482, 36.82298851388436], [-108.70974967910365, 36.822990673544005]]]}, "properties": {"class": "riparian", "min_prob": 0.5}}, {"type": "Feature", "geometry": {"type": "Polygon", "coordinates": [[[-108.71311436550522, 36.822965339277175], [-108.7131170471805, 36.822875264282], [-108.71255671362722, 36.82286448082552], [-108.71255403129626, 36.82295455578559], [-108.71311436550522, 36.822965339277175]]]}, "properties": {"class": "riparian", "min_prob": 0.5}}, {"type": "Feature", "geometry": {"type": "Polygon", "coordinates": [[[-108.71232989769615, 36.82295024165038], [-108.71233258028938, 36.82286016670437], [-108.71210844699924, 36.822855852161155], [-108.71210576414376, 36.822945927093116], [-108.71232989769615, 36.82295024165038]]]}, "properties": {"class": "riparian", "min_prob": 0.5}}, {"type": "Feature", "geometry": {"type": "Polygon", "coordinates": [[[-108.70739897057138, 36.82285522389936], [-108.70740165893442, 36.82276514926277], [-108.70728959280872, 36.82276298740151], [-108.70728690431454, 36.82285306203105], [-108.70739897057138, 36.82285522389936]]]}, "properties": {"class": "riparian", "min_prob": 0.5}}, {"type": "Feature", "geometry": {"type": "Polygon", "coordinates": [[[-108.70695339450333, 36.82275650118465], [-108.70695877224261, 36.82257635196317], [-108.70684670642699, 36.82257418969396], [-108.70684132842544, 36.82275433890135], [-108.70695339450333, 36.82275650118465]]]}, "properties": {"class": "riparian", "min_prob": 0.5}}, {"type": "Feature", "geometry": {"type": "Polygon", "coordinates": [[[-108.71166018056209, 36.82284722180862], [-108.71166286393019, 36.822757146903214], [-108.71177493039045, 36.82275930464259], [-108.71177761361548, 36.82266922972862], [-108.71166554728634, 36.82266707199627], [-108.7116682306306, 36.822576997087815], [-108.71155616444454, 36.82257483925699], [-108.71155348096916, 36.82266491415842], [-108.7114414146639, 36.82266275621507], [-108.71143604741509, 36.822842905999295], [-108.71166018056209, 36.82284722180862]]]}, "properties": {"class": "riparian", "min_prob": 0.5}}, {"type": "Feature", "geometry": {"type": "Polygon", "coordinates": [[[-108.70897864545888, 36.82252518002751], [-108.70898133193833, 36.822435105286246], [-108.70886926616988, 36.82243294493025], [-108.70886657955931, 36.82252301966448], [-108.70897864545888, 36.82252518002751]]]}, "properties": {"class": "riparian", "min_prob": 0.5}}, {"type": "Feature", "geometry": {"type": "Polygon", "coordinates": [[[-108.70168899681377, 36.822564685536484], [-108.7016916918405, 36.8224746112563], [-108.70157962658736, 36.822472444028236], [-108.70158501686709, 36.82229229547739], [-108.70147295188819, 36.822290128157945], [-108.70147564714121, 36.82220005388727], [-108.70136358230543, 36.82219788646938], [-108.70135280069695, 36.822558183514616], [-108.70168899681377, 36.822564685536484]]]}, "properties": {"class": "riparian", "min_prob": 0.5}}, {"type": "Feature", "geometry": {"type": "Polygon", "coordinates": [[[-108.70719096964226, 36.82231045229912], [-108.70719634673756, 36.82213030303413], [-108.70708428155366, 36.82212814101113], [-108.70707890419612, 36.82230829026205], [-108.70719096964226, 36.82231045229912]]]}, "properties": {"class": "riparian", "min_prob": 0.5}}, {"type": "Feature", "geometry": {"type": "Polygon", "coordinates": [[[-108.71716751903503, 36.82241237578261], [-108.71717019590619, 36.8223223005241], [-108.7170581296608, 36.822320147891304], [-108.7170554526585, 36.8224102231428], [-108.71716751903503, 36.82241237578261]]]}, "properties": {"class": "riparian", "min_prob": 0.5}}, {"type": "Feature", "geometry": {"type": "Polygon", "coordinates": [[[-108.70752985421267, 36.82222686312446], [-108.70753254236095, 36.82213678847009], [-108.7074204771412, 36.82213462676361], [-108.70741778886179, 36.82222470141095], [-108.70752985421267, 36.82222686312446]]]}, "properties": {"class": "riparian", "min_prob": 0.5}}, {"type": "Feature", "geometry": {"type": "Polygon", "coordinates": [[[-108.70136358230543, 36.82219788646938], [-108.70137166838603, 36.8219276636693], [-108.70114753953715, 36.82192332855935], [-108.7011394526698, 36.822193551317085], [-108.70136358230543, 36.82219788646938]]]}, "properties": {"class": "riparian", "min_prob": 0.5}}, {"type": "Feature", "geometry": {"type": "Polygon", "coordinates": [[[-108.70831699923382, 36.82215191746127], [-108.70831968645227, 36.822061842756085], [-108.70809555611967, 36.822057520728784], [-108.70809286863897, 36.8221475954199], [-108.70831699923382, 36.82215191746127]]]}, "properties": {"class": "riparian", "min_prob": 0.5}}, {"type": "Feature", "geometry": {"type": "Polygon", "coordinates": [[[-108.70383170394724, 36.82215547087091], [-108.70383708888619, 36.82197532202559], [-108.70361295951031, 36.82197099155783], [-108.70361565222409, 36.82188091714697], [-108.70339152315834, 36.8218765862713], [-108.70338883018232, 36.82196666066807], [-108.70350089484033, 36.82196882616571], [-108.70349820198348, 36.82205890056798], [-108.70372233159765, 36.82206323126085], [-108.70371963899107, 36.822153305675684], [-108.70383170394724, 36.82215547087091]]]}, "properties": {"class": "riparian", "min_prob": 0.5}}, {"type": "Feature", "geometry": {"type": "Polygon", "coordinates": [[[-108.7074204771412, 36.82213462676361], [-108.7074258536642, 36.8219544774643], [-108.70731378871865, 36.821952315666394], [-108.707311100332, 36.822042390309775], [-108.70719903526728, 36.822040228399324], [-108.70719634673756, 36.82213030303413], [-108.7074204771412, 36.82213462676361]]]}, "properties": {"class": "riparian", "min_prob": 0.5}}, {"type": "Feature", "geometry": {"type": "Polygon", "coordinates": [[[-108.71717287276545, 36.82223222526405], [-108.71717554961282, 36.822142150002456], [-108.71706348362967, 36.82213999738368], [-108.71706080665118, 36.822230072638256], [-108.71717287276545, 36.82223222526405]]]}, "properties": {"class": "riparian", "min_prob": 0.5}}, {"type": "Feature", "geometry": {"type": "Polygon", "coordinates": [[[-108.71728761560784, 36.82214430251573], [-108.71729029231219, 36.822054227245594], [-108.71717822644828, 36.82205207473933], [-108.71717554961282, 36.822142150002456], [-108.71728761560784, 36.82214430251573]]]}, "properties": {"class": "riparian", "min_prob": 0.5}}, {"type": "Feature", "geometry": {"type": "Polygon", "coordinates": [[[-108.70832237365879, 36.821971768049345], [-108.70832506085335, 36.82188169334109], [-108.70821299594334, 36.82187953239428], [-108.70821030861765, 36.82196960709548], [-108.70832237365879, 36.821971768049345]]]}, "properties": {"class": "riparian", "min_prob": 0.5}}, {"type": "Feature", "geometry": {"type": "Polygon", "coordinates": [[[-108.7075379186217, 36.8219566391567], [-108.70754329483466, 36.821776489837184], [-108.70743123013942, 36.82177432815885], [-108.7074258536642, 36.8219544774643], [-108.7075379186217, 36.8219566391567]]]}, "properties": {"class": "riparian", "min_prob": 0.5}}, {"type": "Feature", "geometry": {"type": "Polygon", "coordinates": [[[-108.70744198294649, 36.82141402952952], [-108.70745004742636, 36.82114380554137], [-108.70733798366093, 36.82114164380684], [-108.70732991878769, 36.82141186777385], [-108.70744198294649, 36.82141402952952]]]}, "properties": {"class": "riparian", "min_prob": 0.5}}, {"type": "Feature", "geometry": {"type": "Polygon", "coordinates": [[[-108.71754118784237, 36.82115777901562], [-108.71754921674045, 36.820887553107895], [-108.71743715255738, 36.82088540090378], [-108.71742912326593, 36.82115562679048], [-108.71754118784237, 36.82115777901562]]]}, "properties": {"class": "riparian", "min_prob": 0.5}}, {"type": "Feature", "geometry": {"type": "Polygon", "coordinates": [[[-108.706152793197, 36.823281810317596], [-108.70615548306226, 36.82319173576614], [-108.70626754972406, 36.82319389871771], [-108.70627023944621, 36.82310382415768], [-108.70638230598885, 36.823105986996694], [-108.70638499556792, 36.8230159124281], [-108.70649706199139, 36.82301807515455], [-108.70651588779234, 36.822387553081974], [-108.70674001883931, 36.82239187811979], [-108.7067534641702, 36.82194150509427], [-108.70641726958459, 36.82193501748493], [-108.70641458014893, 36.82202509207199], [-108.70630251517986, 36.82202292931748], [-108.7062998256011, 36.82211300389595], [-108.70585156531985, 36.822104351794714], [-108.70585425542308, 36.82201427724442], [-108.70574219051379, 36.822012113962394], [-108.70574488073619, 36.82192203941761], [-108.70563281596999, 36.82191987603712], [-108.70563550631157, 36.82182980149785], [-108.70552344168846, 36.8218276380189], [-108.7055261321492, 36.82173756348514], [-108.70541406766915, 36.82173539990773], [-108.70541675824907, 36.821645325379464], [-108.70530469391211, 36.82164316170359], [-108.70530738461119, 36.82155308718085], [-108.70519532041732, 36.821550923406534], [-108.70518993874497, 36.82173107243639], [-108.70530200320108, 36.82173323622482], [-108.70529124023736, 36.82209353429428], [-108.7049550453314, 36.82208704252797], [-108.70495773648366, 36.821996968034036], [-108.70484567167006, 36.82199480390797], [-108.7048429803867, 36.82208487839485], [-108.70473091545394, 36.82208271415622], [-108.70473629827096, 36.82190256519502], [-108.70462423361242, 36.82190040086499], [-108.70461885053315, 36.82208054981209], [-108.70439472072746, 36.82207622080731], [-108.70440279611519, 36.82180599742666], [-108.70451486061866, 36.821808161960654], [-108.70452562711033, 36.821447864070066], [-108.70486181911912, 36.82145435695444], [-108.7048591279075, 36.821544431450526], [-108.70508325623543, 36.8215487595267], [-108.7050886381222, 36.82136861050479], [-108.70520070204186, 36.821370774370514], [-108.70520877438899, 36.821100550804964], [-108.70543290147748, 36.82110487817766], [-108.7054355919737, 36.82101480363864], [-108.70599590924864, 36.821025620188834], [-108.70599859907732, 36.820935545613054], [-108.70611066243707, 36.820937708599544], [-108.70610797273952, 36.821027783182366], [-108.70622003624233, 36.8210299460704], [-108.70621734666395, 36.82112002065872], [-108.70655353763752, 36.82112650871093], [-108.70655622682254, 36.82103643410147], [-108.70666829037319, 36.821038596567504], [-108.70666022317562, 36.82130882041239], [-108.70688435109952, 36.82131314507018], [-108.70688703991507, 36.821223070442656], [-108.70699910376382, 36.82122523260626], [-108.70701792422041, 36.82059471012139], [-108.70679379837051, 36.82059038578728], [-108.70679648722161, 36.82050031115451], [-108.70634823618975, 36.82049166124844], [-108.70634554681419, 36.820581735853025], [-108.70589729544918, 36.82057308423078], [-108.70589998534919, 36.82048300965436], [-108.70578792266895, 36.820480846492096], [-108.70579061268813, 36.82039077192118], [-108.70567855015096, 36.82038860866046], [-108.70567586000065, 36.82047868322432], [-108.70533967206757, 36.82047219278802], [-108.70533698151196, 36.82056226732921], [-108.7051128560208, 36.82055793983008], [-108.70511016519102, 36.82064801435564], [-108.70488603948547, 36.82064368642041], [-108.70488334838149, 36.82073376093034], [-108.70465922246157, 36.82072943255903], [-108.7046565310834, 36.82081950705333], [-108.70454446801027, 36.82081734270237], [-108.70453908495581, 36.820997491672244], [-108.70442702163241, 36.82099532720169], [-108.70441894656764, 36.82126555062385], [-108.70430688286287, 36.821263386026644], [-108.70429342352676, 36.82171375833091], [-108.70418135917834, 36.821711593592966], [-108.70417597509793, 36.821891742489804], [-108.70406391049922, 36.82188957763225], [-108.70406121830993, 36.82197965207131], [-108.70394915359208, 36.8219774871012], [-108.70394376891538, 36.82215763596063], [-108.70427996389162, 36.82216413059675], [-108.7042772719287, 36.82225420504532], [-108.70438933707585, 36.822256369720066], [-108.7043866452321, 36.82234644417413], [-108.70461077582453, 36.8223507732212], [-108.70460808423108, 36.822440847687844], [-108.70449601879776, 36.82243868321], [-108.70449332706121, 36.822528757668046], [-108.70482952379048, 36.82253525080616], [-108.70482683243534, 36.82262532528383], [-108.70471476671582, 36.82262316100291], [-108.70471207521763, 36.82271323547198], [-108.70460000937894, 36.822711071078515], [-108.70459462608439, 36.82289121999795], [-108.70437049391839, 36.82288689086628], [-108.70436241810005, 36.823157114191616], [-108.70492275057174, 36.82316793633518], [-108.70492544186747, 36.82307786185969], [-108.70526164110068, 36.82308435385857], [-108.70525895019833, 36.8231744283552], [-108.70537101676446, 36.82317659215085], [-108.70537370753568, 36.82308651764717], [-108.70548577398263, 36.82308868133027], [-108.70548308334254, 36.82317875584099], [-108.70559514993259, 36.82318091942563], [-108.70559784044156, 36.82309084490785], [-108.70593403989007, 36.82309733500757], [-108.70593134977452, 36.82318740954647], [-108.7060434164124, 36.82318957270906], [-108.70604072641603, 36.82327964725346], [-108.706152793197, 36.823281810317596]], [[-108.70509671086268, 36.82109838696037], [-108.70498464734834, 36.82109622301028], [-108.70499002937778, 36.82091607398709], [-108.70510209262989, 36.82091823792309], [-108.70509671086268, 36.82109838696037]], [[-108.70689241751036, 36.821042921183036], [-108.7067803539358, 36.821040758928014], [-108.70678304284665, 36.820950684302936], [-108.70689510629009, 36.820952846550924], [-108.70689241751036, 36.821042921183036]], [[-108.70555034575791, 36.820926892612086], [-108.70543828245798, 36.820924729098095], [-108.70544097293028, 36.82083465455601], [-108.7055530360991, 36.82083681806295], [-108.70555034575791, 36.820926892612086]]]}, "properties": {"class": "riparian", "min_prob": 0.5}}, {"type": "Feature", "geometry": {"type": "Polygon", "coordinates": [[[-108.70716224786781, 36.81951597618222], [-108.70716493618218, 36.81942590150988], [-108.70705287494378, 36.8194237395926], [-108.70705018649828, 36.819513814257895], [-108.70716224786781, 36.81951597618222]]]}, "properties": {"class": "riparian", "min_prob": 0.5}}, {"type": "Feature", "geometry": {"type": "Polygon", "coordinates": [[[-108.71747462116889, 36.81962434658322], [-108.71747729740908, 36.8195342712631], [-108.71736523520467, 36.8195321190586], [-108.71736255883336, 36.81962219437171], [-108.71747462116889, 36.81962434658322]]]}, "properties": {"class": "riparian", "min_prob": 0.5}}, {"type": "Feature", "geometry": {"type": "Polygon", "coordinates": [[[-108.71792822204951, 36.81945280367638], [-108.71793089774147, 36.81936272832515], [-108.71737058791162, 36.819351968427775], [-108.7173679115641, 36.819442043743955], [-108.71792822204951, 36.81945280367638]]]}, "properties": {"class": "riparian", "min_prob": 0.5}}, {"type": "Feature", "geometry": {"type": "Polygon", "coordinates": [[[-108.71693304763087, 36.81898305744296], [-108.71693840124397, 36.818802906849804], [-108.71682634014796, 36.8188007541739], [-108.71682098627262, 36.81898090475305], [-108.71693304763087, 36.81898305744296]]]}, "properties": {"class": "riparian", "min_prob": 0.5}}, {"type": "Feature", "geometry": {"type": "Polygon", "coordinates": [[[-108.70594033241525, 36.819131890823755], [-108.70594840150575, 36.81886166701613], [-108.70606046183796, 36.8188638299461], [-108.70607121993355, 36.81850353148628], [-108.7061832797533, 36.818505694282585], [-108.70618865846718, 36.81832554502937], [-108.70630071803669, 36.81832770770609], [-108.70631416395675, 36.817877334510925], [-108.70620210504275, 36.81787517186942], [-108.706204794322, 36.81778509723282], [-108.70609273555105, 36.817782934492854], [-108.70609004614069, 36.817873009122415], [-108.7059779872506, 36.81787084626992], [-108.70597260813182, 36.81805099551033], [-108.70608466728412, 36.81805315837692], [-108.70607928837974, 36.81823330762527], [-108.70596722896525, 36.818231144744594], [-108.70596453936402, 36.81832121935943], [-108.7058524798304, 36.81831905636623], [-108.70583903098951, 36.8187694293821], [-108.70572697081232, 36.81876726624818], [-108.70572428087718, 36.818857340839706], [-108.70583634118549, 36.81885950398067], [-108.7058336513695, 36.818949578577694], [-108.7057215909301, 36.81894741542968], [-108.70571621100005, 36.819127564605054], [-108.70594033241525, 36.819131890823755]]]}, "properties": {"class": "riparian", "min_prob": 0.5}}, {"type": "Feature", "geometry": {"type": "Polygon", "coordinates": [[[-108.70776018103167, 36.81826573817633], [-108.7077709309266, 36.817905439251], [-108.70765887185722, 36.81790327798086], [-108.7076615594322, 36.81781320325273], [-108.70754950050586, 36.81781104188414], [-108.70754681279978, 36.817901116605235], [-108.7074347537543, 36.81789895512411], [-108.70743206590518, 36.817989029836625], [-108.70754412508177, 36.81799119132478], [-108.7075414373518, 36.81808126604282], [-108.70742937804413, 36.81807910454762], [-108.70742400228616, 36.81825925396496], [-108.70776018103167, 36.81826573817633]]]}, "properties": {"class": "riparian", "min_prob": 0.5}}, {"type": "Feature", "geometry": {"type": "Polygon", "coordinates": [[[-108.7183072118349, 36.81801805222974], [-108.71830988694332, 36.817927976832934], [-108.7181978270156, 36.81792582549305], [-108.71819515177607, 36.818015900882855], [-108.7183072118349, 36.81801805222974]]]}, "properties": {"class": "riparian", "min_prob": 0.5}}, {"type": "Feature", "geometry": {"type": "Polygon", "coordinates": [[[-108.71831256203984, 36.8178379014346], [-108.71831523712449, 36.817747826034726], [-108.71820317745897, 36.81774567470886], [-108.71820050224323, 36.81783575010172], [-108.71831256203984, 36.8178379014346]]]}, "properties": {"class": "riparian", "min_prob": 0.5}}, {"type": "Feature", "geometry": {"type": "Polygon", "coordinates": [[[-108.70800311061042, 36.81763953722247], [-108.70800579775627, 36.81754946246862], [-108.7078937391874, 36.81754730143761], [-108.70789105191044, 36.81763737618442], [-108.70800311061042, 36.81763953722247]]]}, "properties": {"class": "riparian", "min_prob": 0.5}}, {"type": "Feature", "geometry": {"type": "Polygon", "coordinates": [[[-108.71809379314031, 36.8176534478901], [-108.71809914377457, 36.81747329711071], [-108.71787502528962, 36.81746899397355], [-108.71786967413097, 36.81764914472492], [-108.71809379314031, 36.8176534478901]]]}, "properties": {"class": "riparian", "min_prob": 0.5}}, {"type": "Feature", "geometry": {"type": "Polygon", "coordinates": [[[-108.71855005566206, 36.81739182669911], [-108.71855273042507, 36.81730175127755], [-108.71844067139128, 36.81729960019769], [-108.71843799649717, 36.81738967561224], [-108.71855005566206, 36.81739182669911]]]}, "properties": {"class": "riparian", "min_prob": 0.5}}, {"type": "Feature", "geometry": {"type": "Polygon", "coordinates": [[[-108.7187928952836, 36.81676560047516], [-108.71880091850079, 36.81649537413162], [-108.71868886062309, 36.81649322332579], [-108.71868083701261, 36.816763449648306], [-108.7187928952836, 36.81676560047516]]]}, "properties": {"class": "riparian", "min_prob": 0.5}}, {"type": "Feature", "geometry": {"type": "Polygon", "coordinates": [[[-108.71073278173272, 36.81634024648751], [-108.71073546555333, 36.8162501715418], [-108.7106234086643, 36.81624801314799], [-108.7106207247126, 36.81633808808666], [-108.71073278173272, 36.81634024648751]]]}, "properties": {"class": "riparian", "min_prob": 0.5}}, {"type": "Feature", "geometry": {"type": "Polygon", "coordinates": [[[-108.71017518122754, 36.81623937851787], [-108.71017786569166, 36.81614930360578], [-108.70995375230707, 36.816144985671876], [-108.70995106758077, 36.816235060569895], [-108.71017518122754, 36.81623937851787]]]}, "properties": {"class": "riparian", "min_prob": 0.5}}, {"type": "Feature", "geometry": {"type": "Polygon", "coordinates": [[[-108.710401979124, 36.816153621117756], [-108.71040466331402, 36.81606354619007], [-108.71029260672297, 36.81606138749385], [-108.71028992240187, 36.81615146241451], [-108.710401979124, 36.816153621117756]]]}, "properties": {"class": "riparian", "min_prob": 0.5}}, {"type": "Feature", "geometry": {"type": "Polygon", "coordinates": [[[-108.71085020613187, 36.816162254875884], [-108.71085288979752, 36.816072179920084], [-108.71074083315875, 36.81607002164581], [-108.71074351694357, 36.8159799466955], [-108.71063146044781, 36.81597778832276], [-108.71062609260406, 36.81615793820779], [-108.71085020613187, 36.816162254875884]]]}, "properties": {"class": "riparian", "min_prob": 0.5}}, {"type": "Feature", "geometry": {"type": "Polygon", "coordinates": [[[-108.71903305661553, 36.81622944902745], [-108.71903573069966, 36.816139373557924], [-108.71892367332255, 36.81613722299108], [-108.71892099910734, 36.81622729845359], [-108.71903305661553, 36.81622944902745]]]}, "properties": {"class": "riparian", "min_prob": 0.5}}, {"type": "Feature", "geometry": {"type": "Polygon", "coordinates": [[[-108.71107700311086, 36.81607649615217], [-108.71107968650242, 36.815986421180796], [-108.71119174304589, 36.815988579131584], [-108.71119442629443, 36.81589850415163], [-108.71097031348158, 36.81589418815861], [-108.71096762997088, 36.81598426312451], [-108.71085557345125, 36.81598210496275], [-108.71085288979752, 36.816072179920084], [-108.71107700311086, 36.81607649615217]]]}, "properties": {"class": "riparian", "min_prob": 0.5}}, {"type": "Feature", "geometry": {"type": "Polygon", "coordinates": [[[-108.71029260672297, 36.81606138749385], [-108.7102979753294, 36.81588123764795], [-108.71018591901246, 36.81587907886032], [-108.71018860342886, 36.81578900394208], [-108.70996449109298, 36.81578468606442], [-108.70996180641438, 36.8158747609686], [-108.71007386270746, 36.815876919967195], [-108.71007117814804, 36.81596699487686], [-108.71018323458412, 36.815969153777004], [-108.71018055014386, 36.816059228692154], [-108.71029260672297, 36.81606138749385]]]}, "properties": {"class": "riparian", "min_prob": 0.5}}, {"type": "Feature", "geometry": {"type": "Polygon", "coordinates": [[[-108.71197882151513, 36.81591360680448], [-108.71198150383414, 36.815823531773795], [-108.71186944746935, 36.81582137457543], [-108.71186676501925, 36.8159114495991], [-108.71197882151513, 36.81591360680448]]]}, "properties": {"class": "riparian", "min_prob": 0.5}}, {"type": "Feature", "geometry": {"type": "Polygon", "coordinates": [[[-108.7141078972019, 36.8159545736648], [-108.71411325684664, 36.815774423335064], [-108.71400120038648, 36.81577226814792], [-108.71399852043896, 36.81586234330652], [-108.71377440729218, 36.81585803260174], [-108.71377172707058, 36.81594810774479], [-108.7141078972019, 36.8159545736648]]]}, "properties": {"class": "riparian", "min_prob": 0.5}}, {"type": "Feature", "geometry": {"type": "Polygon", "coordinates": [[[-108.70802729449326, 36.816828864382465], [-108.70802998153165, 36.81673878961479], [-108.70825409634556, 36.81674311123367], [-108.70825946986216, 36.81656296166553], [-108.7081474127114, 36.816560800922915], [-108.7081500995829, 36.816470726143585], [-108.70826215660254, 36.816472886879176], [-108.7082755901254, 36.8160225129243], [-108.70838764650155, 36.81602467351922], [-108.70839033303922, 36.8159345987166], [-108.70850238929623, 36.81593675919901], [-108.70851582115007, 36.81548638512769], [-108.7084037655485, 36.81548422468047], [-108.70840107907051, 36.81557429949077], [-108.70806491194419, 36.81556781749513], [-108.70806759881543, 36.81547774270593], [-108.70773143218987, 36.81547125978206], [-108.70772874492538, 36.81556133455013], [-108.70761668927634, 36.815559173357514], [-108.70761131444937, 36.81573932287497], [-108.70738720266279, 36.815735000145125], [-108.70738451496922, 36.815825074887485], [-108.70794479518072, 36.815835880956186], [-108.70794210813064, 36.81592595573218], [-108.70805416433987, 36.81592811663652], [-108.70804879046607, 36.816108266198], [-108.70771262108771, 36.81610178312633], [-108.70771530842384, 36.81601170836747], [-108.70760325211936, 36.81600954713964], [-108.70759518968187, 36.816279771390505], [-108.7077072463796, 36.81628193263944], [-108.7076991842279, 36.81655215689757], [-108.70781124133086, 36.81655431806213], [-108.70780586676554, 36.816734467573966], [-108.70791792414262, 36.81673662864712], [-108.70791523697314, 36.81682670340775], [-108.70802729449326, 36.816828864382465]], [[-108.70804072956581, 36.8163784905287], [-108.70792867270116, 36.81637632958918], [-108.70793135981093, 36.81628625482085], [-108.7080434165445, 36.816288415753334], [-108.70804072956581, 36.8163784905287]]]}, "properties": {"class": "riparian", "min_prob": 0.5}}, {"type": "Feature", "geometry": {"type": "Polygon", "coordinates": [[[-108.71165070016433, 36.81563690983845], [-108.71165338284084, 36.81554683482425], [-108.71154132690508, 36.81554467733053], [-108.71153864409749, 36.81563475233771], [-108.71165070016433, 36.81563690983845]]]}, "properties": {"class": "riparian", "min_prob": 0.5}}, {"type": "Feature", "geometry": {"type": "Polygon", "coordinates": [[[-108.71142658804257, 36.815632594731476], [-108.711431953908, 36.81545244472963], [-108.7113198981272, 36.815450287031965], [-108.71131453199959, 36.81563043701975], [-108.71142658804257, 36.815632594731476]]]}, "properties": {"class": "riparian", "min_prob": 0.5}}, {"type": "Feature", "geometry": {"type": "Polygon", "coordinates": [[[-108.7110904199494, 36.81562612127986], [-108.71109310328134, 36.815536046300785], [-108.71120515916938, 36.81553820421645], [-108.7112078423583, 36.81544812922881], [-108.71064756369283, 36.81543733863085], [-108.71064487984847, 36.81552741358334], [-108.71086899154105, 36.81553173015303], [-108.71086630794693, 36.81562180511805], [-108.7110904199494, 36.81562612127986]]]}, "properties": {"class": "riparian", "min_prob": 0.5}}, {"type": "Feature", "geometry": {"type": "Polygon", "coordinates": [[[-108.71031139663671, 36.815430863006306], [-108.7103140808624, 36.815340788073364], [-108.7100899698135, 36.81533647047697], [-108.71008728532563, 36.81542654539585], [-108.71031139663671, 36.815430863006306]]]}, "properties": {"class": "riparian", "min_prob": 0.5}}, {"type": "Feature", "geometry": {"type": "Polygon", "coordinates": [[[-108.70851850748502, 36.81539631030883], [-108.70852119380805, 36.815306235488414], [-108.70840913846864, 36.81530407505527], [-108.70840645201453, 36.81539414986864], [-108.70851850748502, 36.81539631030883]]]}, "properties": {"class": "riparian", "min_prob": 0.5}}, {"type": "Feature", "geometry": {"type": "Polygon", "coordinates": [[[-108.70633298774295, 36.817246811973185], [-108.70633567680747, 36.81715673731877], [-108.70667185047492, 36.81716322444135], [-108.70667722778154, 36.8169830750857], [-108.7067892854324, 36.81698523723483], [-108.70679466242905, 36.81680508785895], [-108.70690671982969, 36.81680724988852], [-108.70691478484179, 36.816537025792044], [-108.7070268418611, 36.81653918769499], [-108.70704028265357, 36.81608881413494], [-108.70715233902938, 36.81609097589721], [-108.70716577886779, 36.815640602263535], [-108.7070537231474, 36.81563844053647], [-108.70706985134582, 36.81509799216761], [-108.7069577964239, 36.8150958303773], [-108.7069362910151, 36.81581642813384], [-108.70682423505643, 36.815814266181725], [-108.70681616993777, 36.816084490293946], [-108.70670411359781, 36.81608232821522], [-108.70670142506995, 36.81617240290918], [-108.70658936861085, 36.81617024071793], [-108.70658667993995, 36.81626031540332], [-108.70647462336171, 36.81625815309955], [-108.70647193454778, 36.81634822777635], [-108.7063598778504, 36.816346065360065], [-108.70635181094364, 36.81661628936013], [-108.70646386803428, 36.81661845179755], [-108.70646117917255, 36.816708526468204], [-108.70634912195082, 36.81670636402374], [-108.70634643294605, 36.81679643868582], [-108.70623437560518, 36.81679427612882], [-108.7062289972976, 36.816974425434275], [-108.70611693970652, 36.81697226275772], [-108.7061142504037, 36.8170623374011], [-108.70600219269348, 36.817060174611996], [-108.70599681378982, 36.81724032388007], [-108.70633298774295, 36.817246811973185]], [[-108.70645311251566, 36.81697875047097], [-108.70634105490065, 36.81697658800537], [-108.70634374392932, 36.81688651334636], [-108.70645580141324, 36.81688867580492], [-108.70645311251566, 36.81697875047097]], [[-108.70691747315526, 36.81644695109014], [-108.706805416279, 36.816444789088735], [-108.7068081047116, 36.81635471439234], [-108.70692016145678, 36.816356876386706], [-108.70691747315526, 36.81644695109014]]]}, "properties": {"class": "riparian", "min_prob": 0.5}}, {"type": "Feature", "geometry": {"type": "Polygon", "coordinates": [[[-108.71524453600667, 36.81543566844636], [-108.7152498928868, 36.81525551795785], [-108.71502578131319, 36.81525120967194], [-108.7150204239087, 36.81543136013238], [-108.71524453600667, 36.81543566844636]]]}, "properties": {"class": "riparian", "min_prob": 0.5}}, {"type": "Feature", "geometry": {"type": "Polygon", "coordinates": [[[-108.7100899698135, 36.81533647047697], [-108.7100953387534, 36.81515632063461], [-108.70975917305604, 36.81514984349111], [-108.7097564881988, 36.815239918391974], [-108.70998059891393, 36.81524423660717], [-108.70997791430693, 36.815334311520566], [-108.7100899698135, 36.81533647047697]]]}, "properties": {"class": "riparian", "min_prob": 0.5}}, {"type": "Feature", "geometry": {"type": "Polygon", "coordinates": [[[-108.71031676507616, 36.81525071313888], [-108.71031944927797, 36.815160638202876], [-108.71020739400971, 36.815158479471485], [-108.7102047096768, 36.815248554400455], [-108.71031676507616, 36.81525071313888]]]}, "properties": {"class": "riparian", "min_prob": 0.5}}, {"type": "Feature", "geometry": {"type": "Polygon", "coordinates": [[[-108.71176812132201, 36.81545891718973], [-108.711776168851, 36.81518869211221], [-108.71166411342766, 36.81518653475207], [-108.71166947864954, 36.81500638470676], [-108.7115574235003, 36.8150042272552], [-108.7115466924845, 36.815364527311566], [-108.71165874815809, 36.81536668479123], [-108.71165606550542, 36.81545675980851], [-108.71176812132201, 36.81545891718973]]]}, "properties": {"class": "riparian", "min_prob": 0.5}}, {"type": "Feature", "geometry": {"type": "Polygon", "coordinates": [[[-108.7069577964239, 36.8150958303773], [-108.70696317265663, 36.81491568092281], [-108.7068511180088, 36.81491351904111], [-108.70684574151389, 36.81509366848152], [-108.7069577964239, 36.8150958303773]]]}, "properties": {"class": "riparian", "min_prob": 0.5}}, {"type": "Feature", "geometry": {"type": "Polygon", "coordinates": [[[-108.7153646269826, 36.81516759668903], [-108.71536730526185, 36.81507752143393], [-108.71525524971933, 36.81507536746322], [-108.71525257130902, 36.815165442711304], [-108.7153646269826, 36.81516759668903]]]}, "properties": {"class": "riparian", "min_prob": 0.5}}, {"type": "Feature", "geometry": {"type": "Polygon", "coordinates": [[[-108.71020739400971, 36.815158479471485], [-108.71021276263976, 36.81497832960893], [-108.7101007076456, 36.81497617078611], [-108.7101033920738, 36.81488609585955], [-108.70987928238344, 36.81488177791156], [-108.70987659769308, 36.81497185282406], [-108.70976454273473, 36.814969693684795], [-108.70976185790134, 36.81505976858873], [-108.71009802320546, 36.81506624571112], [-108.7100953387534, 36.81515632063461], [-108.71020739400971, 36.815158479471485]]]}, "properties": {"class": "riparian", "min_prob": 0.5}}, {"type": "Feature", "geometry": {"type": "Polygon", "coordinates": [[[-108.71122930744052, 36.814727529272446], [-108.71123199052214, 36.814637454270986], [-108.71111993594492, 36.814635296425614], [-108.71111725273221, 36.814725371420046], [-108.71122930744052, 36.814727529272446]]]}, "properties": {"class": "riparian", "min_prob": 0.5}}, {"type": "Feature", "geometry": {"type": "Polygon", "coordinates": [[[-108.7105516115977, 36.81489473048979], [-108.71055966323779, 36.814624505616536], [-108.71033555423844, 36.81462018855456], [-108.71033823835678, 36.814530113607795], [-108.71022618400609, 36.81452795492563], [-108.71021813122206, 36.814798179740194], [-108.71044224072186, 36.814802497041256], [-108.71043955669882, 36.81489257199044], [-108.7105516115977, 36.81489473048979]]]}, "properties": {"class": "riparian", "min_prob": 0.5}}, {"type": "Feature", "geometry": {"type": "Polygon", "coordinates": [[[-108.70979139041236, 36.81406894456107], [-108.70979407511449, 36.81397886964025], [-108.70968202160995, 36.81397671047288], [-108.70967933677672, 36.81406678538666], [-108.70979139041236, 36.81406894456107]]]}, "properties": {"class": "riparian", "min_prob": 0.5}}, {"type": "Feature", "geometry": {"type": "Polygon", "coordinates": [[[-108.71001818215942, 36.81398318765858], [-108.71002086658748, 36.81389311272215], [-108.70990881319014, 36.813890953772756], [-108.70990612863099, 36.81398102870215], [-108.71001818215942, 36.81398318765858]]]}, "properties": {"class": "riparian", "min_prob": 0.5}}, {"type": "Feature", "geometry": {"type": "Polygon", "coordinates": [[[-108.71954812219705, 36.813986162369126], [-108.71955079545981, 36.81389608683323], [-108.71943874131229, 36.813893936863394], [-108.71943606791845, 36.81398401239229], [-108.71954812219705, 36.813986162369126]]]}, "properties": {"class": "riparian", "min_prob": 0.5}}, {"type": "Feature", "geometry": {"type": "Polygon", "coordinates": [[[-108.70856685947307, 36.81377496330646], [-108.70856954558123, 36.813684888458404], [-108.70845749260121, 36.8136827281519], [-108.70845480636198, 36.81377280299292], [-108.70856685947307, 36.81377496330646]]]}, "properties": {"class": "riparian", "min_prob": 0.5}}, {"type": "Feature", "geometry": {"type": "Polygon", "coordinates": [[[-108.70834275326284, 36.813770642573914], [-108.70834543963315, 36.81368056773994], [-108.70823338667704, 36.81367840722248], [-108.70823070017565, 36.81376848204943], [-108.70834275326284, 36.813770642573914]]]}, "properties": {"class": "riparian", "min_prob": 0.5}}, {"type": "Feature", "geometry": {"type": "Polygon", "coordinates": [[[-108.70797166502479, 36.81493513311163], [-108.70798778635812, 36.814394684331155], [-108.70809984033895, 36.81439684511585], [-108.70810252705496, 36.81430677030668], [-108.70821458091667, 36.81430893097886], [-108.70821189433173, 36.81439900579507], [-108.70832394833646, 36.81440116636881], [-108.70832126187064, 36.8144912411905], [-108.70843331601839, 36.8144934016658], [-108.70843062967172, 36.81458347649299], [-108.7083185753929, 36.81458131601066], [-108.70831588890321, 36.81467139082928], [-108.70876410661447, 36.8146800321539], [-108.70877216447477, 36.814409807609], [-108.70866011042227, 36.814407647457166], [-108.70866279648291, 36.814317572612815], [-108.70888690433769, 36.81432189279693], [-108.70888959012423, 36.814231817936985], [-108.70900164393845, 36.81423397786379], [-108.7090150720368, 36.81378360350584], [-108.70856685947307, 36.81377496330646], [-108.70856417335297, 36.81386503815299], [-108.70845212011082, 36.81386287783241], [-108.7084494338477, 36.813952952670356], [-108.70822532713709, 36.81394863169872], [-108.70823070017565, 36.81376848204943], [-108.7077824879463, 36.81375983889675], [-108.7077878619857, 36.813579689297626], [-108.70767580922038, 36.81357752825984], [-108.70767312207558, 36.81366760305313], [-108.70756106919112, 36.81366544190284], [-108.7075583819033, 36.81375551668756], [-108.7072222229284, 36.81374903258273], [-108.70722759827851, 36.813568883053975], [-108.70711554557292, 36.81356672148883], [-108.7071074821366, 36.81383694575853], [-108.70721953523542, 36.81383910734479], [-108.70721415981365, 36.81401925686433], [-108.70699005310367, 36.81401493355816], [-108.70698467710983, 36.81419508304338], [-108.70687262351062, 36.81419292121799], [-108.7068699353647, 36.81428299595125], [-108.70709404283721, 36.81428731951062], [-108.70709673072099, 36.81419724476327], [-108.70720878434409, 36.8141994063777], [-108.70721147208484, 36.81410933162178], [-108.70743557910475, 36.81411365452014], [-108.7074382665714, 36.8140235797486], [-108.7075503199682, 36.81402574103252], [-108.70754763263263, 36.81411581581111], [-108.70765968617245, 36.814117976996585], [-108.70764356269466, 36.814658425678026], [-108.70775561703287, 36.814660586800265], [-108.70775024270691, 36.81484073636252], [-108.70786229731924, 36.81484289739336], [-108.70785961026942, 36.814932972179236], [-108.70797166502479, 36.81493513311163]], [[-108.70800122047422, 36.81394431030519], [-108.70788916716072, 36.813942149450206], [-108.70789185407918, 36.813852074647436], [-108.70800390726161, 36.81385423549538], [-108.70800122047422, 36.81394431030519]]]}, "properties": {"class": "riparian", "min_prob": 0.5}}, {"type": "Feature", "geometry": {"type": "Polygon", "coordinates": [[[-108.71159498055353, 36.81374317686441], [-108.71159766311078, 36.81365310182499], [-108.71148560993963, 36.813650944373336], [-108.71148829261602, 36.813560869339405], [-108.71137623958788, 36.8135587117893], [-108.71137087396099, 36.813738861841586], [-108.71159498055353, 36.81374317686441]]]}, "properties": {"class": "riparian", "min_prob": 0.5}}, {"type": "Feature", "geometry": {"type": "Polygon", "coordinates": [[[-108.70701424448477, 36.81320426079861], [-108.70701693235627, 36.81311418603986], [-108.70690488032993, 36.81311202429896], [-108.70690219232735, 36.81320209905067], [-108.70701424448477, 36.81320426079861]]]}, "properties": {"class": "riparian", "min_prob": 0.5}}, {"type": "Feature", "geometry": {"type": "Polygon", "coordinates": [[[-108.708028087811, 36.813043562138034], [-108.70803077447901, 36.81295348731287], [-108.70791872260729, 36.8129513265353], [-108.7079160358082, 36.81304140135343], [-108.708028087811, 36.813043562138034]]]}, "properties": {"class": "riparian", "min_prob": 0.5}}, {"type": "Feature", "geometry": {"type": "Polygon", "coordinates": [[[-108.70836424389107, 36.81305004385903], [-108.70836961642875, 36.81286989416494], [-108.70803346113509, 36.81286341248616], [-108.70803077447901, 36.81295348731287], [-108.70814282636269, 36.81295564798497], [-108.70814013982574, 36.81304572281717], [-108.70836424389107, 36.81305004385903]]]}, "properties": {"class": "riparian", "min_prob": 0.5}}, {"type": "Feature", "geometry": {"type": "Polygon", "coordinates": [[[-108.71116554873664, 36.81310402128535], [-108.71117628065747, 36.81274372118786], [-108.71084012525502, 36.81273724746163], [-108.71083207515267, 36.81300747247381], [-108.71094412733477, 36.8130096305091], [-108.71094144407452, 36.81309970551712], [-108.71116554873664, 36.81310402128535]]]}, "properties": {"class": "riparian", "min_prob": 0.5}}, {"type": "Feature", "geometry": {"type": "Polygon", "coordinates": [[[-108.69907205680391, 36.812600143293444], [-108.69907475392124, 36.812510069027745], [-108.6989627034001, 36.81250789983377], [-108.69896000615172, 36.812597974092405], [-108.69907205680391, 36.812600143293444]]]}, "properties": {"class": "riparian", "min_prob": 0.5}}, {"type": "Feature", "geometry": {"type": "Polygon", "coordinates": [[[-108.6987359048833, 36.8125936353739], [-108.6987386023938, 36.8125035611294], [-108.69851450143548, 36.812499222003154], [-108.69851180366285, 36.81258929623353], [-108.6987359048833, 36.8125936353739]]]}, "properties": {"class": "riparian", "min_prob": 0.5}}, {"type": "Feature", "geometry": {"type": "Polygon", "coordinates": [[[-108.71509810161378, 36.81281917785509], [-108.71510077997678, 36.8127291025811], [-108.714988727878, 36.81272694847638], [-108.7149860493839, 36.81281702374333], [-108.71509810161378, 36.81281917785509]]]}, "properties": {"class": "riparian", "min_prob": 0.5}}, {"type": "Feature", "geometry": {"type": "Polygon", "coordinates": [[[-108.70994908014579, 36.81253982964762], [-108.70995176451407, 36.81244975469366], [-108.70983971322576, 36.8124475957513], [-108.70983702872643, 36.81253767069823], [-108.70994908014579, 36.81253982964762]]]}, "properties": {"class": "riparian", "min_prob": 0.5}}, {"type": "Feature", "geometry": {"type": "Polygon", "coordinates": [[[-108.70767580922038, 36.81357752825984], [-108.70768387058314, 36.81330730387073], [-108.70757181822296, 36.81330514274859], [-108.70757450545108, 36.81321506795619], [-108.70779860992123, 36.813219390080924], [-108.70780667074749, 36.812949165652256], [-108.70791872260729, 36.8129513265353], [-108.7079267829329, 36.8126811020717], [-108.70882319509556, 36.8126983851702], [-108.70882050938083, 36.81278846004922], [-108.70893256108596, 36.81279061996894], [-108.70892987549036, 36.81288069485346], [-108.70848166821719, 36.81287205451359], [-108.70847898208538, 36.81296212936844], [-108.70859103401683, 36.812964289618655], [-108.70858834800416, 36.813054364479], [-108.70870040007861, 36.813056524630774], [-108.70869502827959, 36.81323667436093], [-108.70880708062812, 36.813238834421306], [-108.70880976640254, 36.81314875954996], [-108.70914592312658, 36.81315523907714], [-108.70915397919858, 36.81288501439058], [-108.70904192733849, 36.812882854674754], [-108.70904461280304, 36.812792779783194], [-108.70915666453205, 36.81279493949199], [-108.70915934985358, 36.81270486459187], [-108.70927140146347, 36.81270702418814], [-108.7092767718086, 36.81252687436921], [-108.7093888231683, 36.812529033845955], [-108.7093915081919, 36.81243895892716], [-108.70927945696327, 36.812436799457444], [-108.70928214210602, 36.812346724544135], [-108.70950624431308, 36.81235104336403], [-108.7095223533462, 36.81181059376755], [-108.70907415212534, 36.81180195587469], [-108.70907146679207, 36.81189203078315], [-108.70895941638562, 36.81188987103924], [-108.70896210184996, 36.81179979613781], [-108.70885005158652, 36.81179763629547], [-108.70884736599113, 36.811887711189854], [-108.70873531560858, 36.811885551235], [-108.70873800133504, 36.81179547634765], [-108.70862595109548, 36.81179331629437], [-108.70862326523796, 36.81188339117469], [-108.7085112148793, 36.811881231008904], [-108.70851390086787, 36.811791156135605], [-108.7084018506522, 36.811788995871396], [-108.70839916453255, 36.811879070737646], [-108.70772686270294, 36.811866106895316], [-108.70772954960894, 36.811776032071286], [-108.70761749947688, 36.8117738710688], [-108.70761212539081, 36.81195402070123], [-108.70750007500857, 36.8119518595792], [-108.70750544935674, 36.81177170996084], [-108.70739339924857, 36.81176954874743], [-108.70739071194939, 36.81185962355034], [-108.70727866172209, 36.8118574622244], [-108.70727597427992, 36.811947537018725], [-108.7071639239335, 36.811945375580294], [-108.70716661150675, 36.811855300793006], [-108.7069425111119, 36.81185097761383], [-108.70693982327654, 36.811941052387034], [-108.70671572266738, 36.81193672877189], [-108.70671303455795, 36.812026803529484], [-108.70682508498763, 36.812028965396834], [-108.70682239699731, 36.81211904015993], [-108.70693444756999, 36.81212120192884], [-108.70693713542924, 36.812031127158704], [-108.70760943832988, 36.81204409551515], [-108.70760675125699, 36.81213417032752], [-108.7077188019133, 36.812136331358154], [-108.70771611495955, 36.81222640617604], [-108.70760406417217, 36.81222424513836], [-108.70760137707542, 36.81231431994765], [-108.70748932616891, 36.81231215879747], [-108.70748395167745, 36.81249230839739], [-108.70737190052077, 36.81249014712766], [-108.70736921312607, 36.812580221918275], [-108.7074812644138, 36.81258238319505], [-108.7074785771382, 36.81267245799116], [-108.70759062856897, 36.8126746191695], [-108.7075852542441, 36.812854768771196], [-108.70747320255121, 36.81285260757879], [-108.70745439112055, 36.81348313108711], [-108.70756644373091, 36.8134852923288], [-108.70756375646698, 36.813575367116584], [-108.70767580922038, 36.81357752825984]], [[-108.70905266912504, 36.812522555099314], [-108.70849241262505, 36.81251175507884], [-108.70849509869717, 36.812421680216325], [-108.70905535454183, 36.81243248020162], [-108.70905266912504, 36.812522555099314]]]}, "properties": {"class": "riparian", "min_prob": 0.5}}, {"type": "Feature", "geometry": {"type": "Polygon", "coordinates": [[[-108.7200471194299, 36.81228332524508], [-108.72005513693267, 36.8120130984613], [-108.71994308549013, 36.81201094906038], [-108.71993506759415, 36.812281175823166], [-108.7200471194299, 36.81228332524508]]]}, "properties": {"class": "riparian", "min_prob": 0.5}}, {"type": "Feature", "geometry": {"type": "Polygon", "coordinates": [[[-108.71074685755036, 36.812104564308974], [-108.71074954094155, 36.81201448929812], [-108.71086159167, 36.812016647361574], [-108.71086427491822, 36.81192657234216], [-108.71075222432083, 36.81192441428574], [-108.7107549076882, 36.81183433927182], [-108.71064285723381, 36.81183218111694], [-108.7106348067028, 36.81210240613302], [-108.71074685755036, 36.812104564308974]]]}, "properties": {"class": "riparian", "min_prob": 0.5}}, {"type": "Feature", "geometry": {"type": "Polygon", "coordinates": [[[-108.70963977300141, 36.81163260308526], [-108.7096424576436, 36.81154252813702], [-108.7095304077017, 36.811540368948585], [-108.70952772292847, 36.81163044388977], [-108.70963977300141, 36.81163260308526]]]}, "properties": {"class": "riparian", "min_prob": 0.5}}, {"type": "Feature", "geometry": {"type": "Polygon", "coordinates": [[[-108.70975450759741, 36.81154468722001], [-108.7097625610592, 36.81127446234502], [-108.70965051149854, 36.81127230328313], [-108.7096424576436, 36.81154252813702], [-108.70975450759741, 36.81154468722001]]]}, "properties": {"class": "riparian", "min_prob": 0.5}}, {"type": "Feature", "geometry": {"type": "Polygon", "coordinates": [[[-108.72029527296552, 36.81147694325371], [-108.72029794510932, 36.811386867632834], [-108.72018589456046, 36.811384718491865], [-108.7201832222856, 36.81147479410574], [-108.72029527296552, 36.81147694325371]]]}, "properties": {"class": "riparian", "min_prob": 0.5}}, {"type": "Feature", "geometry": {"type": "Polygon", "coordinates": [[[-108.7105469083178, 36.81128957282517], [-108.71055227539787, 36.811109422802396], [-108.71044022601582, 36.81110726449283], [-108.71043485867362, 36.81128741450155], [-108.7105469083178, 36.81128957282517]]]}, "properties": {"class": "riparian", "min_prob": 0.5}}, {"type": "Feature", "geometry": {"type": "Polygon", "coordinates": [[[-108.71077637419776, 36.81111373910514], [-108.71077905745781, 36.811023664077396], [-108.71066700818295, 36.81102150598579], [-108.71066432479185, 36.8111115810065], [-108.71077637419776, 36.81111373910514]]]}, "properties": {"class": "riparian", "min_prob": 0.5}}, {"type": "Feature", "geometry": {"type": "Polygon", "coordinates": [[[-108.70920499849404, 36.8111735910547], [-108.7092076836008, 36.81108351612692], [-108.70931973285158, 36.811085675596594], [-108.70932241781534, 36.81099560066026], [-108.70921036869562, 36.81099344119762], [-108.70921305377851, 36.81090336626677], [-108.70831666229893, 36.81088608682516], [-108.70831397616759, 36.81097616169973], [-108.70820192715532, 36.81097400128791], [-108.7082046134177, 36.810883926420374], [-108.7079805156911, 36.8108796052944], [-108.7079778291666, 36.81096968014787], [-108.70775373122565, 36.810965358585975], [-108.70774835761662, 36.811145508260125], [-108.70920499849404, 36.8111735910547]]]}, "properties": {"class": "riparian", "min_prob": 0.5}}, {"type": "Feature", "geometry": {"type": "Polygon", "coordinates": [[[-108.70933047263507, 36.81072537584202], [-108.70933584245523, 36.8105452259555], [-108.70922379399079, 36.81054306652802], [-108.70921842390851, 36.81072321640047], [-108.70933047263507, 36.81072537584202]]]}, "properties": {"class": "riparian", "min_prob": 0.5}}, {"type": "Feature", "geometry": {"type": "Polygon", "coordinates": [[[-108.7110138879158, 36.81066767976166], [-108.71102193669498, 36.810397454608605], [-108.71079783994423, 36.81039313884018], [-108.7108005231089, 36.810303063800156], [-108.71057642666797, 36.810298747623946], [-108.71057105980253, 36.81047889767435], [-108.71045901133786, 36.810476739413986], [-108.7104563277562, 36.81056681442986], [-108.71079247357916, 36.810573288915634], [-108.71078979037874, 36.81066336395105], [-108.7110138879158, 36.81066767976166]]]}, "properties": {"class": "riparian", "min_prob": 0.5}}, {"type": "Feature", "geometry": {"type": "Polygon", "coordinates": [[[-108.72054074908192, 36.810760636111326], [-108.72054876440637, 36.810490409165304], [-108.72043671514433, 36.810488260305256], [-108.72042869942673, 36.81075848723029], [-108.72054074908192, 36.810760636111326]]]}, "properties": {"class": "riparian", "min_prob": 0.5}}, {"type": "Feature", "geometry": {"type": "Polygon", "coordinates": [[[-108.72009522284331, 36.81066196433522], [-108.72010056742953, 36.81048181309234], [-108.71987646901238, 36.810477514423056], [-108.71987112390195, 36.81065766563795], [-108.72009522284331, 36.81066196433522]]]}, "properties": {"class": "riparian", "min_prob": 0.5}}, {"type": "Feature", "geometry": {"type": "Polygon", "coordinates": [[[-108.70977061441361, 36.8110042374562], [-108.70977866766069, 36.810734012553574], [-108.7100027652451, 36.810738330276564], [-108.71001618577445, 36.81028795533781], [-108.70990413763154, 36.8102857965642], [-108.70990682183267, 36.81019572157887], [-108.7095706778687, 36.81018924464636], [-108.70956799327442, 36.81027931961059], [-108.70945594517924, 36.81027716041514], [-108.70945862990457, 36.81018708545794], [-108.70934658195239, 36.81018492616404], [-108.70934121222767, 36.81036507606285], [-108.70945326044196, 36.810367235370805], [-108.70945057569276, 36.810457310324935], [-108.70956262405004, 36.81045946953445], [-108.709554570124, 36.810729694408714], [-108.70966661888637, 36.81073185353388], [-108.70965856524614, 36.81100207841542], [-108.70977061441361, 36.8110042374562]]]}, "properties": {"class": "riparian", "min_prob": 0.5}}, {"type": "Feature", "geometry": {"type": "Polygon", "coordinates": [[[-108.71987646901238, 36.810477514423056], [-108.71987914154978, 36.8103874388133], [-108.7197670924901, 36.81038528932746], [-108.71976441982163, 36.810475364930234], [-108.71987646901238, 36.810477514423056]]]}, "properties": {"class": "riparian", "min_prob": 0.5}}, {"type": "Feature", "geometry": {"type": "Polygon", "coordinates": [[[-108.71281739322377, 36.810341890402896], [-108.71282007401756, 36.81025181523487], [-108.71270802570757, 36.81024965910484], [-108.71270534478272, 36.810339734265845], [-108.71281739322377, 36.810341890402896]]]}, "properties": {"class": "riparian", "min_prob": 0.5}}, {"type": "Feature", "geometry": {"type": "Polygon", "coordinates": [[[-108.72032733790738, 36.81039603570199], [-108.72033000990868, 36.81030596006271], [-108.72021796093252, 36.81030381100574], [-108.72021528880016, 36.810393886638025], [-108.72032733790738, 36.81039603570199]]]}, "properties": {"class": "riparian", "min_prob": 0.5}}, {"type": "Feature", "geometry": {"type": "Polygon", "coordinates": [[[-108.71001886984453, 36.810197880345456], [-108.71002155390269, 36.810107805351564], [-108.70990950602189, 36.810105646592], [-108.70990682183267, 36.81019572157887], [-108.71001886984453, 36.810197880345456]]]}, "properties": {"class": "riparian", "min_prob": 0.5}}, {"type": "Feature", "geometry": {"type": "Polygon", "coordinates": [[[-108.72055143615744, 36.810400333513556], [-108.72055677962395, 36.81022018220546], [-108.72044473075509, 36.81021803336641], [-108.72043938702646, 36.81039818466051], [-108.72055143615744, 36.810400333513556]]]}, "properties": {"class": "riparian", "min_prob": 0.5}}, {"type": "Feature", "geometry": {"type": "Polygon", "coordinates": [[[-108.72055945133941, 36.810130106549124], [-108.720562123043, 36.81004003089124], [-108.72045007443623, 36.81003788206619], [-108.72044740260161, 36.810127957717064], [-108.72055945133941, 36.810130106549124]]]}, "properties": {"class": "riparian", "min_prob": 0.5}}, {"type": "Feature", "geometry": {"type": "Polygon", "coordinates": [[[-108.72022330516162, 36.81012365973657], [-108.72022597725835, 36.8100335840997], [-108.72011392868724, 36.81003143495826], [-108.72011125645945, 36.81012151058813], [-108.72022330516162, 36.81012365973657]]]}, "properties": {"class": "riparian", "min_prob": 0.5}}, {"type": "Feature", "geometry": {"type": "Polygon", "coordinates": [[[-108.72067417166163, 36.810042179610825], [-108.72067684322228, 36.809952103944404], [-108.7205647947347, 36.809949955231815], [-108.720562123043, 36.81004003089124], [-108.72067417166163, 36.810042179610825]]]}, "properties": {"class": "riparian", "min_prob": 0.5}}, {"type": "Feature", "geometry": {"type": "Polygon", "coordinates": [[[-108.71932958902208, 36.810016388015185], [-108.71933226215538, 36.80992631243277], [-108.71922021381037, 36.80992416245463], [-108.71921754054603, 36.81001423803004], [-108.71932958902208, 36.810016388015185]]]}, "properties": {"class": "riparian", "min_prob": 0.5}}, {"type": "Feature", "geometry": {"type": "Polygon", "coordinates": [[[-108.71910549208185, 36.810012087939434], [-108.71910816547724, 36.80992201237101], [-108.71899611715601, 36.80991986218195], [-108.71899344362954, 36.81000993774336], [-108.71910549208185, 36.810012087939434]]]}, "properties": {"class": "riparian", "min_prob": 0.5}}, {"type": "Feature", "geometry": {"type": "Polygon", "coordinates": [[[-108.71014165350522, 36.80983973899366], [-108.71014433738463, 36.80974966398658], [-108.71003229001609, 36.80974750536062], [-108.71002960600563, 36.809837580360664], [-108.71014165350522, 36.80983973899366]]]}, "properties": {"class": "riparian", "min_prob": 0.5}}, {"type": "Feature", "geometry": {"type": "Polygon", "coordinates": [[[-108.72078889172172, 36.80995425255153], [-108.72079690593931, 36.80968402552209], [-108.72068485783302, 36.809681876935954], [-108.72067684322228, 36.809952103944404], [-108.72078889172172, 36.80995425255153]]]}, "properties": {"class": "riparian", "min_prob": 0.5}}, {"type": "Feature", "geometry": {"type": "Polygon", "coordinates": [[[-108.70946668400903, 36.80991686057713], [-108.70946936868664, 36.80982678561379], [-108.70969346357845, 36.80983110382891], [-108.70970151675346, 36.80956087888748], [-108.70958946969473, 36.80955871985374], [-108.70959215419359, 36.80946864487722], [-108.70936806037405, 36.809464326507424], [-108.70937074512307, 36.80937425154343], [-108.70925869836223, 36.80937209220738], [-108.70925601348219, 36.80946216716435], [-108.70903191973424, 36.809457848161806], [-108.70903460487641, 36.80936777321891], [-108.70881051143832, 36.8093634538086], [-108.70880245518978, 36.809633678590465], [-108.708914502296, 36.80963583836944], [-108.708911816987, 36.80972591330069], [-108.70902386423619, 36.80972807298125], [-108.70902654941413, 36.80963799804297], [-108.70913859654424, 36.809640157611035], [-108.70913591149733, 36.809730232556355], [-108.70924795877039, 36.80973239202599], [-108.7092452738426, 36.80982246697681], [-108.70935732125866, 36.80982462634804], [-108.70935463644999, 36.80991470130434], [-108.70946668400903, 36.80991686057713]]]}, "properties": {"class": "riparian", "min_prob": 0.5}}, {"type": "Feature", "geometry": {"type": "Polygon", "coordinates": [[[-108.72000722481008, 36.80984913446096], [-108.72001524174412, 36.8095789075739], [-108.71990319385202, 36.80957675825654], [-108.7199005214215, 36.809666833880094], [-108.71978847341023, 36.809664684450254], [-108.71978312825145, 36.80984483567877], [-108.72000722481008, 36.80984913446096]]]}, "properties": {"class": "riparian", "min_prob": 0.5}}, {"type": "Feature", "geometry": {"type": "Polygon", "coordinates": [[[-108.7201272896481, 36.8095810567858], [-108.72012996180466, 36.809490981146716], [-108.72001791403171, 36.809488831941806], [-108.72001524174412, 36.8095789075739], [-108.7201272896481, 36.8095810567858]]]}, "properties": {"class": "riparian", "min_prob": 0.5}}, {"type": "Feature", "geometry": {"type": "Polygon", "coordinates": [[[-108.72024200958946, 36.80949313024615], [-108.72024468160309, 36.809403054598526], [-108.72013263394932, 36.80940090550609], [-108.72012996180466, 36.809490981146716], [-108.72024200958946, 36.80949313024615]]]}, "properties": {"class": "riparian", "min_prob": 0.5}}, {"type": "Feature", "geometry": {"type": "Polygon", "coordinates": [[[-108.71967642541084, 36.80966253491497], [-108.71967909810347, 36.80957245930542], [-108.71979114597181, 36.809574608833714], [-108.71979916358526, 36.809304381974826], [-108.71968711611008, 36.80930223246755], [-108.71968444345309, 36.809392308081705], [-108.71957239585872, 36.809390158461945], [-108.71956972305881, 36.80948023406758], [-108.71945767534528, 36.80947808433537], [-108.71945500240244, 36.80956815993246], [-108.71956705024701, 36.80957030967166], [-108.71956437742334, 36.80966038527421], [-108.71967642541084, 36.80966253491497]]]}, "properties": {"class": "riparian", "min_prob": 0.5}}, {"type": "Feature", "geometry": {"type": "Polygon", "coordinates": [[[-108.70455274519311, 36.809281304864996], [-108.70455543556507, 36.8091912302022], [-108.70466748169304, 36.809193393960406], [-108.704672862139, 36.809013244616104], [-108.70456081627313, 36.80901108087199], [-108.70455812592509, 36.80910115553786], [-108.70444607994011, 36.80909899168123], [-108.70444069894606, 36.80927914099428], [-108.70455274519311, 36.809281304864996]]]}, "properties": {"class": "riparian", "min_prob": 0.5}}, {"type": "Feature", "geometry": {"type": "Polygon", "coordinates": [[[-108.72058082463563, 36.80940950124309], [-108.72058349624425, 36.80931942557293], [-108.7204714486859, 36.80931727680387], [-108.72046877694623, 36.809407352467026], [-108.72058082463563, 36.80940950124309]]]}, "properties": {"class": "riparian", "min_prob": 0.5}}, {"type": "Feature", "geometry": {"type": "Polygon", "coordinates": [[[-108.72035672926872, 36.80940520358551], [-108.72035940113943, 36.80931512792935], [-108.72024735360483, 36.80931297894938], [-108.72024468160309, 36.809403054598526], [-108.72035672926872, 36.80940520358551]]]}, "properties": {"class": "riparian", "min_prob": 0.5}}, {"type": "Feature", "geometry": {"type": "Polygon", "coordinates": [[[-108.71004839382836, 36.809207055328145], [-108.71005107775532, 36.80911698031736], [-108.70993903131603, 36.809114821635156], [-108.70993634725802, 36.8092048966389], [-108.71004839382836, 36.809207055328145]]]}, "properties": {"class": "riparian", "min_prob": 0.5}}, {"type": "Feature", "geometry": {"type": "Polygon", "coordinates": [[[-108.72047679212959, 36.80913712547295], [-108.72047946383363, 36.809047049805194], [-108.7203674166803, 36.80904490095167], [-108.72036474484521, 36.80913497661243], [-108.72047679212959, 36.80913712547295]]]}, "properties": {"class": "riparian", "min_prob": 0.5}}, {"type": "Feature", "geometry": {"type": "Polygon", "coordinates": [[[-108.71980450860154, 36.8091242307279], [-108.71980985357031, 36.80894407947485], [-108.71969780661931, 36.80894192999556], [-108.71969513400981, 36.80903200561587], [-108.71958308693965, 36.80902985602412], [-108.71958041418723, 36.80911993163588], [-108.71980450860154, 36.8091242307279]]]}, "properties": {"class": "riparian", "min_prob": 0.5}}, {"type": "Feature", "geometry": {"type": "Polygon", "coordinates": [[[-108.71891080476819, 36.80901695625903], [-108.71891347829501, 36.808926880687736], [-108.71880143143908, 36.80892473036479], [-108.71879875778122, 36.80901480592907], [-108.71891080476819, 36.80901695625903]]]}, "properties": {"class": "riparian", "min_prob": 0.5}}, {"type": "Feature", "geometry": {"type": "Polygon", "coordinates": [[[-108.70388046789026, 36.80926832005883], [-108.70388585019474, 36.809088170816274], [-108.70399789611987, 36.809090335200175], [-108.70400596909379, 36.808820111303675], [-108.70423006019374, 36.80882443971282], [-108.70423544159239, 36.80864429041261], [-108.70401135101659, 36.80863996203166], [-108.70401404196005, 36.80854988739335], [-108.70378995169419, 36.80854555860468], [-108.70378726048864, 36.808635633228896], [-108.70367521524263, 36.80863346866933], [-108.7036779065792, 36.80854339405216], [-108.70356586147618, 36.808541229394194], [-108.70356317000856, 36.808631304004315], [-108.70322703437816, 36.80862480937654], [-108.70322434250546, 36.808714883963965], [-108.70311229718824, 36.808712718870076], [-108.70310422110526, 36.80898294260197], [-108.70332831253795, 36.80898727272659], [-108.70332292894697, 36.80916742190172], [-108.70354702095167, 36.80917175163274], [-108.70354432940033, 36.80926182623208], [-108.70388046789026, 36.80926832005883]]]}, "properties": {"class": "riparian", "min_prob": 0.5}}, {"type": "Feature", "geometry": {"type": "Polygon", "coordinates": [[[-108.72070355817591, 36.80905134719587], [-108.72070622960598, 36.808961271512565], [-108.72059418255995, 36.80895912287696], [-108.72059685410919, 36.80886904719914], [-108.72037276031486, 36.80886474962554], [-108.7203700885035, 36.808954825289376], [-108.72048213552578, 36.8089569741359], [-108.72047946383363, 36.809047049805194], [-108.72070355817591, 36.80905134719587]]]}, "properties": {"class": "riparian", "min_prob": 0.5}}, {"type": "Feature", "geometry": {"type": "Polygon", "coordinates": [[[-108.71868671080613, 36.809012655493646], [-108.71869205837206, 36.80883250437757], [-108.71858001167095, 36.808830353850695], [-108.71857466384292, 36.80901050495278], [-108.71868671080613, 36.809012655493646]]]}, "properties": {"class": "riparian", "min_prob": 0.5}}, {"type": "Feature", "geometry": {"type": "Polygon", "coordinates": [[[-108.72082094795104, 36.8088733443509], [-108.72082361922632, 36.80878326865754], [-108.72071157243052, 36.80878112014139], [-108.7207089010242, 36.80887119582774], [-108.72082094795104, 36.8088733443509]]]}, "properties": {"class": "riparian", "min_prob": 0.5}}, {"type": "Feature", "geometry": {"type": "Polygon", "coordinates": [[[-108.71924961893413, 36.808933331023844], [-108.71925229205593, 36.80884325543002], [-108.71936433882834, 36.80884540532414], [-108.71936701180722, 36.808755329721784], [-108.71914291853633, 36.80875102984209], [-108.71914024529538, 36.808841105430446], [-108.71902819854671, 36.80883895532541], [-108.71902552516282, 36.80892903090523], [-108.71924961893413, 36.808933331023844]]]}, "properties": {"class": "riparian", "min_prob": 0.5}}, {"type": "Feature", "geometry": {"type": "Polygon", "coordinates": [[[-108.70458233862718, 36.80829048348969], [-108.70458502886764, 36.80820040880999], [-108.70447298419306, 36.80819824502384], [-108.70447029382156, 36.808288319696494], [-108.70458233862718, 36.80829048348969]]]}, "properties": {"class": "riparian", "min_prob": 0.5}}, {"type": "Feature", "geometry": {"type": "Polygon", "coordinates": [[[-108.7190362186271, 36.80856872857676], [-108.71904423860057, 36.808298501814285], [-108.71893219265006, 36.80829635164582], [-108.71893486608184, 36.80820627606226], [-108.71882282027424, 36.808204125795335], [-108.71881747313674, 36.80838427694691], [-108.71870542707896, 36.80838212656052], [-108.71870275336133, 36.80847220212699], [-108.71892684575087, 36.808476502808325], [-108.71892417228347, 36.80856657838728], [-108.7190362186271, 36.80856872857676]]]}, "properties": {"class": "riparian", "min_prob": 0.5}}, {"type": "Feature", "geometry": {"type": "Polygon", "coordinates": [[[-108.71937503067257, 36.80848510290549], [-108.71938304943103, 36.8082148760754], [-108.71927100357591, 36.808212726230295], [-108.71926833053725, 36.80830280183487], [-108.71915628456297, 36.808300651877296], [-108.71915093818795, 36.80848080306782], [-108.71937503067257, 36.80848510290549]]]}, "properties": {"class": "riparian", "min_prob": 0.5}}, {"type": "Feature", "geometry": {"type": "Polygon", "coordinates": [[[-108.7137914889629, 36.80774695357783], [-108.71379416836298, 36.80765687830913], [-108.71368212375792, 36.80765472322636], [-108.71367944422681, 36.807744798488045], [-108.7137914889629, 36.80774695357783]]]}, "properties": {"class": "riparian", "min_prob": 0.5}}, {"type": "Feature", "geometry": {"type": "Polygon", "coordinates": [[[-108.72129050145378, 36.80816133157519], [-108.7213038546159, 36.80771095289175], [-108.7211918093451, 36.80770880488138], [-108.72117845552776, 36.80815918352984], [-108.72129050145378, 36.80816133157519]]]}, "properties": {"class": "riparian", "min_prob": 0.5}}, {"type": "Feature", "geometry": {"type": "Polygon", "coordinates": [[[-108.71401825760881, 36.8076611881583], [-108.71402093673491, 36.807571112874015], [-108.71390889223707, 36.80756895800916], [-108.71390621297995, 36.80765903328644], [-108.71401825760881, 36.8076611881583]]]}, "properties": {"class": "riparian", "min_prob": 0.5}}, {"type": "Feature", "geometry": {"type": "Polygon", "coordinates": [[[-108.71042478536648, 36.80786240512369], [-108.71042746872145, 36.80777233006878], [-108.71053951324288, 36.807774488223714], [-108.71054487965499, 36.80759433809523], [-108.71076896820949, 36.807598654060634], [-108.7107716511356, 36.80750857898002], [-108.70998734232083, 36.80749347130491], [-108.7099846584775, 36.80758354633632], [-108.70987261427778, 36.80758138766818], [-108.70986993029149, 36.80767146269101], [-108.70998197462222, 36.80767362136618], [-108.70997929075504, 36.8077636963945], [-108.70986724629326, 36.807761537712295], [-108.70986456228312, 36.80785161273207], [-108.71042478536648, 36.80786240512369]]]}, "properties": {"class": "riparian", "min_prob": 0.5}}]}