{"type": "FeatureCollection", "features": [{"type": "Feature", "geometry": {"type": "Polygon", "coordinates": [[[-108.69017858903634, 36.87344290055875], [-108.69018130256175, 36.87335282778085], [-108.6899570253255, 36.873348466395925], [-108.68995431153718, 36.873438539159636], [-108.69017858903634, 36.87344290055875]]]}, "properties": {"class": "riparian", "min_prob": 0.5}}, {"type": "Feature", "geometry": {"type": "Polygon", "coordinates": [[[-108.69030158130748, 36.87308478995051], [-108.6903042946532, 36.872994717159365], [-108.69019215654278, 36.87299253665383], [-108.6901894430656, 36.8730826094379], [-108.69030158130748, 36.87308478995051]]]}, "properties": {"class": "riparian", "min_prob": 0.5}}, {"type": "Feature", "geometry": {"type": "Polygon", "coordinates": [[[-108.69031243461801, 36.872724498776634], [-108.69031514791551, 36.872634425979314], [-108.69020301033088, 36.87263224550218], [-108.69020029690193, 36.872722318292396], [-108.69031243461801, 36.872724498776634]]]}, "properties": {"class": "riparian", "min_prob": 0.5}}, {"type": "Feature", "geometry": {"type": "Polygon", "coordinates": [[[-108.69042728551219, 36.87263660635075], [-108.6904327118081, 36.8724564607373], [-108.6903205744743, 36.872454280380055], [-108.69031514791551, 36.872634425979314], [-108.69042728551219, 36.87263660635075]]]}, "properties": {"class": "riparian", "min_prob": 0.5}}, {"type": "Feature", "geometry": {"type": "Polygon", "coordinates": [[[-108.69046526857072, 36.87137558692722], [-108.69046798155591, 36.87128551409971], [-108.69035584593087, 36.87128333383472], [-108.69035313281425, 36.87137340665513], [-108.69046526857072, 36.87137558692722]]]}, "properties": {"class": "riparian", "min_prob": 0.5}}, {"type": "Feature", "geometry": {"type": "Polygon", "coordinates": [[[-108.69091923662404, 36.87120416124536], [-108.6909327986801, 36.87075379693507], [-108.69070852892283, 36.87074943723005], [-108.69069767825061, 36.871109728624596], [-108.69080981364897, 36.871111908558326], [-108.6908071010822, 36.87120198141021], [-108.69091923662404, 36.87120416124536]]]}, "properties": {"class": "riparian", "min_prob": 0.5}}, {"type": "Feature", "geometry": {"type": "Polygon", "coordinates": [[[-108.6908233763019, 36.87066154427582], [-108.69082608879634, 36.8705714714147], [-108.69116249269788, 36.87057801045406], [-108.69116791686197, 36.870397864684634], [-108.69083151374903, 36.870391325687834], [-108.69082880127871, 36.87048139855204], [-108.69071666680041, 36.87047921866797], [-108.69071124156076, 36.870659364377566], [-108.6908233763019, 36.87066154427582]]]}, "properties": {"class": "riparian", "min_prob": 0.5}}, {"type": "Feature", "geometry": {"type": "Polygon", "coordinates": [[[-108.69118147706128, 36.869947500234105], [-108.69118961303623, 36.86967728154532], [-108.69107747970463, 36.869675102042166], [-108.69106934333539, 36.869945320709675], [-108.69118147706128, 36.869947500234105]]]}, "properties": {"class": "riparian", "min_prob": 0.5}}, {"type": "Feature", "geometry": {"type": "Polygon", "coordinates": [[[-108.69770728058896, 36.846911810625585], [-108.69770998267039, 36.84682173696701], [-108.69759788220867, 36.84681956476337], [-108.69759517999594, 36.846909638414864], [-108.69770728058896, 36.846911810625585]]]}, "properties": {"class": "riparian", "min_prob": 0.5}}, {"type": "Feature", "geometry": {"type": "Polygon", "coordinates": [[[-108.69782208314412, 36.846823909065066], [-108.69782478508228, 36.846733835397885], [-108.69793688543675, 36.84673600738327], [-108.69794228901445, 36.846555860030165], [-108.69783018892254, 36.846553688058926], [-108.69782748700841, 36.84664376172918], [-108.69771538679723, 36.84664158964529], [-108.69770998267039, 36.84682173696701], [-108.69782208314412, 36.846823909065066]]]}, "properties": {"class": "riparian", "min_prob": 0.5}}, {"type": "Feature", "geometry": {"type": "Polygon", "coordinates": [[[-108.69875129722885, 36.84576039726155], [-108.69875669870457, 36.84558024977564], [-108.69864459997267, 36.84557807862133], [-108.6986391982344, 36.84575822609312], [-108.69875129722885, 36.84576039726155]]]}, "properties": {"class": "riparian", "min_prob": 0.5}}, {"type": "Feature", "geometry": {"type": "Polygon", "coordinates": [[[-108.70077812928834, 36.834263487050045], [-108.70078082652839, 36.83417341300503], [-108.7006687442838, 36.83417124433159], [-108.70066604691256, 36.83426131836954], [-108.70077812928834, 36.834263487050045]]]}, "properties": {"class": "riparian", "min_prob": 0.5}}, {"type": "Feature", "geometry": {"type": "Polygon", "coordinates": [[[-108.70114404113939, 36.833279177645515], [-108.70114673785399, 36.83318910356239], [-108.70103465701663, 36.833186935283265], [-108.70103196017082, 36.83327700935932], [-108.70114404113939, 36.833279177645515]]]}, "properties": {"class": "riparian", "min_prob": 0.5}}, {"type": "Feature", "geometry": {"type": "Polygon", "coordinates": [[[-108.70103465701663, 36.833186935283265], [-108.70103735385045, 36.83309686120569], [-108.70092527315627, 36.83309469282808], [-108.70092257619125, 36.8331847668986], [-108.70103465701663, 36.833186935283265]]]}, "properties": {"class": "riparian", "min_prob": 0.5}}, {"type": "Feature", "geometry": {"type": "Polygon", "coordinates": [[[-108.7017098382673, 36.833109869254876], [-108.70171253430199, 36.8330197951334], [-108.70148837304414, 36.8330154595533], [-108.70148567674708, 36.83310553366068], [-108.7017098382673, 36.833109869254876]]]}, "properties": {"class": "riparian", "min_prob": 0.5}}, {"type": "Feature", "geometry": {"type": "Polygon", "coordinates": [[[-108.70160584596287, 36.83283747916266], [-108.70160854209279, 36.83274740504363], [-108.70172062233412, 36.83274957275972], [-108.70172331832087, 36.83265949863209], [-108.70149915811258, 36.83265516310847], [-108.70149376560232, 36.832835311333966], [-108.70160584596287, 36.83283747916266]]]}, "properties": {"class": "riparian", "min_prob": 0.5}}, {"type": "Feature", "geometry": {"type": "Polygon", "coordinates": [[[-108.70347292190412, 36.82665485880489], [-108.70347561524018, 36.82656478447395], [-108.7033635438821, 36.826562618722164], [-108.7033608504149, 36.82665269304605], [-108.70347292190412, 36.82665485880489]]]}, "properties": {"class": "riparian", "min_prob": 0.5}}, {"type": "Feature", "geometry": {"type": "Polygon", "coordinates": [[[-108.70487699671419, 36.824699202183226], [-108.70487968821324, 36.82460912773387], [-108.70476761959678, 36.824606963403426], [-108.70476492796658, 36.82469703784572], [-108.70487699671419, 36.824699202183226]]]}, "properties": {"class": "riparian", "min_prob": 0.5}}, {"type": "Feature", "geometry": {"type": "Polygon", "coordinates": [[[-108.71119312673352, 36.82346911386596], [-108.71119581070963, 36.82337903899942], [-108.71108374339109, 36.82337688068329], [-108.71108105928384, 36.823466955542806], [-108.71119312673352, 36.82346911386596]]]}, "properties": {"class": "riparian", "min_prob": 0.5}}, {"type": "Feature", "geometry": {"type": "Polygon", "coordinates": [[[-108.70458655105283, 36.82316144336558], [-108.70458924274196, 36.82307136891123], [-108.70447717639074, 36.82306920438405], [-108.70447448457045, 36.82315927883135], [-108.70458655105283, 36.82316144336558]]]}, "properties": {"class": "riparian", "min_prob": 0.5}}, {"type": "Feature", "geometry": {"type": "Polygon", "coordinates": [[[-108.70604610639683, 36.8230994981631], [-108.70604879636929, 36.82300942361563], [-108.70593672999367, 36.82300726046713], [-108.70593403989007, 36.82309733500757], [-108.70604610639683, 36.8230994981631]]]}, "properties": {"class": "riparian", "min_prob": 0.5}}, {"type": "Feature", "geometry": {"type": "Polygon", "coordinates": [[[-108.70481606689526, 36.82298562317908], [-108.70482144968923, 36.82280547423452], [-108.70470938370745, 36.82280330993951], [-108.70471207521763, 36.82271323547198], [-108.70460000937894, 36.822711071078515], [-108.70459193441916, 36.82298129445536], [-108.70481606689526, 36.82298562317908]]]}, "properties": {"class": "riparian", "min_prob": 0.5}}, {"type": "Feature", "geometry": {"type": "Polygon", "coordinates": [[[-108.7049362069309, 36.822717563942405], [-108.70493889816684, 36.82262748945922], [-108.70482683243534, 36.82262532528383], [-108.70482414106827, 36.82271539975995], [-108.7049362069309, 36.822717563942405]]]}, "properties": {"class": "riparian", "min_prob": 0.5}}, {"type": "Feature", "geometry": {"type": "Polygon", "coordinates": [[[-108.70695608337894, 36.82266642657468], [-108.70695877224261, 36.82257635196317], [-108.70684670642699, 36.82257418969396], [-108.70684401743219, 36.82266426429842], [-108.70695608337894, 36.82266642657468]]]}, "properties": {"class": "riparian", "min_prob": 0.5}}, {"type": "Feature", "geometry": {"type": "Polygon", "coordinates": [[[-108.70168899681377, 36.822564685536484], [-108.70169438685522, 36.82238453697458], [-108.70147025662318, 36.822380202427084], [-108.70147295188819, 36.822290128157945], [-108.70136088692128, 36.822287960733], [-108.70135280069695, 36.822558183514616], [-108.70168899681377, 36.822564685536484]]]}, "properties": {"class": "riparian", "min_prob": 0.5}}, {"type": "Feature", "geometry": {"type": "Polygon", "coordinates": [[[-108.70147564714121, 36.82220005388727], [-108.70147834238227, 36.82210997961505], [-108.70125421298492, 36.82210564468787], [-108.70125151748162, 36.822195718945984], [-108.70147564714121, 36.82220005388727]]]}, "properties": {"class": "riparian", "min_prob": 0.5}}, {"type": "Feature", "geometry": {"type": "Polygon", "coordinates": [[[-108.70125421298492, 36.82210564468787], [-108.70125960395559, 36.82192549616708], [-108.70114753953715, 36.82192332855935], [-108.70114214830423, 36.82210347706603], [-108.70125421298492, 36.82210564468787]]]}, "properties": {"class": "riparian", "min_prob": 0.5}}, {"type": "Feature", "geometry": {"type": "Polygon", "coordinates": [[[-108.70383439642269, 36.82206539644901], [-108.70383708888619, 36.82197532202559], [-108.70361295951031, 36.82197099155783], [-108.70361565222409, 36.82188091714697], [-108.70350358768523, 36.82187875176189], [-108.70349820198348, 36.82205890056798], [-108.70383439642269, 36.82206539644901]]]}, "properties": {"class": "riparian", "min_prob": 0.5}}, {"type": "Feature", "geometry": {"type": "Polygon", "coordinates": [[[-108.7050805652741, 36.82163883403535], [-108.70508325623543, 36.8215487595267], [-108.70497119206549, 36.82154659554137], [-108.70496850097302, 36.82163667004298], [-108.7050805652741, 36.82163883403535]]]}, "properties": {"class": "riparian", "min_prob": 0.5}}, {"type": "Feature", "geometry": {"type": "Polygon", "coordinates": [[[-108.70666022317562, 36.82130882041239], [-108.70666291225342, 36.82121874579896], [-108.70655084844053, 36.82121658331885], [-108.70654815923162, 36.821306657925234], [-108.70666022317562, 36.82130882041239]]]}, "properties": {"class": "riparian", "min_prob": 0.5}}, {"type": "Feature", "geometry": {"type": "Polygon", "coordinates": [[[-108.70643609529955, 36.821304495332576], [-108.7064387846396, 36.821214420733234], [-108.70632672085063, 36.821212258042124], [-108.70632403137945, 36.821302332634424], [-108.70643609529955, 36.821304495332576]]]}, "properties": {"class": "riparian", "min_prob": 0.5}}, {"type": "Feature", "geometry": {"type": "Polygon", "coordinates": [[[-108.70610528303, 36.82111785776364], [-108.70610797273952, 36.821027783182366], [-108.70599590924864, 36.821025620188834], [-108.70599321940803, 36.82111569476306], [-108.70610528303, 36.82111785776364]]]}, "properties": {"class": "riparian", "min_prob": 0.5}}, {"type": "Feature", "geometry": {"type": "Polygon", "coordinates": [[[-108.70599859907732, 36.820935545613054], [-108.70600128889404, 36.82084547103574], [-108.70588922567737, 36.820843307950796], [-108.70588653572952, 36.82093338252106], [-108.70599859907732, 36.820935545613054]]]}, "properties": {"class": "riparian", "min_prob": 0.5}}, {"type": "Feature", "geometry": {"type": "Polygon", "coordinates": [[[-108.70701254700683, 36.82077485941047], [-108.7070152356196, 36.8206847847667], [-108.70690317255756, 36.82068262264534], [-108.70690048381367, 36.820772697282074], [-108.70701254700683, 36.82077485941047]]]}, "properties": {"class": "riparian", "min_prob": 0.5}}, {"type": "Feature", "geometry": {"type": "Polygon", "coordinates": [[[-108.70690317255756, 36.82068262264534], [-108.70690586128948, 36.820592548007085], [-108.70679379837051, 36.82059038578728], [-108.70679110950746, 36.820680460418494], [-108.70690317255756, 36.82068262264534]]]}, "properties": {"class": "riparian", "min_prob": 0.5}}, {"type": "Feature", "geometry": {"type": "Polygon", "coordinates": [[[-108.70638230598885, 36.823105986996694], [-108.70638499556792, 36.8230159124281], [-108.70649706199139, 36.82301807515455], [-108.70649975142737, 36.82292800057738], [-108.70638768513504, 36.822925837857944], [-108.70639037469022, 36.82283576328626], [-108.70650244085142, 36.82283792599864], [-108.70650781966363, 36.822657776836586], [-108.70639575376471, 36.82265561413829], [-108.70640113279138, 36.82247546498417], [-108.70651319842806, 36.82247762766838], [-108.70651588779234, 36.822387553081974], [-108.70674001883931, 36.82239187811979], [-108.70675077512793, 36.822031579702454], [-108.70663871012297, 36.82202941726446], [-108.70663602093762, 36.82211949186406], [-108.7062998256011, 36.82211300389595], [-108.70629713601042, 36.82220307847288], [-108.70584887520465, 36.822194426343465], [-108.70585156531985, 36.822104351794714], [-108.70573950027942, 36.82210218850564], [-108.70574219051379, 36.822012113962394], [-108.70563012561645, 36.822009950574866], [-108.70562743525097, 36.822100025111055], [-108.70540330522994, 36.822095698005384], [-108.70540061459025, 36.82218577252596], [-108.70528854946654, 36.82218360880781], [-108.70528585868377, 36.82227368331981], [-108.70517379344089, 36.822271519489114], [-108.70517648435481, 36.82218144498417], [-108.70506441925502, 36.82217928105501], [-108.7050671102881, 36.822089206555574], [-108.7048429803867, 36.82208487839485], [-108.70484028909138, 36.82217495288018], [-108.70472822402749, 36.8221727886345], [-108.70473091545394, 36.82208271415622], [-108.70450678562432, 36.822078385362445], [-108.70450947730107, 36.82198831089672], [-108.70439741253533, 36.82198614634863], [-108.70440279611519, 36.82180599742666], [-108.70451486061866, 36.821808161960654], [-108.70452831870334, 36.82135778959357], [-108.70486451031877, 36.821364282456805], [-108.70486181911912, 36.82145435695444], [-108.70497388314597, 36.82145652103823], [-108.70497926527108, 36.82127637202734], [-108.70509132904765, 36.82127853599152], [-108.70509671086268, 36.82109838696037], [-108.70532083792726, 36.821102714544054], [-108.70532352855459, 36.82101264001209], [-108.70554765540477, 36.82101696715968], [-108.70555034575791, 36.820926892612086], [-108.70566240906983, 36.820929056020574], [-108.70565971884778, 36.821019130575216], [-108.70577178230279, 36.82102129388525], [-108.70577716247266, 36.82084114476036], [-108.70588922567737, 36.820843307950796], [-108.70589191561325, 36.82075323337899], [-108.7060039786988, 36.82075539645689], [-108.70600128889404, 36.82084547103574], [-108.70656160515675, 36.82085628487795], [-108.70655891599563, 36.820946359490485], [-108.70667097941515, 36.82094852194947], [-108.70667366844516, 36.82085844732989], [-108.70678573174554, 36.82086060967632], [-108.70678304284665, 36.820950684302936], [-108.70700716974547, 36.8209550086934], [-108.70700985838212, 36.82086493405269], [-108.70689779505786, 36.82086277191727], [-108.70690048381367, 36.820772697282074], [-108.70678842063248, 36.820770535048176], [-108.70679110950746, 36.820680460418494], [-108.70667904646935, 36.820678298086136], [-108.7066817354635, 36.82058822346196], [-108.7060093582725, 36.82057524729458], [-108.70600666849163, 36.820665321876504], [-108.7057825425947, 36.82066099562929], [-108.7057852326378, 36.82057092106146], [-108.70567316983839, 36.82056875778665], [-108.70567586000065, 36.82047868322432], [-108.70545173469998, 36.82047435637229], [-108.70544904427547, 36.82056443092052], [-108.7052249187604, 36.820560103632396], [-108.70522222806171, 36.82065017816499], [-108.70511016519102, 36.82064801435564], [-108.7051128560208, 36.82055793983008], [-108.70500079329317, 36.82055577592226], [-108.70499541135939, 36.82073592495775], [-108.70465922246157, 36.82072943255903], [-108.7046565310834, 36.82081950705333], [-108.70454446801027, 36.82081734270237], [-108.70453908495581, 36.820997491672244], [-108.70442702163241, 36.82099532720169], [-108.70442432995611, 36.82108540167728], [-108.70464845687711, 36.82108973052697], [-108.70464576545109, 36.821179805015134], [-108.70442163826787, 36.821175476151325], [-108.70441894656764, 36.82126555062385], [-108.70430688286287, 36.821263386026644], [-108.70429073162367, 36.821803832787154], [-108.70417866714412, 36.821801668042156], [-108.70417597509793, 36.821891742489804], [-108.70406391049922, 36.82188957763225], [-108.70406121830993, 36.82197965207131], [-108.70394915359208, 36.8219774871012], [-108.70394376891538, 36.82215763596063], [-108.70427996389162, 36.82216413059675], [-108.7042772719287, 36.82225420504532], [-108.70438933707585, 36.822256369720066], [-108.7043866452321, 36.82234644417413], [-108.7047228411387, 36.82235293758649], [-108.70471745820208, 36.822533086532296], [-108.70494158939083, 36.822537414974526], [-108.70493889816684, 36.82262748945922], [-108.7050509639103, 36.82262965352913], [-108.70504827280547, 36.822719728019344], [-108.7049362069309, 36.822717563942405], [-108.70493351568297, 36.82280763842403], [-108.7050455816887, 36.82280980250801], [-108.70504019941924, 36.82298995148076], [-108.70571259727829, 36.82300293385359], [-108.70570990691243, 36.823093008379935], [-108.70582197339527, 36.8230951717465], [-108.70582466363, 36.82300509721311], [-108.70593672999367, 36.82300726046713], [-108.70594211016501, 36.822827111381656], [-108.70605417627837, 36.82282927451607], [-108.70604879636929, 36.82300942361563], [-108.70627292915643, 36.823013749596115], [-108.70627023944621, 36.82310382415768], [-108.70638230598885, 36.823105986996694]], [[-108.70509671086268, 36.82109838696037], [-108.70498464734834, 36.82109622301028], [-108.70499272037456, 36.82082599947319], [-108.70510478349554, 36.82082816340214], [-108.70509671086268, 36.82109838696037]], [[-108.70555034575791, 36.820926892612086], [-108.70543828245798, 36.820924729098095], [-108.70544097293028, 36.82083465455601], [-108.7055530360991, 36.82083681806295], [-108.70555034575791, 36.820926892612086]], [[-108.70555572642834, 36.820746743512274], [-108.70544366339064, 36.82074458001237], [-108.70544904427547, 36.82056443092052], [-108.70556110705095, 36.82056659440634], [-108.70555572642834, 36.820746743512274]]]}, "properties": {"class": "riparian", "min_prob": 0.5}}, {"type": "Feature", "geometry": {"type": "Polygon", "coordinates": [[[-108.70659656316401, 36.81968531477525], [-108.70659925215786, 36.81959524014121], [-108.706487190717, 36.81959307768237], [-108.70648450159206, 36.819683152309366], [-108.70659656316401, 36.81968531477525]]]}, "properties": {"class": "riparian", "min_prob": 0.5}}, {"type": "Feature", "geometry": {"type": "Polygon", "coordinates": [[[-108.70547594798238, 36.81966368536902], [-108.70547863828733, 36.81957361080542], [-108.70536657696604, 36.81957144729162], [-108.70536388653, 36.81966152184817], [-108.70547594798238, 36.81966368536902]]]}, "properties": {"class": "riparian", "min_prob": 0.5}}, {"type": "Feature", "geometry": {"type": "Polygon", "coordinates": [[[-108.70648987983, 36.81950300305384], [-108.70649256893104, 36.81941292842376], [-108.70638050776437, 36.8194107658735], [-108.7063778185322, 36.81950084049654], [-108.70648987983, 36.81950300305384]]]}, "properties": {"class": "riparian", "min_prob": 0.5}}, {"type": "Feature", "geometry": {"type": "Polygon", "coordinates": [[[-108.70606584090966, 36.81868368071927], [-108.70606853042757, 36.81859360610355], [-108.70595647048867, 36.818591443194705], [-108.70595378083965, 36.818681517803384], [-108.70606584090966, 36.81868368071927]]]}, "properties": {"class": "riparian", "min_prob": 0.5}}, {"type": "Feature", "geometry": {"type": "Polygon", "coordinates": [[[-108.70596453936402, 36.81832121935943], [-108.70596722896525, 36.818231144744594], [-108.7058551695627, 36.818228981758445], [-108.7058524798304, 36.81831905636623], [-108.70596453936402, 36.81832121935943]]]}, "properties": {"class": "riparian", "min_prob": 0.5}}, {"type": "Feature", "geometry": {"type": "Polygon", "coordinates": [[[-108.70619403713326, 36.818145395769996], [-108.70619672644837, 36.81805532113801], [-108.70608466728412, 36.81805315837692], [-108.70608197783791, 36.81814323300186], [-108.70619403713326, 36.818145395769996]]]}, "properties": {"class": "riparian", "min_prob": 0.5}}, {"type": "Feature", "geometry": {"type": "Polygon", "coordinates": [[[-108.7058551695627, 36.818228981758445], [-108.70585785928307, 36.81813890714913], [-108.7059699185545, 36.818141070128235], [-108.70597260813182, 36.81805099551033], [-108.7057484898631, 36.8180466694607], [-108.70574311017214, 36.818226818666794], [-108.7058551695627, 36.818228981758445]]]}, "properties": {"class": "riparian", "min_prob": 0.5}}, {"type": "Feature", "geometry": {"type": "Polygon", "coordinates": [[[-108.70776555600301, 36.81808558871674], [-108.70776824347078, 36.81799551398464], [-108.70765618427029, 36.817993352707454], [-108.70765349667144, 36.818083427432526], [-108.70776555600301, 36.81808558871674]]]}, "properties": {"class": "riparian", "min_prob": 0.5}}, {"type": "Feature", "geometry": {"type": "Polygon", "coordinates": [[[-108.70610887176225, 36.81724248668326], [-108.70611156108895, 36.817152412042944], [-108.70599950324763, 36.8171502492468], [-108.70599681378982, 36.81724032388007], [-108.70610887176225, 36.81724248668326]]]}, "properties": {"class": "riparian", "min_prob": 0.5}}, {"type": "Feature", "geometry": {"type": "Polygon", "coordinates": [[[-108.70622361894223, 36.8171545747336], [-108.70622630812589, 36.81706450008471], [-108.7061142504037, 36.8170623374011], [-108.70611156108895, 36.817152412042944], [-108.70622361894223, 36.8171545747336]]]}, "properties": {"class": "riparian", "min_prob": 0.5}}, {"type": "Feature", "geometry": {"type": "Polygon", "coordinates": [[[-108.7067919739367, 36.81689516254767], [-108.70680003937791, 36.81662493847691], [-108.70668798225141, 36.81662277635594], [-108.70667991641693, 36.816893000405564], [-108.7067919739367, 36.81689516254767]]]}, "properties": {"class": "riparian", "min_prob": 0.5}}, {"type": "Feature", "geometry": {"type": "Polygon", "coordinates": [[[-108.70780586676554, 36.816734467573966], [-108.70780855405417, 36.816644392818816], [-108.70769649682013, 36.81664223164721], [-108.7076938094004, 36.81673230639532], [-108.70780586676554, 36.816734467573966]]]}, "properties": {"class": "riparian", "min_prob": 0.5}}, {"type": "Feature", "geometry": {"type": "Polygon", "coordinates": [[[-108.70825678310982, 36.81665303645037], [-108.70825946986216, 36.81656296166553], [-108.7081474127114, 36.816560800922915], [-108.70814472582799, 36.81665087570071], [-108.70825678310982, 36.81665303645037]]]}, "properties": {"class": "riparian", "min_prob": 0.5}}, {"type": "Feature", "geometry": {"type": "Polygon", "coordinates": [[[-108.7081500995829, 36.816470726143585], [-108.70815278644243, 36.816380651362735], [-108.70804072956581, 36.8163784905287], [-108.70803804257518, 36.816468565302515], [-108.7081500995829, 36.816470726143585]]]}, "properties": {"class": "riparian", "min_prob": 0.5}}, {"type": "Feature", "geometry": {"type": "Polygon", "coordinates": [[[-108.70804072956581, 36.8163784905287], [-108.7080434165445, 36.816288415753334], [-108.70793135981093, 36.81628625482085], [-108.70792867270116, 36.81637632958918], [-108.70804072956581, 36.8163784905287]]]}, "properties": {"class": "riparian", "min_prob": 0.5}}, {"type": "Feature", "geometry": {"type": "Polygon", "coordinates": [[[-108.70804610351125, 36.81619834097643], [-108.70804879046607, 36.816108266198], [-108.70793673399467, 36.81610610527959], [-108.70793404690878, 36.81619618005098], [-108.70804610351125, 36.81619834097643]]]}, "properties": {"class": "riparian", "min_prob": 0.5}}, {"type": "Feature", "geometry": {"type": "Polygon", "coordinates": [[[-108.70816084694941, 36.81611042701091], [-108.7081635337612, 36.81602035222391], [-108.70805147740894, 36.816018191418024], [-108.70804879046607, 36.816108266198], [-108.70816084694941, 36.81611042701091]]]}, "properties": {"class": "riparian", "min_prob": 0.5}}, {"type": "Feature", "geometry": {"type": "Polygon", "coordinates": [[[-108.7082755901254, 36.8160225129243], [-108.70827827679416, 36.815932438128726], [-108.70816622056104, 36.81593027743536], [-108.7081635337612, 36.81602035222391], [-108.7082755901254, 36.8160225129243]]]}, "properties": {"class": "riparian", "min_prob": 0.5}}, {"type": "Feature", "geometry": {"type": "Polygon", "coordinates": [[[-108.70816622056104, 36.81593027743536], [-108.70816890734895, 36.81584020264529], [-108.70805685125886, 36.815838041853475], [-108.70805416433987, 36.81592811663652], [-108.70816622056104, 36.81593027743536]]]}, "properties": {"class": "riparian", "min_prob": 0.5}}, {"type": "Feature", "geometry": {"type": "Polygon", "coordinates": [[[-108.70839033303922, 36.8159345987166], [-108.70839301956495, 36.81584452391246], [-108.70850507569087, 36.81584668438782], [-108.70850776207358, 36.81575660957508], [-108.7081715941249, 36.815750127853654], [-108.70816890734895, 36.81584020264529], [-108.70828096345097, 36.81584236333161], [-108.70827827679416, 36.815932438128726], [-108.70839033303922, 36.8159345987166]]]}, "properties": {"class": "riparian", "min_prob": 0.5}}, {"type": "Feature", "geometry": {"type": "Polygon", "coordinates": [[[-108.7081715941249, 36.815750127853654], [-108.70817428088893, 36.81566005306051], [-108.70806222506103, 36.81565789228277], [-108.70805953816591, 36.81574796706889], [-108.7081715941249, 36.815750127853654]]]}, "properties": {"class": "riparian", "min_prob": 0.5}}, {"type": "Feature", "geometry": {"type": "Polygon", "coordinates": [[[-108.70705103507252, 36.81572851525924], [-108.7070537231474, 36.81563844053647], [-108.70694166743897, 36.81563627870393], [-108.706938979233, 36.815726353419656], [-108.70705103507252, 36.81572851525924]]]}, "properties": {"class": "riparian", "min_prob": 0.5}}, {"type": "Feature", "geometry": {"type": "Polygon", "coordinates": [[[-108.70783811344103, 36.81565357041086], [-108.70784080058637, 36.815563495637285], [-108.70772874492538, 36.81556133455013], [-108.70772605764896, 36.81565140931667], [-108.70783811344103, 36.81565357041086]]]}, "properties": {"class": "riparian", "min_prob": 0.5}}, {"type": "Feature", "geometry": {"type": "Polygon", "coordinates": [[[-108.70696317265663, 36.81491568092281], [-108.70696586075509, 36.81482560619326], [-108.70685380623834, 36.81482344431859], [-108.7068511180088, 36.81491351904111], [-108.70696317265663, 36.81491568092281]]]}, "properties": {"class": "riparian", "min_prob": 0.5}}, {"type": "Feature", "geometry": {"type": "Polygon", "coordinates": [[[-108.70685649445593, 36.81473336959454], [-108.70685918266157, 36.81464329486896], [-108.70674712841894, 36.8146411329029], [-108.70674444008222, 36.814731207621435], [-108.70685649445593, 36.81473336959454]]]}, "properties": {"class": "riparian", "min_prob": 0.5}}, {"type": "Feature", "geometry": {"type": "Polygon", "coordinates": [[[-108.70865205216873, 36.81467787198097], [-108.7086547382652, 36.814587797141236], [-108.70854268396249, 36.81458563686985], [-108.70853999773496, 36.81467571170255], [-108.70865205216873, 36.81467787198097]]]}, "properties": {"class": "riparian", "min_prob": 0.5}}, {"type": "Feature", "geometry": {"type": "Polygon", "coordinates": [[[-108.70832126187064, 36.8144912411905], [-108.70832394833646, 36.81440116636881], [-108.70821189433173, 36.81439900579507], [-108.70820920773484, 36.814489080609725], [-108.70832126187064, 36.8144912411905]]]}, "properties": {"class": "riparian", "min_prob": 0.5}}, {"type": "Feature", "geometry": {"type": "Polygon", "coordinates": [[[-108.70900432958199, 36.81414390299528], [-108.70900970083328, 36.813963753253645], [-108.70856148722095, 36.81395511299798], [-108.70855880107698, 36.814045187841415], [-108.70822264059989, 36.81403870652106], [-108.70821995405075, 36.81412878134187], [-108.70900432958199, 36.81414390299528]]]}, "properties": {"class": "riparian", "min_prob": 0.5}}, {"type": "Feature", "geometry": {"type": "Polygon", "coordinates": [[[-108.7081079004512, 36.814126620683766], [-108.70811327379968, 36.81394647105469], [-108.70777711385914, 36.81393998848974], [-108.70777173972422, 36.81412013807659], [-108.7081079004512, 36.814126620683766]]]}, "properties": {"class": "riparian", "min_prob": 0.5}}, {"type": "Feature", "geometry": {"type": "Polygon", "coordinates": [[[-108.70721415981365, 36.81401925686433], [-108.7072168475305, 36.81392918210533], [-108.70710479430062, 36.813927020512025], [-108.70710210645268, 36.81401709526397], [-108.70721415981365, 36.81401925686433]]]}, "properties": {"class": "riparian", "min_prob": 0.5}}, {"type": "Feature", "geometry": {"type": "Polygon", "coordinates": [[[-108.70781204457197, 36.81276901602547], [-108.7078174183487, 36.81258886639253], [-108.70792946968423, 36.812591027247436], [-108.70793484315105, 36.81241087759428], [-108.70771074101621, 36.81240655580718], [-108.70769999298626, 36.81276685505103], [-108.70781204457197, 36.81276901602547]]]}, "properties": {"class": "riparian", "min_prob": 0.5}}, {"type": "Feature", "geometry": {"type": "Polygon", "coordinates": [[[-108.70771074101621, 36.81240655580718], [-108.70771342799385, 36.81231648099237], [-108.70760137707542, 36.81231431994765], [-108.7075986899667, 36.812404394755426], [-108.70771074101621, 36.81240655580718]]]}, "properties": {"class": "riparian", "min_prob": 0.5}}, {"type": "Feature", "geometry": {"type": "Polygon", "coordinates": [[[-108.70749738781656, 36.81204193438607], [-108.70750007500857, 36.8119518595792], [-108.70738802463826, 36.8119496983517], [-108.7073853373152, 36.81203977315154], [-108.70749738781656, 36.81204193438607]]]}, "properties": {"class": "riparian", "min_prob": 0.5}}, {"type": "Feature", "geometry": {"type": "Polygon", "coordinates": [[[-108.70716123634833, 36.812035450366054], [-108.7071639239335, 36.811945375580294], [-108.70671572266738, 36.81193672877189], [-108.70671303455795, 36.812026803529484], [-108.70716123634833, 36.812035450366054]]]}, "properties": {"class": "riparian", "min_prob": 0.5}}, {"type": "Feature", "geometry": {"type": "Polygon", "coordinates": [[[-108.70939419320358, 36.812348884006816], [-108.70939687820334, 36.812258809084945], [-108.70950892918175, 36.81226096843512], [-108.70951966853717, 36.811900668704126], [-108.70940761808299, 36.81189850938209], [-108.70940493313097, 36.811988584310114], [-108.7088446803838, 36.81197778608269], [-108.70884199476454, 36.81206786097401], [-108.70839379225747, 36.812059220465535], [-108.70839110610203, 36.81214929532716], [-108.70816700465801, 36.81214497442603], [-108.70816969107558, 36.81205489957847], [-108.70828174166056, 36.81205706007473], [-108.70828711419776, 36.81187691036092], [-108.70783891297802, 36.81186826779937], [-108.70783622619113, 36.81195834262888], [-108.707724175785, 36.8119561817178], [-108.70771342799385, 36.81231648099237], [-108.70793752986657, 36.8123208027654], [-108.70794021657014, 36.81223072793498], [-108.70805226739336, 36.812232888656254], [-108.70804958082084, 36.8123229634937], [-108.70939419320358, 36.812348884006816]], [[-108.70805764050255, 36.812052738976746], [-108.70794558994147, 36.81205057826954], [-108.70794827660923, 36.81196050343452], [-108.70806032703925, 36.81196266413468], [-108.70805764050255, 36.812052738976746]]]}, "properties": {"class": "riparian", "min_prob": 0.5}}, {"type": "Feature", "geometry": {"type": "Polygon", "coordinates": [[[-108.70977598325692, 36.810824087522654], [-108.70977866766069, 36.810734012553574], [-108.70966661888637, 36.81073185353388], [-108.70966393435155, 36.810821928495926], [-108.70977598325692, 36.810824087522654]]]}, "properties": {"class": "riparian", "min_prob": 0.5}}, {"type": "Feature", "geometry": {"type": "Polygon", "coordinates": [[[-108.70989071644692, 36.810736171467795], [-108.7098934007077, 36.810646096490146], [-108.71000544937482, 36.81064825529187], [-108.71000813349261, 36.81055818030567], [-108.70989608495655, 36.810556021510955], [-108.70990145341847, 36.81037587154798], [-108.70978940515644, 36.810373712661885], [-108.7097867208004, 36.81046378763711], [-108.70967467241925, 36.810461628638514], [-108.70967735690635, 36.810371553670315], [-108.70945326044196, 36.810367235370805], [-108.70945057569276, 36.810457310324935], [-108.70956262405004, 36.81045946953445], [-108.70955725477795, 36.81063961945216], [-108.70978135205252, 36.81064393758295], [-108.70977866766069, 36.810734012553574], [-108.70989071644692, 36.810736171467795]]]}, "properties": {"class": "riparian", "min_prob": 0.5}}, {"type": "Feature", "geometry": {"type": "Polygon", "coordinates": [[[-108.71001618577445, 36.81028795533781], [-108.71001886984453, 36.810197880345456], [-108.70990682183267, 36.81019572157887], [-108.70990413763154, 36.8102857965642], [-108.71001618577445, 36.81028795533781]]]}, "properties": {"class": "riparian", "min_prob": 0.5}}, {"type": "Feature", "geometry": {"type": "Polygon", "coordinates": [[[-108.70453122178704, 36.810001902112056], [-108.70453660271028, 36.80982175280952], [-108.70442455567697, 36.80981958889651], [-108.70441917449163, 36.80999973818496], [-108.70453122178704, 36.810001902112056]]]}, "properties": {"class": "riparian", "min_prob": 0.5}}, {"type": "Feature", "geometry": {"type": "Polygon", "coordinates": [[[-108.70823416151616, 36.80989310277615], [-108.7082368476353, 36.80980302789018], [-108.70812480033864, 36.809800867464375], [-108.70812211408844, 36.809890942343294], [-108.70823416151616, 36.80989310277615]]]}, "properties": {"class": "riparian", "min_prob": 0.5}}, {"type": "Feature", "geometry": {"type": "Polygon", "coordinates": [[[-108.70947205335234, 36.80973671064889], [-108.70947473800611, 36.80964663568248], [-108.70936269084022, 36.8096444764308], [-108.7093600060554, 36.80973455139017], [-108.70947205335234, 36.80973671064889]]]}, "properties": {"class": "riparian", "min_prob": 0.5}}, {"type": "Feature", "geometry": {"type": "Polygon", "coordinates": [[[-108.70478221793088, 36.809105482934726], [-108.70478490801685, 36.80901540825477], [-108.704672862139, 36.809013244616104], [-108.704670171922, 36.80910331928902], [-108.70478221793088, 36.809105482934726]]]}, "properties": {"class": "riparian", "min_prob": 0.5}}, {"type": "Feature", "geometry": {"type": "Polygon", "coordinates": [[[-108.70848242869127, 36.809086749169836], [-108.7084851144409, 36.80899667425599], [-108.70837306829976, 36.80899451410441], [-108.70837038241906, 36.809084589011235], [-108.70848242869127, 36.809086749169836]]]}, "properties": {"class": "riparian", "min_prob": 0.5}}, {"type": "Feature", "geometry": {"type": "Polygon", "coordinates": [[[-108.70479028815292, 36.80883525889023], [-108.70479297820303, 36.808745184205655], [-108.70468093271832, 36.80874302058813], [-108.70467824253717, 36.80883309526566], [-108.70479028815292, 36.80883525889023]]]}, "properties": {"class": "riparian", "min_prob": 0.5}}, {"type": "Feature", "geometry": {"type": "Polygon", "coordinates": [[[-108.70388315904847, 36.809178245438325], [-108.70388854132902, 36.808998096192695], [-108.70400058712313, 36.80900026056955], [-108.70400327811444, 36.808910185937386], [-108.70411532378947, 36.80891235020173], [-108.70412608711094, 36.8085520516295], [-108.70378995169419, 36.80854555860468], [-108.70378726048864, 36.808635633228896], [-108.70333907957634, 36.808626974357914], [-108.70333638783467, 36.808717048952396], [-108.70311229718824, 36.808712718870076], [-108.70310960517254, 36.80880279344891], [-108.70322165062082, 36.80880495854984], [-108.7032189587242, 36.8088950331342], [-108.70333100431547, 36.80889719813674], [-108.70332562074843, 36.809077347314926], [-108.70354971249107, 36.80908167703183], [-108.70354702095167, 36.80917175163274], [-108.70388315904847, 36.809178245438325]]]}, "properties": {"class": "riparian", "min_prob": 0.5}}, {"type": "Feature", "geometry": {"type": "Polygon", "coordinates": [[[-108.7104301520645, 36.80768225501233], [-108.71043283539564, 36.80759217995435], [-108.71054487965499, 36.80759433809523], [-108.71054756284316, 36.807504263028676], [-108.71021143049398, 36.80749778831076], [-108.7102087469127, 36.80758786335624], [-108.7103207911482, 36.80759002170802], [-108.71031810768604, 36.80768009675897], [-108.7104301520645, 36.80768225501233]]]}, "properties": {"class": "riparian", "min_prob": 0.5}}]}