{"type":"FeatureCollection","features":[{"type":"Feature","geometry":{"type":"Polygon","coordinates":[[[-108.698863,36.845763],[-108.698866,36.845672],[-108.698754,36.84567],[-108.698751,36.84576],[-108.698863,36.845763]]]},"properties":{"src":"rf"}},{"type":"Feature","geometry":{"type":"Polygon","coordinates":[[[-108.715905,36.827165],[-108.715908,36.827075],[-108.715796,36.827073],[-108.715793,36.827163],[-108.715905,36.827165]]]},"properties":{"src":"rf"}},{"type":"Feature","geometry":{"type":"Polygon","coordinates":[[[-108.716028,36.826807],[-108.71603,36.826717],[-108.715918,36.826714],[-108.715916,36.826805],[-108.716028,36.826807]]]},"properties":{"src":"rf"}},{"type":"Feature","geometry":{"type":"Polygon","coordinates":[[[-108.715475,36.826526],[-108.715478,36.826436],[-108.715366,36.826433],[-108.715363,36.826524],[-108.715475,36.826526]]]},"properties":{"src":"rf"}},{"type":"Feature","geometry":{"type":"Polygon","coordinates":[[[-108.715483,36.826255],[-108.715486,36.826165],[-108.715374,36.826163],[-108.715371,36.826253],[-108.715483,36.826255]]]},"properties":{"src":"rf"}},{"type":"Feature","geometry":{"type":"Polygon","coordinates":[[[-108.711902,36.826006],[-108.711905,36.825916],[-108.711793,36.825914],[-108.71179,36.826004],[-108.711902,36.826006]]]},"properties":{"src":"rf"}},{"type":"Feature","geometry":{"type":"Polygon","coordinates":[[[-108.715718,36.825899],[-108.715721,36.825809],[-108.715609,36.825807],[-108.715606,36.825897],[-108.715718,36.825899]]]},"properties":{"src":"rf"}},{"type":"Feature","geometry":{"type":"Polygon","coordinates":[[[-108.705413,36.825521],[-108.705419,36.825341],[-108.705306,36.825338],[-108.705301,36.825519],[-108.705413,36.825521]]]},"properties":{"src":"rf"}},{"type":"Feature","geometry":{"type":"Polygon","coordinates":[[[-108.715724,36.825719],[-108.715726,36.825629],[-108.715838,36.825631],[-108.715841,36.825541],[-108.715953,36.825543],[-108.715956,36.825453],[-108.71562,36.825447],[-108.715612,36.825717],[-108.715724,36.825719]]]},"properties":{"src":"rf"}},{"type":"Feature","geometry":{"type":"Polygon","coordinates":[[[-108.705306,36.825338],[-108.705309,36.825248],[-108.705197,36.825246],[-108.705194,36.825336],[-108.705306,36.825338]]]},"properties":{"src":"rf"}},{"type":"Feature","geometry":{"type":"Polygon","coordinates":[[[-108.716177,36.825548],[-108.71618,36.825458],[-108.716292,36.82546],[-108.7163,36.82519],[-108.716188,36.825187],[-108.716191,36.825097],[-108.716079,36.825095],[-108.716073,36.825275],[-108.715961,36.825273],[-108.715956,36.825453],[-108.716068,36.825456],[-108.716065,36.825546],[-108.716177,36.825548]]]},"properties":{"src":"rf"}},{"type":"Feature","geometry":{"type":"Polygon","coordinates":[[[-108.704984,36.824882],[-108.704989,36.824701],[-108.704877,36.824699],[-108.704874,36.824789],[-108.704762,36.824787],[-108.70476,36.824877],[-108.704984,36.824882]]]},"properties":{"src":"rf"}},{"type":"Feature","geometry":{"type":"Polygon","coordinates":[[[-108.708444,36.825399],[-108.708447,36.825309],[-108.709007,36.82532],[-108.709013,36.82514],[-108.709125,36.825142],[-108.709128,36.825052],[-108.709015,36.825049],[-108.709018,36.824959],[-108.708794,36.824955],[-108.708797,36.824865],[-108.708685,36.824863],[-108.708687,36.824773],[-108.708575,36.824771],[-108.708578,36.82468],[-108.708466,36.824678],[-108.708463,36.824768],[-108.708351,36.824766],[-108.708348,36.824856],[-108.708236,36.824854],[-108.708239,36.824764],[-108.708127,36.824762],[-108.708124,36.824852],[-108.708012,36.82485],[-108.70801,36.82494],[-108.708234,36.824944],[-108.708228,36.825124],[-108.70834,36.825127],[-108.708338,36.825217],[-108.708226,36.825214],[-108.70822,36.825395],[-108.708444,36.825399]],[[-108.70857,36.824951],[-108.708458,36.824949],[-108.708461,36.824858],[-108.708573,36.824861],[-108.70857,36.824951]]]},"properties":{"src":"rf"}},{"type":"Feature","geometry":{"type":"Polygon","coordinates":[[[-108.708015,36.82476],[-108.708018,36.82467],[-108.707906,36.824668],[-108.707903,36.824758],[-108.708015,36.82476]]]},"properties":{"src":"rf"}},{"type":"Feature","geometry":{"type":"Polygon","coordinates":[[[-108.704877,36.824699],[-108.704882,36.824519],[-108.70477,36.824517],[-108.704765,36.824697],[-108.704877,36.824699]]]},"properties":{"src":"rf"}},{"type":"Feature","geometry":{"type":"Polygon","coordinates":[[[-108.70477,36.824517],[-108.704773,36.824427],[-108.704661,36.824425],[-108.704658,36.824515],[-108.70477,36.824517]]]},"properties":{"src":"rf"}},{"type":"Feature","geometry":{"type":"Polygon","coordinates":[[[-108.716311,36.824829],[-108.716313,36.824739],[-108.716425,36.824741],[-108.716428,36.824651],[-108.716316,36.824649],[-108.716319,36.824559],[-108.716207,36.824557],[-108.716204,36.824647],[-108.716092,36.824645],[-108.716087,36.824825],[-108.716311,36.824829]]]},"properties":{"src":"rf"}},{"type":"Feature","geometry":{"type":"Polygon","coordinates":[[[-108.704325,36.824418],[-108.704327,36.824328],[-108.704215,36.824326],[-108.704213,36.824416],[-108.704325,36.824418]]]},"properties":{"src":"rf"}},{"type":"Feature","geometry":{"type":"Polygon","coordinates":[[[-108.709707,36.824432],[-108.709709,36.824342],[-108.709597,36.82434],[-108.709595,36.82443],[-108.709707,36.824432]]]},"properties":{"src":"rf"}},{"type":"Feature","geometry":{"type":"Polygon","coordinates":[[[-108.70433,36.824238],[-108.704333,36.824148],[-108.704221,36.824146],[-108.704218,36.824236],[-108.70433,36.824238]]]},"properties":{"src":"rf"}},{"type":"Feature","geometry":{"type":"Polygon","coordinates":[[[-108.704103,36.824324],[-108.704111,36.824054],[-108.703999,36.824051],[-108.703991,36.824322],[-108.704103,36.824324]]]},"properties":{"src":"rf"}},{"type":"Feature","geometry":{"type":"Polygon","coordinates":[[[-108.716772,36.824388],[-108.716775,36.824297],[-108.716663,36.824295],[-108.71666,36.824385],[-108.716772,36.824388]]]},"properties":{"src":"rf"}},{"type":"Feature","geometry":{"type":"Polygon","coordinates":[[[-108.715988,36.824372],[-108.715993,36.824192],[-108.715881,36.82419],[-108.715876,36.82437],[-108.715988,36.824372]]]},"properties":{"src":"rf"}},{"type":"Feature","geometry":{"type":"Polygon","coordinates":[[[-108.709939,36.824166],[-108.709942,36.824076],[-108.70983,36.824074],[-108.709827,36.824164],[-108.709939,36.824166]]]},"properties":{"src":"rf"}},{"type":"Feature","geometry":{"type":"Polygon","coordinates":[[[-108.716215,36.824287],[-108.716223,36.824017],[-108.716111,36.824014],[-108.716113,36.823924],[-108.716001,36.823922],[-108.715993,36.824192],[-108.716105,36.824195],[-108.716103,36.824285],[-108.716215,36.824287]]]},"properties":{"src":"rf"}},{"type":"Feature","geometry":{"type":"Polygon","coordinates":[[[-108.709611,36.823889],[-108.709616,36.823709],[-108.709504,36.823707],[-108.709499,36.823887],[-108.709611,36.823889]]]},"properties":{"src":"rf"}},{"type":"Feature","geometry":{"type":"Polygon","coordinates":[[[-108.713877,36.823701],[-108.71388,36.823611],[-108.713768,36.823609],[-108.713765,36.823699],[-108.713877,36.823701]]]},"properties":{"src":"rf"}},{"type":"Feature","geometry":{"type":"Polygon","coordinates":[[[-108.713653,36.823697],[-108.713659,36.823517],[-108.713434,36.823512],[-108.713432,36.823602],[-108.713544,36.823604],[-108.713541,36.823695],[-108.713653,36.823697]]]},"properties":{"src":"rf"}},{"type":"Feature","geometry":{"type":"Polygon","coordinates":[[[-108.709958,36.823535],[-108.70996,36.823445],[-108.709848,36.823443],[-108.709846,36.823533],[-108.709958,36.823535]]]},"properties":{"src":"rf"}},{"type":"Feature","geometry":{"type":"Polygon","coordinates":[[[-108.71567,36.823736],[-108.715673,36.823645],[-108.715785,36.823648],[-108.715788,36.823558],[-108.715676,36.823555],[-108.715679,36.823465],[-108.715566,36.823463],[-108.715564,36.823553],[-108.715452,36.823551],[-108.715446,36.823731],[-108.71567,36.823736]]]},"properties":{"src":"rf"}},{"type":"Feature","geometry":{"type":"Polygon","coordinates":[[[-108.712314,36.823491],[-108.712316,36.823401],[-108.712204,36.823398],[-108.712202,36.823489],[-108.712314,36.823491]]]},"properties":{"src":"rf"}},{"type":"Feature","geometry":{"type":"Polygon","coordinates":[[[-108.71444,36.823622],[-108.714448,36.823352],[-108.714336,36.823349],[-108.714334,36.823439],[-108.714222,36.823437],[-108.714219,36.823527],[-108.713995,36.823523],[-108.713992,36.823613],[-108.71444,36.823622]]]},"properties":{"src":"rf"}},{"type":"Feature","geometry":{"type":"Polygon","coordinates":[[[-108.712541,36.823405],[-108.712543,36.823315],[-108.712431,36.823313],[-108.712429,36.823403],[-108.712541,36.823405]]]},"properties":{"src":"rf"}},{"type":"Feature","geometry":{"type":"Polygon","coordinates":[[[-108.715452,36.823551],[-108.715454,36.823461],[-108.715342,36.823459],[-108.715345,36.823369],[-108.715121,36.823364],[-108.715124,36.823274],[-108.715011,36.823272],[-108.715006,36.823452],[-108.715118,36.823455],[-108.715115,36.823545],[-108.715452,36.823551]]]},"properties":{"src":"rf"}},{"type":"Feature","geometry":{"type":"Polygon","coordinates":[[[-108.712765,36.823409],[-108.71277,36.823229],[-108.712658,36.823227],[-108.712653,36.823407],[-108.712765,36.823409]]]},"properties":{"src":"rf"}},{"type":"Feature","geometry":{"type":"Polygon","coordinates":[[[-108.710056,36.823988],[-108.710059,36.823898],[-108.710283,36.823902],[-108.710286,36.823812],[-108.710174,36.82381],[-108.710182,36.82354],[-108.710294,36.823542],[-108.710297,36.823452],[-108.710521,36.823456],[-108.710518,36.823546],[-108.710406,36.823544],[-108.710398,36.823814],[-108.71051,36.823816],[-108.710513,36.823726],[-108.710625,36.823729],[-108.710633,36.823458],[-108.710745,36.82346],[-108.710739,36.823641],[-108.710852,36.823643],[-108.710849,36.823733],[-108.710961,36.823735],[-108.710958,36.823825],[-108.711182,36.823829],[-108.711185,36.823739],[-108.711409,36.823744],[-108.711407,36.823834],[-108.711967,36.823845],[-108.71197,36.823754],[-108.712194,36.823759],[-108.712202,36.823489],[-108.711753,36.82348],[-108.711756,36.82339],[-108.711644,36.823388],[-108.711647,36.823298],[-108.711535,36.823295],[-108.711532,36.823386],[-108.71086,36.823373],[-108.710862,36.823282],[-108.71075,36.82328],[-108.710753,36.82319],[-108.710417,36.823184],[-108.710414,36.823274],[-108.71019,36.82327],[-108.710187,36.82336],[-108.710075,36.823357],[-108.710064,36.823718],[-108.70984,36.823713],[-108.709843,36.823623],[-108.709731,36.823621],[-108.709736,36.823441],[-108.709848,36.823443],[-108.709851,36.823353],[-108.709963,36.823355],[-108.709968,36.823175],[-108.709856,36.823173],[-108.709854,36.823263],[-108.709742,36.823261],[-108.709744,36.823171],[-108.709296,36.823162],[-108.709293,36.823252],[-108.709405,36.823254],[-108.709403,36.823344],[-108.709291,36.823342],[-108.709288,36.823432],[-108.7094,36.823435],[-108.709397,36.823525],[-108.709509,36.823527],[-108.709512,36.823437],[-108.709624,36.823439],[-108.709616,36.823709],[-108.709728,36.823711],[-108.709726,36.823801],[-108.70995,36.823806],[-108.709947,36.823896],[-108.709835,36.823894],[-108.709832,36.823984],[-108.710056,36.823988]],[[-108.71197,36.823754],[-108.711745,36.82375],[-108.711748,36.82366],[-108.711972,36.823664],[-108.71197,36.823754]],[[-108.711521,36.823746],[-108.711409,36.823744],[-108.711412,36.823654],[-108.711524,36.823656],[-108.711521,36.823746]]]},"properties":{"src":"rf"}},{"type":"Feature","geometry":{"type":"Polygon","coordinates":[[[-108.712658,36.823227],[-108.712661,36.823137],[-108.712549,36.823135],[-108.712546,36.823225],[-108.712658,36.823227]]]},"properties":{"src":"rf"}},{"type":"Feature","geometry":{"type":"Polygon","coordinates":[[[-108.714897,36.82336],[-108.714899,36.82327],[-108.714787,36.823268],[-108.71479,36.823178],[-108.714678,36.823176],[-108.714681,36.823086],[-108.714344,36.823079],[-108.714339,36.823259],[-108.714451,36.823261],[-108.714448,36.823352],[-108.714897,36.82336]]]},"properties":{"src":"rf"}},{"type":"Feature","geometry":{"type":"Polygon","coordinates":[[[-108.71423,36.823167],[-108.714232,36.823077],[-108.714008,36.823073],[-108.714006,36.823163],[-108.71423,36.823167]]]},"properties":{"src":"rf"}},{"type":"Feature","geometry":{"type":"Polygon","coordinates":[[[-108.711428,36.823113],[-108.711431,36.823023],[-108.711319,36.823021],[-108.711316,36.823111],[-108.711428,36.823113]]]},"properties":{"src":"rf"}},{"type":"Feature","geometry":{"type":"Polygon","coordinates":[[[-108.707506,36.823038],[-108.707508,36.822947],[-108.707396,36.822945],[-108.707394,36.823035],[-108.707506,36.823038]]]},"properties":{"src":"rf"}},{"type":"Feature","geometry":{"type":"Polygon","coordinates":[[[-108.717029,36.823311],[-108.717037,36.823041],[-108.716925,36.823039],[-108.716917,36.823309],[-108.717029,36.823311]]]},"properties":{"src":"rf"}},{"type":"Feature","geometry":{"type":"Polygon","coordinates":[[[-108.712439,36.823042],[-108.712442,36.822952],[-108.71233,36.82295],[-108.712327,36.82304],[-108.712439,36.823042]]]},"properties":{"src":"rf"}},{"type":"Feature","geometry":{"type":"Polygon","coordinates":[[[-108.707282,36.823033],[-108.707284,36.822943],[-108.707396,36.822945],[-108.707402,36.822765],[-108.707178,36.822761],[-108.707175,36.822851],[-108.707063,36.822849],[-108.707065,36.822759],[-108.706953,36.822757],[-108.706948,36.822937],[-108.707172,36.822941],[-108.707169,36.823031],[-108.707282,36.823033]]]},"properties":{"src":"rf"}},{"type":"Feature","geometry":{"type":"Polygon","coordinates":[[[-108.713114,36.822965],[-108.713117,36.822875],[-108.712557,36.822864],[-108.712554,36.822955],[-108.713114,36.822965]]]},"properties":{"src":"rf"}},{"type":"Feature","geometry":{"type":"Polygon","coordinates":[[[-108.712218,36.822948],[-108.712221,36.822858],[-108.712108,36.822856],[-108.712106,36.822946],[-108.712218,36.822948]]]},"properties":{"src":"rf"}},{"type":"Feature","geometry":{"type":"Polygon","coordinates":[[[-108.711545,36.822935],[-108.711551,36.822755],[-108.711439,36.822753],[-108.711433,36.822933],[-108.711545,36.822935]]]},"properties":{"src":"rf"}},{"type":"Feature","geometry":{"type":"Polygon","coordinates":[[[-108.714014,36.822893],[-108.714016,36.822802],[-108.713904,36.8228],[-108.713902,36.82289],[-108.714014,36.822893]]]},"properties":{"src":"rf"}},{"type":"Feature","geometry":{"type":"Polygon","coordinates":[[[-108.70785,36.822774],[-108.707853,36.822684],[-108.707741,36.822682],[-108.707738,36.822772],[-108.70785,36.822774]]]},"properties":{"src":"rf"}},{"type":"Feature","geometry":{"type":"Polygon","coordinates":[[[-108.706953,36.822757],[-108.706959,36.822576],[-108.706847,36.822574],[-108.706841,36.822754],[-108.706953,36.822757]]]},"properties":{"src":"rf"}},{"type":"Feature","geometry":{"type":"Polygon","coordinates":[[[-108.711775,36.822759],[-108.711778,36.822669],[-108.711553,36.822665],[-108.711551,36.822755],[-108.711775,36.822759]]]},"properties":{"src":"rf"}},{"type":"Feature","geometry":{"type":"Polygon","coordinates":[[[-108.717159,36.822683],[-108.717162,36.822593],[-108.71705,36.82259],[-108.717047,36.82268],[-108.717159,36.822683]]]},"properties":{"src":"rf"}},{"type":"Feature","geometry":{"type":"Polygon","coordinates":[[[-108.708979,36.822525],[-108.708981,36.822435],[-108.708869,36.822433],[-108.708867,36.822523],[-108.708979,36.822525]]]},"properties":{"src":"rf"}},{"type":"Feature","geometry":{"type":"Polygon","coordinates":[[[-108.701577,36.822563],[-108.701582,36.822382],[-108.70147,36.82238],[-108.701476,36.8222],[-108.701364,36.822198],[-108.701353,36.822558],[-108.701577,36.822563]]]},"properties":{"src":"rf"}},{"type":"Feature","geometry":{"type":"Polygon","coordinates":[[[-108.707191,36.82231],[-108.707196,36.82213],[-108.707084,36.822128],[-108.707079,36.822308],[-108.707191,36.82231]]]},"properties":{"src":"rf"}},{"type":"Feature","geometry":{"type":"Polygon","coordinates":[[[-108.703834,36.822065],[-108.703837,36.821975],[-108.703501,36.821969],[-108.703498,36.822059],[-108.703834,36.822065]]]},"properties":{"src":"rf"}},{"type":"Feature","geometry":{"type":"Polygon","coordinates":[[[-108.70753,36.822227],[-108.707533,36.822137],[-108.70742,36.822135],[-108.707426,36.821954],[-108.707314,36.821952],[-108.707311,36.822042],[-108.707199,36.82204],[-108.707196,36.82213],[-108.707308,36.822132],[-108.707306,36.822223],[-108.70753,36.822227]]]},"properties":{"src":"rf"}},{"type":"Feature","geometry":{"type":"Polygon","coordinates":[[[-108.708317,36.822152],[-108.708325,36.821882],[-108.708213,36.82188],[-108.708208,36.82206],[-108.708096,36.822058],[-108.708093,36.822148],[-108.708317,36.822152]]]},"properties":{"src":"rf"}},{"type":"Feature","geometry":{"type":"Polygon","coordinates":[[[-108.71717,36.822322],[-108.717173,36.822232],[-108.717285,36.822234],[-108.71729,36.822054],[-108.717178,36.822052],[-108.717176,36.822142],[-108.716839,36.822136],[-108.716834,36.822316],[-108.716946,36.822318],[-108.716949,36.822228],[-108.717061,36.82223],[-108.717058,36.82232],[-108.71717,36.822322]]]},"properties":{"src":"rf"}},{"type":"Feature","geometry":{"type":"Polygon","coordinates":[[[-108.707538,36.821957],[-108.707543,36.821776],[-108.707431,36.821774],[-108.707426,36.821954],[-108.707538,36.821957]]]},"properties":{"src":"rf"}},{"type":"Feature","geometry":{"type":"Polygon","coordinates":[[[-108.707442,36.821414],[-108.707447,36.821234],[-108.707335,36.821232],[-108.70733,36.821412],[-108.707442,36.821414]]]},"properties":{"src":"rf"}},{"type":"Feature","geometry":{"type":"Polygon","coordinates":[[[-108.704536,36.821088],[-108.704539,36.820997],[-108.704427,36.820995],[-108.704424,36.821085],[-108.704536,36.821088]]]},"properties":{"src":"rf"}},{"type":"Feature","geometry":{"type":"Polygon","coordinates":[[[-108.714174,36.821273],[-108.714179,36.821093],[-108.714067,36.821091],[-108.714062,36.821271],[-108.714174,36.821273]]]},"properties":{"src":"rf"}},{"type":"Feature","geometry":{"type":"Polygon","coordinates":[[[-108.717426,36.821246],[-108.717429,36.821156],[-108.717317,36.821153],[-108.717314,36.821244],[-108.717426,36.821246]]]},"properties":{"src":"rf"}},{"type":"Feature","geometry":{"type":"Polygon","coordinates":[[[-108.717541,36.821158],[-108.717549,36.820888],[-108.717437,36.820885],[-108.717429,36.821156],[-108.717541,36.821158]]]},"properties":{"src":"rf"}},{"type":"Feature","geometry":{"type":"Polygon","coordinates":[[[-108.717664,36.8208],[-108.717667,36.82071],[-108.717555,36.820707],[-108.717552,36.820797],[-108.717664,36.8208]]]},"properties":{"src":"rf"}},{"type":"Feature","geometry":{"type":"Polygon","coordinates":[[[-108.706153,36.823282],[-108.706155,36.823192],[-108.706268,36.823194],[-108.70627,36.823104],[-108.706494,36.823108],[-108.706516,36.822388],[-108.70674,36.822392],[-108.706753,36.821942],[-108.706641,36.821939],[-108.706639,36.822029],[-108.706303,36.822023],[-108.7063,36.822113],[-108.706076,36.822109],[-108.706073,36.822199],[-108.705849,36.822194],[-108.705854,36.822014],[-108.705742,36.822012],[-108.705745,36.821922],[-108.705633,36.82192],[-108.705636,36.82183],[-108.705523,36.821828],[-108.705529,36.821647],[-108.705417,36.821645],[-108.705419,36.821555],[-108.705195,36.821551],[-108.70519,36.821731],[-108.705302,36.821733],[-108.705294,36.822003],[-108.705182,36.822001],[-108.705179,36.822091],[-108.704955,36.822087],[-108.704958,36.821997],[-108.704846,36.821995],[-108.704848,36.821905],[-108.704624,36.8219],[-108.704622,36.82199],[-108.704509,36.821988],[-108.704512,36.821898],[-108.7044,36.821896],[-108.704403,36.821806],[-108.704515,36.821808],[-108.704526,36.821448],[-108.70475,36.821452],[-108.704752,36.821362],[-108.704865,36.821364],[-108.704859,36.821544],[-108.705083,36.821549],[-108.705086,36.821459],[-108.705198,36.821461],[-108.705206,36.821191],[-108.705318,36.821193],[-108.705321,36.821103],[-108.705545,36.821107],[-108.705548,36.821017],[-108.706108,36.821028],[-108.706105,36.821118],[-108.706217,36.82112],[-108.70622,36.82103],[-108.706332,36.821032],[-108.706329,36.821122],[-108.706666,36.821129],[-108.706663,36.821219],[-108.706775,36.821221],[-108.706772,36.821311],[-108.706884,36.821313],[-108.706887,36.821223],[-108.706999,36.821225],[-108.707018,36.820595],[-108.706682,36.820588],[-108.706684,36.820498],[-108.70646,36.820494],[-108.706458,36.820584],[-108.705897,36.820573],[-108.7059,36.820483],[-108.705788,36.820481],[-108.705791,36.820391],[-108.705679,36.820389],[-108.705676,36.820479],[-108.705452,36.820474],[-108.705449,36.820564],[-108.705113,36.820558],[-108.70511,36.820648],[-108.704886,36.820644],[-108.704883,36.820734],[-108.704659,36.820729],[-108.704657,36.82082],[-108.704544,36.820817],[-108.704539,36.820997],[-108.704651,36.821],[-108.704646,36.82118],[-108.70431,36.821173],[-108.704291,36.821804],[-108.704179,36.821802],[-108.704176,36.821892],[-108.704064,36.82189],[-108.704061,36.82198],[-108.703949,36.821977],[-108.703944,36.822158],[-108.704392,36.822166],[-108.704387,36.822346],[-108.704611,36.822351],[-108.704605,36.822531],[-108.704381,36.822527],[-108.704379,36.822617],[-108.704491,36.822619],[-108.704488,36.822709],[-108.7046,36.822711],[-108.704597,36.822801],[-108.704485,36.822799],[-108.704483,36.822889],[-108.70437,36.822887],[-108.704368,36.822977],[-108.704256,36.822975],[-108.704253,36.823065],[-108.704365,36.823067],[-108.70436,36.823247],[-108.704472,36.823249],[-108.704474,36.823159],[-108.704811,36.823166],[-108.704813,36.823076],[-108.704701,36.823074],[-108.704704,36.822983],[-108.70504,36.82299],[-108.705038,36.82308],[-108.706046,36.823099],[-108.706041,36.82328],[-108.706153,36.823282]],[[-108.70563,36.82201],[-108.705518,36.822008],[-108.705521,36.821918],[-108.705633,36.82192],[-108.70563,36.82201]],[[-108.706892,36.821043],[-108.70678,36.821041],[-108.706783,36.820951],[-108.706895,36.820953],[-108.706892,36.821043]],[[-108.705102,36.820918],[-108.70499,36.820916],[-108.704993,36.820826],[-108.705105,36.820828],[-108.705102,36.820918]]]},"properties":{"src":"rf"}},{"type":"Feature","geometry":{"type":"Polygon","coordinates":[[[-108.71431,36.820465],[-108.714313,36.820375],[-108.714201,36.820373],[-108.714198,36.820463],[-108.71431,36.820465]]]},"properties":{"src":"rf"}},{"type":"Feature","geometry":{"type":"Polygon","coordinates":[[[-108.714201,36.820373],[-108.714203,36.820282],[-108.714091,36.82028],[-108.714089,36.82037],[-108.714201,36.820373]]]},"properties":{"src":"rf"}},{"type":"Feature","geometry":{"type":"Polygon","coordinates":[[[-108.714428,36.820287],[-108.71443,36.820197],[-108.714318,36.820195],[-108.714315,36.820285],[-108.714428,36.820287]]]},"properties":{"src":"rf"}},{"type":"Feature","geometry":{"type":"Polygon","coordinates":[[[-108.706482,36.819773],[-108.706487,36.819593],[-108.706375,36.819591],[-108.70637,36.819771],[-108.706482,36.819773]]]},"properties":{"src":"rf"}},{"type":"Feature","geometry":{"type":"Polygon","coordinates":[[[-108.717811,36.819631],[-108.717813,36.819541],[-108.717701,36.819539],[-108.717699,36.819629],[-108.717811,36.819631]]]},"properties":{"src":"rf"}},{"type":"Feature","geometry":{"type":"Polygon","coordinates":[[[-108.715684,36.8195],[-108.715687,36.81941],[-108.715463,36.819405],[-108.71546,36.819496],[-108.715684,36.8195]]]},"properties":{"src":"rf"}},{"type":"Feature","geometry":{"type":"Polygon","coordinates":[[[-108.717928,36.819453],[-108.717931,36.819363],[-108.717371,36.819352],[-108.717368,36.819442],[-108.717928,36.819453]]]},"properties":{"src":"rf"}},{"type":"Feature","geometry":{"type":"Polygon","coordinates":[[[-108.716936,36.818893],[-108.716938,36.818803],[-108.716826,36.818801],[-108.716824,36.818891],[-108.716936,36.818893]]]},"properties":{"src":"rf"}},{"type":"Feature","geometry":{"type":"Polygon","coordinates":[[[-108.714473,36.818756],[-108.714478,36.818575],[-108.714366,36.818573],[-108.714361,36.818753],[-108.714473,36.818756]]]},"properties":{"src":"rf"}},{"type":"Feature","geometry":{"type":"Polygon","coordinates":[[[-108.714924,36.818674],[-108.714927,36.818584],[-108.714815,36.818582],[-108.714812,36.818672],[-108.714924,36.818674]]]},"properties":{"src":"rf"}},{"type":"Feature","geometry":{"type":"Polygon","coordinates":[[[-108.705828,36.81913],[-108.705831,36.81904],[-108.705943,36.819042],[-108.705948,36.818862],[-108.70606,36.818864],[-108.706069,36.818594],[-108.706181,36.818596],[-108.706189,36.818326],[-108.706301,36.818328],[-108.706314,36.817877],[-108.706202,36.817875],[-108.706205,36.817785],[-108.706093,36.817783],[-108.70609,36.817873],[-108.705866,36.817869],[-108.705863,36.817959],[-108.705975,36.817961],[-108.70597,36.818141],[-108.705858,36.818139],[-108.705852,36.818319],[-108.70574,36.818317],[-108.705732,36.818587],[-108.705956,36.818591],[-108.705951,36.818772],[-108.705839,36.818769],[-108.705834,36.81895],[-108.705722,36.818947],[-108.705716,36.819128],[-108.705828,36.81913]]]},"properties":{"src":"rf"}},{"type":"Feature","geometry":{"type":"Polygon","coordinates":[[[-108.70776,36.818266],[-108.707774,36.817815],[-108.707662,36.817813],[-108.707656,36.817993],[-108.707544,36.817991],[-108.707541,36.818081],[-108.707429,36.818079],[-108.707424,36.818259],[-108.70776,36.818266]]]},"properties":{"src":"rf"}},{"type":"Feature","geometry":{"type":"Polygon","coordinates":[[[-108.71764,36.817825],[-108.717643,36.817735],[-108.717531,36.817733],[-108.717528,36.817823],[-108.71764,36.817825]]]},"properties":{"src":"rf"}},{"type":"Feature","geometry":{"type":"Polygon","coordinates":[[[-108.717304,36.817819],[-108.717307,36.817728],[-108.717195,36.817726],[-108.717192,36.817816],[-108.717304,36.817819]]]},"properties":{"src":"rf"}},{"type":"Feature","geometry":{"type":"Polygon","coordinates":[[[-108.708788,36.817655],[-108.70879,36.817565],[-108.708678,36.817562],[-108.708675,36.817653],[-108.708788,36.817655]]]},"properties":{"src":"rf"}},{"type":"Feature","geometry":{"type":"Polygon","coordinates":[[[-108.708003,36.81764],[-108.708008,36.817459],[-108.707896,36.817457],[-108.707891,36.817637],[-108.708003,36.81764]]]},"properties":{"src":"rf"}},{"type":"Feature","geometry":{"type":"Polygon","coordinates":[[[-108.717419,36.817731],[-108.717421,36.817641],[-108.717309,36.817638],[-108.717307,36.817728],[-108.717419,36.817731]]]},"properties":{"src":"rf"}},{"type":"Feature","geometry":{"type":"Polygon","coordinates":[[[-108.708566,36.81756],[-108.708569,36.81747],[-108.708457,36.817468],[-108.708454,36.817558],[-108.708566,36.81756]]]},"properties":{"src":"rf"}},{"type":"Feature","geometry":{"type":"Polygon","coordinates":[[[-108.718192,36.818106],[-108.718195,36.818016],[-108.718419,36.81802],[-108.718427,36.81775],[-108.718315,36.817748],[-108.718318,36.817658],[-108.71843,36.81766],[-108.718433,36.81757],[-108.718096,36.817563],[-108.718099,36.817473],[-108.717875,36.817469],[-108.71787,36.817649],[-108.718206,36.817656],[-108.718203,36.817746],[-108.718091,36.817744],[-108.718088,36.817834],[-108.718201,36.817836],[-108.718198,36.817926],[-108.718086,36.817924],[-108.71808,36.818104],[-108.718192,36.818106]]]},"properties":{"src":"rf"}},{"type":"Feature","geometry":{"type":"Polygon","coordinates":[[[-108.71855,36.817392],[-108.718553,36.817302],[-108.718441,36.8173],[-108.718438,36.81739],[-108.71855,36.817392]]]},"properties":{"src":"rf"}},{"type":"Feature","geometry":{"type":"Polygon","coordinates":[[[-108.718667,36.817214],[-108.71867,36.817124],[-108.718558,36.817122],[-108.718555,36.817212],[-108.718667,36.817214]]]},"properties":{"src":"rf"}},{"type":"Feature","geometry":{"type":"Polygon","coordinates":[[[-108.71542,36.817061],[-108.715423,36.816971],[-108.715311,36.816969],[-108.715308,36.817059],[-108.71542,36.817061]]]},"properties":{"src":"rf"}},{"type":"Feature","geometry":{"type":"Polygon","coordinates":[[[-108.716429,36.817081],[-108.716434,36.816901],[-108.716322,36.816898],[-108.716317,36.817079],[-108.716429,36.817081]]]},"properties":{"src":"rf"}},{"type":"Feature","geometry":{"type":"Polygon","coordinates":[[[-108.70859,36.81675],[-108.708593,36.81666],[-108.708481,36.816657],[-108.708478,36.816747],[-108.70859,36.81675]]]},"properties":{"src":"rf"}},{"type":"Feature","geometry":{"type":"Polygon","coordinates":[[[-108.718796,36.816676],[-108.718804,36.816405],[-108.718692,36.816403],[-108.718684,36.816673],[-108.718796,36.816676]]]},"properties":{"src":"rf"}},{"type":"Feature","geometry":{"type":"Polygon","coordinates":[[[-108.710733,36.81634],[-108.710735,36.81625],[-108.710623,36.816248],[-108.710621,36.816338],[-108.710733,36.81634]]]},"properties":{"src":"rf"}},{"type":"Feature","geometry":{"type":"Polygon","coordinates":[[[-108.710172,36.816329],[-108.710175,36.816239],[-108.710287,36.816242],[-108.71029,36.816151],[-108.709954,36.816145],[-108.709951,36.816235],[-108.710063,36.816237],[-108.71006,36.816327],[-108.710172,36.816329]]]},"properties":{"src":"rf"}},{"type":"Feature","geometry":{"type":"Polygon","coordinates":[[[-108.707713,36.816102],[-108.707715,36.816012],[-108.707603,36.81601],[-108.707601,36.8161],[-108.707713,36.816102]]]},"properties":{"src":"rf"}},{"type":"Feature","geometry":{"type":"Polygon","coordinates":[[[-108.715442,36.816341],[-108.71545,36.816071],[-108.715338,36.816068],[-108.71533,36.816339],[-108.715442,36.816341]]]},"properties":{"src":"rf"}},{"type":"Feature","geometry":{"type":"Polygon","coordinates":[[[-108.719033,36.816229],[-108.719036,36.816139],[-108.718924,36.816137],[-108.718921,36.816227],[-108.719033,36.816229]]]},"properties":{"src":"rf"}},{"type":"Feature","geometry":{"type":"Polygon","coordinates":[[[-108.711298,36.816171],[-108.711301,36.816081],[-108.711413,36.816083],[-108.711416,36.815993],[-108.711192,36.815989],[-108.711186,36.816169],[-108.711298,36.816171]]]},"properties":{"src":"rf"}},{"type":"Feature","geometry":{"type":"Polygon","coordinates":[[[-108.710962,36.816164],[-108.710965,36.816074],[-108.711077,36.816076],[-108.71108,36.815986],[-108.711192,36.815989],[-108.711194,36.815899],[-108.71097,36.815894],[-108.710968,36.815984],[-108.710744,36.81598],[-108.710741,36.81607],[-108.710405,36.816064],[-108.710407,36.815973],[-108.710295,36.815971],[-108.710298,36.815881],[-108.710186,36.815879],[-108.710189,36.815789],[-108.709964,36.815785],[-108.709962,36.815875],[-108.710074,36.815877],[-108.710071,36.815967],[-108.710183,36.815969],[-108.710181,36.816059],[-108.710293,36.816061],[-108.71029,36.816151],[-108.710962,36.816164]]]},"properties":{"src":"rf"}},{"type":"Feature","geometry":{"type":"Polygon","coordinates":[[[-108.718926,36.816047],[-108.718929,36.815957],[-108.718817,36.815955],[-108.718814,36.816045],[-108.718926,36.816047]]]},"properties":{"src":"rf"}},{"type":"Feature","geometry":{"type":"Polygon","coordinates":[[[-108.713996,36.815952],[-108.713999,36.815862],[-108.713774,36.815858],[-108.713772,36.815948],[-108.713996,36.815952]]]},"properties":{"src":"rf"}},{"type":"Feature","geometry":{"type":"Polygon","coordinates":[[[-108.711755,36.815909],[-108.711757,36.815819],[-108.711533,36.815815],[-108.711531,36.815905],[-108.711755,36.815909]]]},"properties":{"src":"rf"}},{"type":"Feature","geometry":{"type":"Polygon","coordinates":[[[-108.711419,36.815903],[-108.711421,36.815813],[-108.711309,36.815811],[-108.711306,36.815901],[-108.711419,36.815903]]]},"properties":{"src":"rf"}},{"type":"Feature","geometry":{"type":"Polygon","coordinates":[[[-108.711979,36.815914],[-108.711984,36.815733],[-108.711872,36.815731],[-108.711867,36.815911],[-108.711979,36.815914]]]},"properties":{"src":"rf"}},{"type":"Feature","geometry":{"type":"Polygon","coordinates":[[[-108.708953,36.815855],[-108.708959,36.815675],[-108.708847,36.815673],[-108.708841,36.815853],[-108.708953,36.815855]]]},"properties":{"src":"rf"}},{"type":"Feature","geometry":{"type":"Polygon","coordinates":[[[-108.713326,36.815849],[-108.713329,36.815759],[-108.713217,36.815757],[-108.713214,36.815847],[-108.713326,36.815849]]]},"properties":{"src":"rf"}},{"type":"Feature","geometry":{"type":"Polygon","coordinates":[[[-108.715234,36.815796],[-108.715237,36.815706],[-108.715124,36.815704],[-108.715122,36.815794],[-108.715234,36.815796]]]},"properties":{"src":"rf"}},{"type":"Feature","geometry":{"type":"Polygon","coordinates":[[[-108.711872,36.815731],[-108.711875,36.815641],[-108.711763,36.815639],[-108.71176,36.815729],[-108.711872,36.815731]]]},"properties":{"src":"rf"}},{"type":"Feature","geometry":{"type":"Polygon","coordinates":[[[-108.708251,36.816833],[-108.708276,36.816023],[-108.708388,36.816025],[-108.70839,36.815935],[-108.708502,36.815937],[-108.70851,36.815667],[-108.708398,36.815664],[-108.708401,36.815574],[-108.708177,36.81557],[-108.708174,36.81566],[-108.708062,36.815658],[-108.708065,36.815568],[-108.707953,36.815566],[-108.707956,36.815476],[-108.707843,36.815473],[-108.707841,36.815563],[-108.707617,36.815559],[-108.707609,36.815829],[-108.707497,36.815827],[-108.707494,36.815917],[-108.707718,36.815922],[-108.707721,36.815832],[-108.707833,36.815834],[-108.707835,36.815744],[-108.707947,36.815746],[-108.707945,36.815836],[-108.708057,36.815838],[-108.708051,36.816018],[-108.708164,36.81602],[-108.708161,36.81611],[-108.707713,36.816102],[-108.707696,36.816642],[-108.707809,36.816644],[-108.707806,36.816734],[-108.708142,36.816741],[-108.708139,36.816831],[-108.708251,36.816833]],[[-108.707921,36.816647],[-108.707809,36.816644],[-108.707811,36.816554],[-108.707923,36.816556],[-108.707921,36.816647]],[[-108.708038,36.816469],[-108.707926,36.816466],[-108.707929,36.816376],[-108.708041,36.816378],[-108.708038,36.816469]]]},"properties":{"src":"rf"}},{"type":"Feature","geometry":{"type":"Polygon","coordinates":[[[-108.711987,36.815643],[-108.71199,36.815553],[-108.711877,36.815551],[-108.711875,36.815641],[-108.711987,36.815643]]]},"properties":{"src":"rf"}},{"type":"Feature","geometry":{"type":"Polygon","coordinates":[[[-108.719046,36.815779],[-108.719052,36.815599],[-108.71894,36.815597],[-108.718934,36.815777],[-108.719046,36.815779]]]},"properties":{"src":"rf"}},{"type":"Feature","geometry":{"type":"Polygon","coordinates":[[[-108.718601,36.81568],[-108.718604,36.81559],[-108.718491,36.815588],[-108.718489,36.815678],[-108.718601,36.81568]]]},"properties":{"src":"rf"}},{"type":"Feature","geometry":{"type":"Polygon","coordinates":[[[-108.710533,36.815525],[-108.710536,36.815435],[-108.710423,36.815433],[-108.710421,36.815523],[-108.710533,36.815525]]]},"properties":{"src":"rf"}},{"type":"Feature","geometry":{"type":"Polygon","coordinates":[[[-108.711651,36.815637],[-108.711653,36.815547],[-108.711429,36.815543],[-108.711432,36.815452],[-108.710984,36.815444],[-108.710986,36.815354],[-108.710874,36.815352],[-108.710872,36.815442],[-108.71076,36.815439],[-108.710754,36.81562],[-108.710866,36.815622],[-108.710869,36.815532],[-108.711093,36.815536],[-108.71109,36.815626],[-108.711651,36.815637]]]},"properties":{"src":"rf"}},{"type":"Feature","geometry":{"type":"Polygon","coordinates":[[[-108.708513,36.815576],[-108.708521,36.815306],[-108.708409,36.815304],[-108.708406,36.815394],[-108.708294,36.815392],[-108.708292,36.815482],[-108.708404,36.815484],[-108.708401,36.815574],[-108.708513,36.815576]]]},"properties":{"src":"rf"}},{"type":"Feature","geometry":{"type":"Polygon","coordinates":[[[-108.710423,36.815433],[-108.710429,36.815253],[-108.710317,36.815251],[-108.710311,36.815431],[-108.710423,36.815433]]]},"properties":{"src":"rf"}},{"type":"Feature","geometry":{"type":"Polygon","coordinates":[[[-108.714799,36.815337],[-108.714802,36.815247],[-108.71469,36.815245],[-108.714692,36.815155],[-108.71458,36.815153],[-108.714575,36.815333],[-108.714799,36.815337]]]},"properties":{"src":"rf"}},{"type":"Feature","geometry":{"type":"Polygon","coordinates":[[[-108.711213,36.815268],[-108.711219,36.815088],[-108.711107,36.815086],[-108.711104,36.815176],[-108.71088,36.815171],[-108.710877,36.815262],[-108.711213,36.815268]]]},"properties":{"src":"rf"}},{"type":"Feature","geometry":{"type":"Polygon","coordinates":[[[-108.710541,36.815255],[-108.710546,36.815075],[-108.710434,36.815073],[-108.710429,36.815253],[-108.710541,36.815255]]]},"properties":{"src":"rf"}},{"type":"Feature","geometry":{"type":"Polygon","coordinates":[[[-108.711768,36.815459],[-108.711776,36.815189],[-108.711664,36.815187],[-108.711669,36.815006],[-108.711557,36.815004],[-108.711549,36.815274],[-108.711437,36.815272],[-108.711435,36.815362],[-108.711659,36.815367],[-108.711656,36.815457],[-108.711768,36.815459]]]},"properties":{"src":"rf"}},{"type":"Feature","geometry":{"type":"Polygon","coordinates":[[[-108.715802,36.815537],[-108.715805,36.815446],[-108.715581,36.815442],[-108.715583,36.815352],[-108.715695,36.815354],[-108.715701,36.815174],[-108.715589,36.815172],[-108.715591,36.815082],[-108.715255,36.815075],[-108.715253,36.815165],[-108.715141,36.815163],[-108.715138,36.815253],[-108.715026,36.815251],[-108.715023,36.815341],[-108.715135,36.815343],[-108.715132,36.815434],[-108.715245,36.815436],[-108.715247,36.815346],[-108.715359,36.815348],[-108.715362,36.815258],[-108.715474,36.81526],[-108.715466,36.81553],[-108.715802,36.815537]]]},"properties":{"src":"rf"}},{"type":"Feature","geometry":{"type":"Polygon","coordinates":[[[-108.711443,36.815092],[-108.711445,36.815002],[-108.711333,36.815],[-108.711331,36.81509],[-108.711443,36.815092]]]},"properties":{"src":"rf"}},{"type":"Feature","geometry":{"type":"Polygon","coordinates":[[[-108.710317,36.815251],[-108.710322,36.815071],[-108.71021,36.815068],[-108.710215,36.814888],[-108.710103,36.814886],[-108.710095,36.815156],[-108.710207,36.815158],[-108.710205,36.815249],[-108.710317,36.815251]]]},"properties":{"src":"rf"}},{"type":"Feature","geometry":{"type":"Polygon","coordinates":[[[-108.708756,36.81495],[-108.708759,36.81486],[-108.708647,36.814858],[-108.708644,36.814948],[-108.708756,36.81495]]]},"properties":{"src":"rf"}},{"type":"Feature","geometry":{"type":"Polygon","coordinates":[[[-108.706106,36.817333],[-108.706109,36.817242],[-108.706333,36.817247],[-108.706336,36.817157],[-108.706672,36.817163],[-108.706677,36.816983],[-108.706789,36.816985],[-108.706797,36.816715],[-108.706909,36.816717],[-108.706915,36.816537],[-108.707027,36.816539],[-108.70704,36.816089],[-108.707152,36.816091],[-108.707166,36.815641],[-108.707054,36.815638],[-108.707073,36.815008],[-108.70696,36.815006],[-108.706963,36.814916],[-108.706851,36.814914],[-108.706856,36.814733],[-108.706744,36.814731],[-108.706736,36.815001],[-108.706848,36.815004],[-108.706846,36.815094],[-108.706958,36.815096],[-108.706934,36.815907],[-108.706822,36.815904],[-108.706819,36.815994],[-108.706707,36.815992],[-108.706701,36.816172],[-108.706589,36.81617],[-108.706587,36.81626],[-108.706475,36.816258],[-108.706469,36.816438],[-108.706357,36.816436],[-108.706349,36.816706],[-108.706237,36.816704],[-108.706234,36.816794],[-108.706122,36.816792],[-108.706114,36.817062],[-108.706002,36.81706],[-108.705994,36.81733],[-108.706106,36.817333]],[[-108.706562,36.817071],[-108.70645,36.817069],[-108.706458,36.816799],[-108.706571,36.816801],[-108.706562,36.817071]],[[-108.706458,36.816799],[-108.706346,36.816796],[-108.706349,36.816706],[-108.706461,36.816709],[-108.706458,36.816799]]]},"properties":{"src":"rf"}},{"type":"Feature","geometry":{"type":"Polygon","coordinates":[[[-108.709978,36.815334],[-108.709994,36.814794],[-108.709882,36.814792],[-108.709879,36.814882],[-108.709767,36.81488],[-108.709754,36.81533],[-108.709978,36.815334]]]},"properties":{"src":"rf"}},{"type":"Feature","geometry":{"type":"Polygon","coordinates":[[[-108.71593,36.814998],[-108.715933,36.814908],[-108.715821,36.814906],[-108.715818,36.814996],[-108.71593,36.814998]]]},"properties":{"src":"rf"}},{"type":"Feature","geometry":{"type":"Polygon","coordinates":[[[-108.711336,36.81491],[-108.711339,36.81482],[-108.711227,36.814818],[-108.711224,36.814908],[-108.711336,36.81491]]]},"properties":{"src":"rf"}},{"type":"Feature","geometry":{"type":"Polygon","coordinates":[[[-108.711563,36.814824],[-108.711568,36.814644],[-108.711456,36.814642],[-108.711451,36.814822],[-108.711563,36.814824]]]},"properties":{"src":"rf"}},{"type":"Feature","geometry":{"type":"Polygon","coordinates":[[[-108.711229,36.814728],[-108.711232,36.814637],[-108.71112,36.814635],[-108.711117,36.814725],[-108.711229,36.814728]]]},"properties":{"src":"rf"}},{"type":"Feature","geometry":{"type":"Polygon","coordinates":[[[-108.710552,36.814895],[-108.710554,36.814805],[-108.710666,36.814807],[-108.710669,36.814717],[-108.710557,36.814715],[-108.71056,36.814625],[-108.710336,36.81462],[-108.710338,36.81453],[-108.710226,36.814528],[-108.710223,36.814618],[-108.709999,36.814614],[-108.709994,36.814794],[-108.710218,36.814798],[-108.710215,36.814888],[-108.710552,36.814895]]]},"properties":{"src":"rf"}},{"type":"Feature","geometry":{"type":"Polygon","coordinates":[[[-108.710002,36.814524],[-108.710007,36.814343],[-108.709895,36.814341],[-108.70989,36.814521],[-108.710002,36.814524]]]},"properties":{"src":"rf"}},{"type":"Feature","geometry":{"type":"Polygon","coordinates":[[[-108.710119,36.814346],[-108.710122,36.814256],[-108.71001,36.814253],[-108.710007,36.814343],[-108.710119,36.814346]]]},"properties":{"src":"rf"}},{"type":"Feature","geometry":{"type":"Polygon","coordinates":[[[-108.707094,36.814287],[-108.707097,36.814197],[-108.707209,36.814199],[-108.707211,36.814109],[-108.706987,36.814105],[-108.706982,36.814285],[-108.707094,36.814287]]]},"properties":{"src":"rf"}},{"type":"Feature","geometry":{"type":"Polygon","coordinates":[[[-108.709791,36.814069],[-108.709797,36.813889],[-108.709685,36.813887],[-108.709679,36.814067],[-108.709791,36.814069]]]},"properties":{"src":"rf"}},{"type":"Feature","geometry":{"type":"Polygon","coordinates":[[[-108.710018,36.813983],[-108.710021,36.813893],[-108.709909,36.813891],[-108.709906,36.813981],[-108.710018,36.813983]]]},"properties":{"src":"rf"}},{"type":"Feature","geometry":{"type":"Polygon","coordinates":[[[-108.719548,36.813986],[-108.719551,36.813896],[-108.719439,36.813894],[-108.719436,36.813984],[-108.719548,36.813986]]]},"properties":{"src":"rf"}},{"type":"Feature","geometry":{"type":"Polygon","coordinates":[[[-108.711595,36.813743],[-108.711598,36.813653],[-108.711374,36.813649],[-108.711371,36.813739],[-108.711595,36.813743]]]},"properties":{"src":"rf"}},{"type":"Feature","geometry":{"type":"Polygon","coordinates":[[[-108.707972,36.814935],[-108.707985,36.814485],[-108.708321,36.814491],[-108.708313,36.814761],[-108.708425,36.814764],[-108.708423,36.814854],[-108.708647,36.814858],[-108.708652,36.814678],[-108.708764,36.81468],[-108.708775,36.81432],[-108.708887,36.814322],[-108.70889,36.814232],[-108.709002,36.814234],[-108.709015,36.813784],[-108.708567,36.813775],[-108.70857,36.813685],[-108.708345,36.813681],[-108.708343,36.813771],[-108.707782,36.81376],[-108.707788,36.81358],[-108.707676,36.813578],[-108.707673,36.813668],[-108.707449,36.813663],[-108.707444,36.813843],[-108.707332,36.813841],[-108.707334,36.813751],[-108.707222,36.813749],[-108.707228,36.813569],[-108.707116,36.813567],[-108.707118,36.813477],[-108.707006,36.813474],[-108.706993,36.813925],[-108.707217,36.813929],[-108.707214,36.814019],[-108.707438,36.814024],[-108.707441,36.813934],[-108.707553,36.813936],[-108.707548,36.814116],[-108.70766,36.814118],[-108.707641,36.814749],[-108.707753,36.814751],[-108.70775,36.814841],[-108.707862,36.814843],[-108.70786,36.814933],[-108.707972,36.814935]],[[-108.70787,36.814573],[-108.707758,36.814571],[-108.707761,36.81448],[-108.707873,36.814483],[-108.70787,36.814573]],[[-108.708212,36.814399],[-108.7081,36.814397],[-108.708103,36.814307],[-108.708215,36.814309],[-108.708212,36.814399]],[[-108.707876,36.814393],[-108.707764,36.81439],[-108.707766,36.8143],[-108.707878,36.814302],[-108.707876,36.814393]],[[-108.708449,36.813953],[-108.708225,36.813949],[-108.708228,36.813859],[-108.708452,36.813863],[-108.708449,36.813953]]]},"properties":{"src":"rf"}},{"type":"Feature","geometry":{"type":"Polygon","coordinates":[[[-108.707238,36.813209],[-108.707241,36.813119],[-108.707129,36.813116],[-108.707132,36.813026],[-108.70702,36.813024],[-108.707017,36.813114],[-108.706905,36.813112],[-108.706902,36.813202],[-108.707238,36.813209]]]},"properties":{"src":"rf"}},{"type":"Feature","geometry":{"type":"Polygon","coordinates":[[[-108.709034,36.813153],[-108.709039,36.812973],[-108.709151,36.812975],[-108.709154,36.812885],[-108.708594,36.812874],[-108.708591,36.812964],[-108.708815,36.812969],[-108.708812,36.813059],[-108.7087,36.813057],[-108.708698,36.813147],[-108.709034,36.813153]]]},"properties":{"src":"rf"}},{"type":"Feature","geometry":{"type":"Polygon","coordinates":[[[-108.708367,36.81296],[-108.70837,36.81287],[-108.708258,36.812868],[-108.708255,36.812958],[-108.708367,36.81296]]]},"properties":{"src":"rf"}},{"type":"Feature","geometry":{"type":"Polygon","coordinates":[[[-108.71442,36.812986],[-108.714423,36.812896],[-108.714311,36.812894],[-108.714308,36.812984],[-108.71442,36.812986]]]},"properties":{"src":"rf"}},{"type":"Feature","geometry":{"type":"Polygon","coordinates":[[[-108.708482,36.812872],[-108.708484,36.812782],[-108.708372,36.81278],[-108.70837,36.81287],[-108.708482,36.812872]]]},"properties":{"src":"rf"}},{"type":"Feature","geometry":{"type":"Polygon","coordinates":[[[-108.711166,36.813104],[-108.711168,36.813014],[-108.71128,36.813016],[-108.711286,36.812836],[-108.711174,36.812834],[-108.711176,36.812744],[-108.71084,36.812737],[-108.710835,36.812917],[-108.710723,36.812915],[-108.71072,36.813005],[-108.710944,36.81301],[-108.710941,36.8131],[-108.711166,36.813104]]]},"properties":{"src":"rf"}},{"type":"Feature","geometry":{"type":"Polygon","coordinates":[[[-108.715429,36.813006],[-108.715432,36.812916],[-108.715544,36.812918],[-108.715546,36.812828],[-108.715322,36.812823],[-108.715317,36.813004],[-108.715429,36.813006]]]},"properties":{"src":"rf"}},{"type":"Feature","geometry":{"type":"Polygon","coordinates":[[[-108.698624,36.812591],[-108.698627,36.812501],[-108.698515,36.812499],[-108.698512,36.812589],[-108.698624,36.812591]]]},"properties":{"src":"rf"}},{"type":"Feature","geometry":{"type":"Polygon","coordinates":[[[-108.715098,36.812819],[-108.715101,36.812729],[-108.714989,36.812727],[-108.714986,36.812817],[-108.715098,36.812819]]]},"properties":{"src":"rf"}},{"type":"Feature","geometry":{"type":"Polygon","coordinates":[[[-108.709944,36.81272],[-108.709952,36.81245],[-108.70984,36.812448],[-108.709832,36.812718],[-108.709944,36.81272]]]},"properties":{"src":"rf"}},{"type":"Feature","geometry":{"type":"Polygon","coordinates":[[[-108.714775,36.812362],[-108.714778,36.812272],[-108.714666,36.81227],[-108.714663,36.81236],[-108.714775,36.812362]]]},"properties":{"src":"rf"}},{"type":"Feature","geometry":{"type":"Polygon","coordinates":[[[-108.720044,36.812373],[-108.720055,36.812013],[-108.719943,36.812011],[-108.719932,36.812371],[-108.720044,36.812373]]]},"properties":{"src":"rf"}},{"type":"Feature","geometry":{"type":"Polygon","coordinates":[[[-108.710747,36.812105],[-108.71075,36.812014],[-108.710862,36.812017],[-108.710864,36.811927],[-108.710752,36.811924],[-108.710755,36.811834],[-108.710643,36.811832],[-108.710635,36.812102],[-108.710747,36.812105]]]},"properties":{"src":"rf"}},{"type":"Feature","geometry":{"type":"Polygon","coordinates":[[[-108.707564,36.813575],[-108.707569,36.813395],[-108.707681,36.813397],[-108.707678,36.813487],[-108.707791,36.81349],[-108.707796,36.813309],[-108.707684,36.813307],[-108.707692,36.813037],[-108.707916,36.813041],[-108.707927,36.812681],[-108.708935,36.812701],[-108.708933,36.812791],[-108.709157,36.812795],[-108.709159,36.812705],[-108.709271,36.812707],[-108.709277,36.812527],[-108.709389,36.812529],[-108.709394,36.812349],[-108.709506,36.812351],[-108.709522,36.811811],[-108.70941,36.811808],[-108.709408,36.811899],[-108.707615,36.811864],[-108.707623,36.811594],[-108.707511,36.811592],[-108.707505,36.811772],[-108.707393,36.81177],[-108.707391,36.81186],[-108.70683,36.811849],[-108.706828,36.811939],[-108.706716,36.811937],[-108.706713,36.812027],[-108.706825,36.812029],[-108.706822,36.812119],[-108.706934,36.812121],[-108.706937,36.812031],[-108.707609,36.812044],[-108.707601,36.812314],[-108.707489,36.812312],[-108.707484,36.812492],[-108.707372,36.81249],[-108.707367,36.81267],[-108.707591,36.812675],[-108.707583,36.812945],[-108.707471,36.812943],[-108.707468,36.813033],[-108.707356,36.813031],[-108.707353,36.813121],[-108.707465,36.813123],[-108.707462,36.813213],[-108.707575,36.813215],[-108.707572,36.813305],[-108.70746,36.813303],[-108.707452,36.813573],[-108.707564,36.813575]],[[-108.70849,36.812602],[-108.708154,36.812595],[-108.708156,36.812505],[-108.708268,36.812507],[-108.708271,36.812417],[-108.708495,36.812422],[-108.70849,36.812602]]]},"properties":{"src":"rf"}},{"type":"Feature","geometry":{"type":"Polygon","coordinates":[[[-108.720293,36.811567],[-108.720298,36.811387],[-108.720186,36.811385],[-108.720181,36.811565],[-108.720293,36.811567]]]},"properties":{"src":"rf"}},{"type":"Feature","geometry":{"type":"Polygon","coordinates":[[[-108.710547,36.81129],[-108.710552,36.811109],[-108.71044,36.811107],[-108.710435,36.811287],[-108.710547,36.81129]]]},"properties":{"src":"rf"}},{"type":"Feature","geometry":{"type":"Polygon","coordinates":[[[-108.710886,36.811206],[-108.710888,36.811116],[-108.710776,36.811114],[-108.710779,36.811024],[-108.710667,36.811022],[-108.710662,36.811202],[-108.710886,36.811206]]]},"properties":{"src":"rf"}},{"type":"Feature","geometry":{"type":"Polygon","coordinates":[[[-108.708202,36.810974],[-108.708207,36.810794],[-108.708095,36.810792],[-108.708093,36.810882],[-108.707981,36.81088],[-108.707978,36.81097],[-108.708202,36.810974]]]},"properties":{"src":"rf"}},{"type":"Feature","geometry":{"type":"Polygon","coordinates":[[[-108.709205,36.811174],[-108.709208,36.811084],[-108.70932,36.811086],[-108.709322,36.810996],[-108.70921,36.810993],[-108.709213,36.810903],[-108.708541,36.81089],[-108.708543,36.8108],[-108.708431,36.810798],[-108.708434,36.810708],[-108.708322,36.810706],[-108.708314,36.810976],[-108.708202,36.810974],[-108.708199,36.811064],[-108.707975,36.81106],[-108.707978,36.81097],[-108.707754,36.810965],[-108.707748,36.811146],[-108.709205,36.811174]],[[-108.708538,36.81098],[-108.708426,36.810978],[-108.708429,36.810888],[-108.708541,36.81089],[-108.708538,36.81098]]]},"properties":{"src":"rf"}},{"type":"Feature","geometry":{"type":"Polygon","coordinates":[[[-108.70933,36.810725],[-108.709333,36.810635],[-108.709221,36.810633],[-108.709218,36.810723],[-108.70933,36.810725]]]},"properties":{"src":"rf"}},{"type":"Feature","geometry":{"type":"Polygon","coordinates":[[[-108.719975,36.81093],[-108.719981,36.81075],[-108.719756,36.810746],[-108.719754,36.810836],[-108.719866,36.810838],[-108.719863,36.810928],[-108.719975,36.81093]]]},"properties":{"src":"rf"}},{"type":"Feature","geometry":{"type":"Polygon","coordinates":[[[-108.70821,36.810704],[-108.708213,36.810614],[-108.708437,36.810618],[-108.708439,36.810528],[-108.707991,36.810519],[-108.707989,36.810609],[-108.708101,36.810612],[-108.708098,36.810702],[-108.70821,36.810704]]]},"properties":{"src":"rf"}},{"type":"Feature","geometry":{"type":"Polygon","coordinates":[[[-108.720541,36.810761],[-108.720543,36.810671],[-108.720431,36.810668],[-108.720429,36.810758],[-108.720541,36.810761]]]},"properties":{"src":"rf"}},{"type":"Feature","geometry":{"type":"Polygon","coordinates":[[[-108.718975,36.81064],[-108.718977,36.81055],[-108.718865,36.810548],[-108.718863,36.810638],[-108.718975,36.81064]]]},"properties":{"src":"rf"}},{"type":"Feature","geometry":{"type":"Polygon","coordinates":[[[-108.711014,36.810668],[-108.711022,36.810397],[-108.710798,36.810393],[-108.710801,36.810303],[-108.710688,36.810301],[-108.710686,36.810391],[-108.710574,36.810389],[-108.710571,36.810479],[-108.710459,36.810477],[-108.710456,36.810567],[-108.710792,36.810573],[-108.71079,36.810663],[-108.711014,36.810668]]]},"properties":{"src":"rf"}},{"type":"Feature","geometry":{"type":"Polygon","coordinates":[[[-108.709773,36.810914],[-108.709779,36.810734],[-108.710003,36.810738],[-108.710016,36.810288],[-108.709904,36.810286],[-108.709907,36.810196],[-108.709683,36.810191],[-108.70968,36.810281],[-108.709344,36.810275],[-108.709341,36.810365],[-108.709453,36.810367],[-108.709451,36.810457],[-108.709563,36.810459],[-108.709552,36.81082],[-108.709664,36.810822],[-108.709661,36.810912],[-108.709773,36.810914]]]},"properties":{"src":"rf"}},{"type":"Feature","geometry":{"type":"Polygon","coordinates":[[[-108.720095,36.810662],[-108.720098,36.810572],[-108.72021,36.810574],[-108.720213,36.810484],[-108.719989,36.81048],[-108.719991,36.81039],[-108.719879,36.810387],[-108.719871,36.810658],[-108.720095,36.810662]]]},"properties":{"src":"rf"}},{"type":"Feature","geometry":{"type":"Polygon","coordinates":[[[-108.712817,36.810342],[-108.71282,36.810252],[-108.712708,36.81025],[-108.712705,36.81034],[-108.712817,36.810342]]]},"properties":{"src":"rf"}},{"type":"Feature","geometry":{"type":"Polygon","coordinates":[[[-108.720551,36.8104],[-108.720554,36.81031],[-108.720442,36.810308],[-108.720439,36.810398],[-108.720551,36.8104]]]},"properties":{"src":"rf"}},{"type":"Feature","geometry":{"type":"Polygon","coordinates":[[[-108.719879,36.810387],[-108.719882,36.810297],[-108.71977,36.810295],[-108.719767,36.810385],[-108.719879,36.810387]]]},"properties":{"src":"rf"}},{"type":"Feature","geometry":{"type":"Polygon","coordinates":[[[-108.710019,36.810198],[-108.710022,36.810108],[-108.70991,36.810106],[-108.709907,36.810196],[-108.710019,36.810198]]]},"properties":{"src":"rf"}},{"type":"Feature","geometry":{"type":"Polygon","coordinates":[[[-108.719436,36.810199],[-108.719439,36.810109],[-108.719327,36.810106],[-108.719324,36.810197],[-108.719436,36.810199]]]},"properties":{"src":"rf"}},{"type":"Feature","geometry":{"type":"Polygon","coordinates":[[[-108.71854,36.810181],[-108.718543,36.810091],[-108.718431,36.810089],[-108.718428,36.810179],[-108.71854,36.810181]]]},"properties":{"src":"rf"}},{"type":"Feature","geometry":{"type":"Polygon","coordinates":[[[-108.720327,36.810396],[-108.72033,36.810306],[-108.720106,36.810302],[-108.720109,36.810212],[-108.720333,36.810216],[-108.720338,36.810036],[-108.720114,36.810031],[-108.720111,36.810122],[-108.719999,36.810119],[-108.719991,36.81039],[-108.720327,36.810396]]]},"properties":{"src":"rf"}},{"type":"Feature","geometry":{"type":"Polygon","coordinates":[[[-108.719884,36.810207],[-108.71989,36.810027],[-108.719778,36.810025],[-108.719772,36.810205],[-108.719884,36.810207]]]},"properties":{"src":"rf"}},{"type":"Feature","geometry":{"type":"Polygon","coordinates":[[[-108.720559,36.81013],[-108.720562,36.81004],[-108.72045,36.810038],[-108.720447,36.810128],[-108.720559,36.81013]]]},"properties":{"src":"rf"}},{"type":"Feature","geometry":{"type":"Polygon","coordinates":[[[-108.720674,36.810042],[-108.720677,36.809952],[-108.720565,36.80995],[-108.720562,36.81004],[-108.720674,36.810042]]]},"properties":{"src":"rf"}},{"type":"Feature","geometry":{"type":"Polygon","coordinates":[[[-108.719554,36.810021],[-108.719556,36.809931],[-108.719444,36.809928],[-108.719442,36.810019],[-108.719554,36.810021]]]},"properties":{"src":"rf"}},{"type":"Feature","geometry":{"type":"Polygon","coordinates":[[[-108.719103,36.810102],[-108.719105,36.810012],[-108.71933,36.810016],[-108.719335,36.809836],[-108.719223,36.809834],[-108.71922,36.809924],[-108.718996,36.80992],[-108.718991,36.8101],[-108.719103,36.810102]]]},"properties":{"src":"rf"}},{"type":"Feature","geometry":{"type":"Polygon","coordinates":[[[-108.720117,36.809941],[-108.720119,36.809851],[-108.720007,36.809849],[-108.720005,36.809939],[-108.720117,36.809941]]]},"properties":{"src":"rf"}},{"type":"Feature","geometry":{"type":"Polygon","coordinates":[[[-108.719559,36.809841],[-108.719562,36.80975],[-108.71945,36.809748],[-108.719447,36.809838],[-108.719559,36.809841]]]},"properties":{"src":"rf"}},{"type":"Feature","geometry":{"type":"Polygon","coordinates":[[[-108.709693,36.809831],[-108.709699,36.809651],[-108.709587,36.809649],[-108.709589,36.809559],[-108.709477,36.809557],[-108.70948,36.809466],[-108.709144,36.80946],[-108.709136,36.80973],[-108.709248,36.809732],[-108.709245,36.809822],[-108.709693,36.809831]]]},"properties":{"src":"rf"}},{"type":"Feature","geometry":{"type":"Polygon","coordinates":[[[-108.720789,36.809954],[-108.720797,36.809684],[-108.720685,36.809682],[-108.720677,36.809952],[-108.720789,36.809954]]]},"properties":{"src":"rf"}},{"type":"Feature","geometry":{"type":"Polygon","coordinates":[[[-108.720231,36.809853],[-108.720237,36.809673],[-108.720125,36.809671],[-108.720119,36.809851],[-108.720231,36.809853]]]},"properties":{"src":"rf"}},{"type":"Feature","geometry":{"type":"Polygon","coordinates":[[[-108.71945,36.809748],[-108.719452,36.809658],[-108.71934,36.809656],[-108.719338,36.809746],[-108.71945,36.809748]]]},"properties":{"src":"rf"}},{"type":"Feature","geometry":{"type":"Polygon","coordinates":[[[-108.720007,36.809849],[-108.720015,36.809579],[-108.719903,36.809577],[-108.719901,36.809667],[-108.719788,36.809665],[-108.719786,36.809755],[-108.719674,36.809753],[-108.719671,36.809843],[-108.720007,36.809849]]]},"properties":{"src":"rf"}},{"type":"Feature","geometry":{"type":"Polygon","coordinates":[[[-108.719346,36.809476],[-108.719348,36.809386],[-108.719236,36.809384],[-108.719234,36.809474],[-108.719346,36.809476]]]},"properties":{"src":"rf"}},{"type":"Feature","geometry":{"type":"Polygon","coordinates":[[[-108.719676,36.809663],[-108.719679,36.809572],[-108.719791,36.809575],[-108.719799,36.809304],[-108.719575,36.8093],[-108.71957,36.80948],[-108.719458,36.809478],[-108.719455,36.809568],[-108.719567,36.80957],[-108.719564,36.80966],[-108.719676,36.809663]]]},"properties":{"src":"rf"}},{"type":"Feature","geometry":{"type":"Polygon","coordinates":[[[-108.710048,36.809207],[-108.710051,36.809117],[-108.709939,36.809115],[-108.709936,36.809205],[-108.710048,36.809207]]]},"properties":{"src":"rf"}},{"type":"Feature","geometry":{"type":"Polygon","coordinates":[[[-108.720127,36.809581],[-108.72013,36.809491],[-108.720242,36.809493],[-108.720245,36.809403],[-108.720581,36.80941],[-108.720578,36.8095],[-108.72069,36.809502],[-108.720696,36.809322],[-108.720471,36.809317],[-108.720474,36.809227],[-108.720138,36.809221],[-108.720133,36.809401],[-108.720021,36.809399],[-108.720015,36.809579],[-108.720127,36.809581]]]},"properties":{"src":"rf"}},{"type":"Feature","geometry":{"type":"Polygon","coordinates":[[[-108.720477,36.809137],[-108.720479,36.809047],[-108.720367,36.809045],[-108.720365,36.809135],[-108.720477,36.809137]]]},"properties":{"src":"rf"}},{"type":"Feature","geometry":{"type":"Polygon","coordinates":[[[-108.720253,36.809133],[-108.720255,36.809043],[-108.720143,36.809041],[-108.720141,36.809131],[-108.720253,36.809133]]]},"properties":{"src":"rf"}},{"type":"Feature","geometry":{"type":"Polygon","coordinates":[[[-108.71969,36.809212],[-108.719692,36.809122],[-108.719805,36.809124],[-108.71981,36.808944],[-108.719586,36.80894],[-108.719583,36.80903],[-108.719471,36.809028],[-108.719468,36.809118],[-108.71958,36.80912],[-108.719578,36.80921],[-108.71969,36.809212]]]},"properties":{"src":"rf"}},{"type":"Feature","geometry":{"type":"Polygon","coordinates":[[[-108.720367,36.809045],[-108.72037,36.808955],[-108.720258,36.808953],[-108.720255,36.809043],[-108.720367,36.809045]]]},"properties":{"src":"rf"}},{"type":"Feature","geometry":{"type":"Polygon","coordinates":[[[-108.718911,36.809017],[-108.718913,36.808927],[-108.718801,36.808925],[-108.718799,36.809015],[-108.718911,36.809017]]]},"properties":{"src":"rf"}},{"type":"Feature","geometry":{"type":"Polygon","coordinates":[[[-108.70388,36.809268],[-108.703883,36.809178],[-108.703771,36.809176],[-108.703774,36.809086],[-108.703886,36.809088],[-108.703889,36.808998],[-108.704001,36.809],[-108.704006,36.80882],[-108.704118,36.808822],[-108.704121,36.808732],[-108.704233,36.808734],[-108.704235,36.808644],[-108.703675,36.808633],[-108.703678,36.808543],[-108.703566,36.808541],[-108.703563,36.808631],[-108.703227,36.808625],[-108.703224,36.808715],[-108.703112,36.808713],[-108.703107,36.808893],[-108.703331,36.808897],[-108.703326,36.809077],[-108.703438,36.80908],[-108.703435,36.80917],[-108.703659,36.809174],[-108.703656,36.809264],[-108.70388,36.809268]]]},"properties":{"src":"rf"}},{"type":"Feature","geometry":{"type":"Polygon","coordinates":[[[-108.719474,36.808938],[-108.719476,36.808848],[-108.719364,36.808845],[-108.719362,36.808935],[-108.719474,36.808938]]]},"properties":{"src":"rf"}},{"type":"Feature","geometry":{"type":"Polygon","coordinates":[[[-108.720816,36.809053],[-108.720824,36.808783],[-108.720712,36.808781],[-108.720709,36.808871],[-108.720485,36.808867],[-108.720479,36.809047],[-108.720816,36.809053]]]},"properties":{"src":"rf"}},{"type":"Feature","geometry":{"type":"Polygon","coordinates":[[[-108.718687,36.809013],[-108.718695,36.808742],[-108.718583,36.80874],[-108.718575,36.809011],[-108.718687,36.809013]]]},"properties":{"src":"rf"}},{"type":"Feature","geometry":{"type":"Polygon","coordinates":[[[-108.71925,36.808933],[-108.719252,36.808843],[-108.719364,36.808845],[-108.719367,36.808755],[-108.719143,36.808751],[-108.71914,36.808841],[-108.719028,36.808839],[-108.719026,36.808929],[-108.71925,36.808933]]]},"properties":{"src":"rf"}},{"type":"Feature","geometry":{"type":"Polygon","coordinates":[[[-108.718919,36.808747],[-108.718921,36.808657],[-108.718809,36.808655],[-108.718807,36.808745],[-108.718919,36.808747]]]},"properties":{"src":"rf"}},{"type":"Feature","geometry":{"type":"Polygon","coordinates":[[[-108.719148,36.808571],[-108.719151,36.808481],[-108.719375,36.808485],[-108.719378,36.808395],[-108.71949,36.808397],[-108.719495,36.808217],[-108.719383,36.808215],[-108.719386,36.808125],[-108.719274,36.808123],[-108.719268,36.808303],[-108.71882,36.808294],[-108.718817,36.808384],[-108.718705,36.808382],[-108.718703,36.808472],[-108.718815,36.808474],[-108.718812,36.808564],[-108.719148,36.808571]]]},"properties":{"src":"rf"}},{"type":"Feature","geometry":{"type":"Polygon","coordinates":[[[-108.718935,36.808206],[-108.718938,36.808116],[-108.718825,36.808114],[-108.718823,36.808204],[-108.718935,36.808206]]]},"properties":{"src":"rf"}},{"type":"Feature","geometry":{"type":"Polygon","coordinates":[[[-108.71905,36.808118],[-108.719052,36.808028],[-108.71894,36.808026],[-108.718938,36.808116],[-108.71905,36.808118]]]},"properties":{"src":"rf"}},{"type":"Feature","geometry":{"type":"Polygon","coordinates":[[[-108.713904,36.807749],[-108.713906,36.807659],[-108.713682,36.807655],[-108.713679,36.807745],[-108.713904,36.807749]]]},"properties":{"src":"rf"}},{"type":"Feature","geometry":{"type":"Polygon","coordinates":[[[-108.721291,36.808161],[-108.721304,36.807711],[-108.721192,36.807709],[-108.721178,36.808159],[-108.721291,36.808161]]]},"properties":{"src":"rf"}},{"type":"Feature","geometry":{"type":"Polygon","coordinates":[[[-108.714018,36.807661],[-108.714021,36.807571],[-108.713909,36.807569],[-108.713906,36.807659],[-108.714018,36.807661]]]},"properties":{"src":"rf"}},{"type":"Feature","geometry":{"type":"Polygon","coordinates":[[[-108.710425,36.807862],[-108.710427,36.807772],[-108.71054,36.807774],[-108.710545,36.807594],[-108.710657,36.807596],[-108.71066,36.807506],[-108.710211,36.807498],[-108.710209,36.807588],[-108.709985,36.807584],[-108.709977,36.807854],[-108.710089,36.807856],[-108.710091,36.807766],[-108.710315,36.80777],[-108.710313,36.80786],[-108.710425,36.807862]]]},"properties":{"src":"rf"}}]}