{"type":"FeatureCollection","features":[{"type":"Feature","geometry":{"type":"Point","coordinates":[-108.6988194,36.845725599999994]},"properties":{}},{"type":"Feature","geometry":{"type":"Point","coordinates":[-108.7158614,36.8271282]},"properties":{}},{"type":"Feature","geometry":{"type":"Point","coordinates":[-108.71598399999998,36.82677]},"properties":{}},{"type":"Feature","geometry":{"type":"Point","coordinates":[-108.71543139999999,36.826489]},"properties":{}},{"type":"Feature","geometry":{"type":"Point","coordinates":[-108.71543940000001,36.82621820000001]},"properties":{}},{"type":"Feature","geometry":{"type":"Point","coordinates":[-108.71185840000001,36.825969199999996]},"properties":{}},{"type":"Feature","geometry":{"type":"Point","coordinates":[-108.71567440000001,36.825862199999996]},"properties":{}},{"type":"Feature","geometry":{"type":"Point","coordinates":[-108.70537039999999,36.825448]},"properties":{}},{"type":"Feature","geometry":{"type":"Point","coordinates":[-108.7157771111111,36.82559988888889]},"properties":{}},{"type":"Feature","geometry":{"type":"Point","coordinates":[-108.7052624,36.8253012]},"properties":{}},{"type":"Feature","geometry":{"type":"Point","coordinates":[-108.7161313076923,36.82535276923076]},"properties":{}},{"type":"Feature","geometry":{"type":"Point","coordinates":[-108.70488999999999,36.82480242857144]},"properties":{}},{"type":"Feature","geometry":{"type":"Point","coordinates":[-108.70850706451614,36.824993129032244]},"properties":{}},{"type":"Feature","geometry":{"type":"Point","coordinates":[-108.70797139999999,36.8247232]},"properties":{}},{"type":"Feature","geometry":{"type":"Point","coordinates":[-108.70483420000001,36.8246262]},"properties":{}},{"type":"Feature","geometry":{"type":"Point","coordinates":[-108.70472639999998,36.824480199999996]},"properties":{}},{"type":"Feature","geometry":{"type":"Point","coordinates":[-108.7162739090909,36.82469736363637]},"properties":{}},{"type":"Feature","geometry":{"type":"Point","coordinates":[-108.70428100000001,36.8243812]},"properties":{}},{"type":"Feature","geometry":{"type":"Point","coordinates":[-108.709663,36.824395200000005]},"properties":{}},{"type":"Feature","geometry":{"type":"Point","coordinates":[-108.7042864,36.8242012]},"properties":{}},{"type":"Feature","geometry":{"type":"Point","coordinates":[-108.7040614,36.824214999999995]},"properties":{}},{"type":"Feature","geometry":{"type":"Point","coordinates":[-108.71672840000001,36.8243506]},"properties":{}},{"type":"Feature","geometry":{"type":"Point","coordinates":[-108.71594520000001,36.8242992]},"properties":{}},{"type":"Feature","geometry":{"type":"Point","coordinates":[-108.70989540000001,36.8241292]},"properties":{}},{"type":"Feature","geometry":{"type":"Point","coordinates":[-108.71611988888888,36.82412477777778]},"properties":{}},{"type":"Feature","geometry":{"type":"Point","coordinates":[-108.70956819999999,36.823816199999996]},"properties":{}},{"type":"Feature","geometry":{"type":"Point","coordinates":[-108.7138334,36.8236642]},"properties":{}},{"type":"Feature","geometry":{"type":"Point","coordinates":[-108.71355942857143,36.82361771428571]},"properties":{}},{"type":"Feature","geometry":{"type":"Point","coordinates":[-108.709914,36.823498199999996]},"properties":{}},{"type":"Feature","geometry":{"type":"Point","coordinates":[-108.71563354545455,36.823603727272726]},"properties":{}},{"type":"Feature","geometry":{"type":"Point","coordinates":[-108.71227000000002,36.823454]},"properties":{}},{"type":"Feature","geometry":{"type":"Point","coordinates":[-108.71426955555553,36.823498222222234]},"properties":{}},{"type":"Feature","geometry":{"type":"Point","coordinates":[-108.71249700000001,36.8233682]},"properties":{}},{"type":"Feature","geometry":{"type":"Point","coordinates":[-108.7152309090909,36.82343209090909]},"properties":{}},{"type":"Feature","geometry":{"type":"Point","coordinates":[-108.7127222,36.8233362]},"properties":{}},{"type":"Feature","geometry":{"type":"Point","coordinates":[-108.71037529870131,36.82354698701299]},"properties":{}},{"type":"Feature","geometry":{"type":"Point","coordinates":[-108.7126144,36.823190200000006]},"properties":{}},{"type":"Feature","geometry":{"type":"Point","coordinates":[-108.71465554545456,36.823240818181816]},"properties":{}},{"type":"Feature","geometry":{"type":"Point","coordinates":[-108.7141412,36.82312939999999]},"properties":{}},{"type":"Feature","geometry":{"type":"Point","coordinates":[-108.7113844,36.823076199999996]},"properties":{}},{"type":"Feature","geometry":{"type":"Point","coordinates":[-108.70746199999999,36.8230006]},"properties":{}},{"type":"Feature","geometry":{"type":"Point","coordinates":[-108.7169874,36.8232022]},"properties":{}},{"type":"Feature","geometry":{"type":"Point","coordinates":[-108.71239539999999,36.8230052]},"properties":{}},{"type":"Feature","geometry":{"type":"Point","coordinates":[-108.70718223076923,36.822892692307704]},"properties":{}},{"type":"Feature","geometry":{"type":"Point","coordinates":[-108.71289119999999,36.8229248]},"properties":{}},{"type":"Feature","geometry":{"type":"Point","coordinates":[-108.7121742,36.8229112]},"properties":{}},{"type":"Feature","geometry":{"type":"Point","coordinates":[-108.71150259999999,36.8228622]},"properties":{}},{"type":"Feature","geometry":{"type":"Point","coordinates":[-108.71396999999999,36.8228556]},"properties":{}},{"type":"Feature","geometry":{"type":"Point","coordinates":[-108.70780640000001,36.8227372]},"properties":{}},{"type":"Feature","geometry":{"type":"Point","coordinates":[-108.70691059999999,36.8226836]},"properties":{}},{"type":"Feature","geometry":{"type":"Point","coordinates":[-108.7116864,36.82272139999999]},"properties":{}},{"type":"Feature","geometry":{"type":"Point","coordinates":[-108.71711540000001,36.8226458]},"properties":{}},{"type":"Feature","geometry":{"type":"Point","coordinates":[-108.708935,36.822488199999995]},"properties":{}},{"type":"Feature","geometry":{"type":"Point","coordinates":[-108.70148557142859,36.822406285714294]},"properties":{}},{"type":"Feature","geometry":{"type":"Point","coordinates":[-108.70714819999998,36.8222372]},"properties":{}},{"type":"Feature","geometry":{"type":"Point","coordinates":[-108.70370080000001,36.8220266]},"properties":{}},{"type":"Feature","geometry":{"type":"Point","coordinates":[-108.70737027272726,36.822109000000005]},"properties":{}},{"type":"Feature","geometry":{"type":"Point","coordinates":[-108.70822414285713,36.82204742857142]},"properties":{}},{"type":"Feature","geometry":{"type":"Point","coordinates":[-108.71708684615386,36.822223538461536]},"properties":{}},{"type":"Feature","geometry":{"type":"Point","coordinates":[-108.7074952,36.8218836]},"properties":{}},{"type":"Feature","geometry":{"type":"Point","coordinates":[-108.70739920000001,36.8213412]},"properties":{}},{"type":"Feature","geometry":{"type":"Point","coordinates":[-108.7044924,36.82105060000001]},"properties":{}},{"type":"Feature","geometry":{"type":"Point","coordinates":[-108.7141312,36.8212002]},"properties":{}},{"type":"Feature","geometry":{"type":"Point","coordinates":[-108.71738239999999,36.821209]},"properties":{}},{"type":"Feature","geometry":{"type":"Point","coordinates":[-108.7174994,36.821049]},"properties":{}},{"type":"Feature","geometry":{"type":"Point","coordinates":[-108.71762040000002,36.8207628]},"properties":{}},{"type":"Feature","geometry":{"type":"Point","coordinates":[-108.70531524409448,36.821822204724384]},"properties":{}},{"type":"Feature","geometry":{"type":"Point","coordinates":[-108.7142664,36.820428199999995]},"properties":{}},{"type":"Feature","geometry":{"type":"Point","coordinates":[-108.714157,36.82033559999999]},"properties":{}},{"type":"Feature","geometry":{"type":"Point","coordinates":[-108.7143838,36.8202502]},"properties":{}},{"type":"Feature","geometry":{"type":"Point","coordinates":[-108.70643919999998,36.8197002]},"properties":{}},{"type":"Feature","geometry":{"type":"Point","coordinates":[-108.71776700000001,36.8195942]},"properties":{}},{"type":"Feature","geometry":{"type":"Point","coordinates":[-108.7155956,36.8194622]},"properties":{}},{"type":"Feature","geometry":{"type":"Point","coordinates":[-108.7177052,36.81941260000001]},"properties":{}},{"type":"Feature","geometry":{"type":"Point","coordinates":[-108.716892,36.818856200000006]},"properties":{}},{"type":"Feature","geometry":{"type":"Point","coordinates":[-108.7144302,36.8186826]},"properties":{}},{"type":"Feature","geometry":{"type":"Point","coordinates":[-108.7148804,36.8186372]},"properties":{}},{"type":"Feature","geometry":{"type":"Point","coordinates":[-108.70596399999998,36.81846737931034]},"properties":{}},{"type":"Feature","geometry":{"type":"Point","coordinates":[-108.70761666666668,36.81806255555556]},"properties":{}},{"type":"Feature","geometry":{"type":"Point","coordinates":[-108.7175964,36.8177882]},"properties":{}},{"type":"Feature","geometry":{"type":"Point","coordinates":[-108.71726040000001,36.8177816]},"properties":{}},{"type":"Feature","geometry":{"type":"Point","coordinates":[-108.70874380000001,36.817618]},"properties":{}},{"type":"Feature","geometry":{"type":"Point","coordinates":[-108.7079602,36.8175666]},"properties":{}},{"type":"Feature","geometry":{"type":"Point","coordinates":[-108.71737499999999,36.8176938]},"properties":{}},{"type":"Feature","geometry":{"type":"Point","coordinates":[-108.70852239999999,36.8175232]},"properties":{}},{"type":"Feature","geometry":{"type":"Point","coordinates":[-108.71819114285712,36.817788476190465]},"properties":{}},{"type":"Feature","geometry":{"type":"Point","coordinates":[-108.71850639999998,36.817355199999994]},"properties":{}},{"type":"Feature","geometry":{"type":"Point","coordinates":[-108.7186234,36.817177199999996]},"properties":{}},{"type":"Feature","geometry":{"type":"Point","coordinates":[-108.7153764,36.8170242]},"properties":{}},{"type":"Feature","geometry":{"type":"Point","coordinates":[-108.71638619999999,36.817008]},"properties":{}},{"type":"Feature","geometry":{"type":"Point","coordinates":[-108.7085464,36.81671279999999]},"properties":{}},{"type":"Feature","geometry":{"type":"Point","coordinates":[-108.7187544,36.8165666]},"properties":{}},{"type":"Feature","geometry":{"type":"Point","coordinates":[-108.710689,36.8163032]},"properties":{}},{"type":"Feature","geometry":{"type":"Point","coordinates":[-108.71012488888888,36.81624822222222]},"properties":{}},{"type":"Feature","geometry":{"type":"Point","coordinates":[-108.70766899999998,36.816065200000004]},"properties":{}},{"type":"Feature","geometry":{"type":"Point","coordinates":[-108.7154004,36.816232]},"properties":{}},{"type":"Feature","geometry":{"type":"Point","coordinates":[-108.71898939999998,36.816192199999996]},"properties":{}},{"type":"Feature","geometry":{"type":"Point","coordinates":[-108.71130057142857,36.81609385714285]},"properties":{}},{"type":"Feature","geometry":{"type":"Point","coordinates":[-108.71054612,36.81598324]},"properties":{}},{"type":"Feature","geometry":{"type":"Point","coordinates":[-108.71888240000001,36.8160102]},"properties":{}},{"type":"Feature","geometry":{"type":"Point","coordinates":[-108.7139074,36.815914400000004]},"properties":{}},{"type":"Feature","geometry":{"type":"Point","coordinates":[-108.7116662,36.8158714]},"properties":{}},{"type":"Feature","geometry":{"type":"Point","coordinates":[-108.7113748,36.815866199999995]},"properties":{}},{"type":"Feature","geometry":{"type":"Point","coordinates":[-108.71193620000001,36.815840599999994]},"properties":{}},{"type":"Feature","geometry":{"type":"Point","coordinates":[-108.7089106,36.8157822]},"properties":{}},{"type":"Feature","geometry":{"type":"Point","coordinates":[-108.71328239999998,36.815812199999996]},"properties":{}},{"type":"Feature","geometry":{"type":"Point","coordinates":[-108.71519020000001,36.815759199999995]},"properties":{}},{"type":"Feature","geometry":{"type":"Point","coordinates":[-108.71182839999999,36.8156942]},"properties":{}},{"type":"Feature","geometry":{"type":"Point","coordinates":[-108.70801059459458,36.815966243243246]},"properties":{}},{"type":"Feature","geometry":{"type":"Point","coordinates":[-108.7119432,36.8156062]},"properties":{}},{"type":"Feature","geometry":{"type":"Point","coordinates":[-108.71900360000002,36.815706199999994]},"properties":{}},{"type":"Feature","geometry":{"type":"Point","coordinates":[-108.7185572,36.8156432]},"properties":{}},{"type":"Feature","geometry":{"type":"Point","coordinates":[-108.71048919999998,36.8154882]},"properties":{}},{"type":"Feature","geometry":{"type":"Point","coordinates":[-108.71113093333332,36.81551886666668]},"properties":{}},{"type":"Feature","geometry":{"type":"Point","coordinates":[-108.708417,36.81545422222222]},"properties":{}},{"type":"Feature","geometry":{"type":"Point","coordinates":[-108.71038060000001,36.8153602]},"properties":{}},{"type":"Feature","geometry":{"type":"Point","coordinates":[-108.71470528571429,36.81525814285715]},"properties":{}},{"type":"Feature","geometry":{"type":"Point","coordinates":[-108.71108757142858,36.81518842857143]},"properties":{}},{"type":"Feature","geometry":{"type":"Point","coordinates":[-108.7104982,36.815182199999995]},"properties":{}},{"type":"Feature","geometry":{"type":"Point","coordinates":[-108.71163072727272,36.81527599999999]},"properties":{}},{"type":"Feature","geometry":{"type":"Point","coordinates":[-108.71540891304349,36.815317347826074]},"properties":{}},{"type":"Feature","geometry":{"type":"Point","coordinates":[-108.711399,36.815055199999996]},"properties":{}},{"type":"Feature","geometry":{"type":"Point","coordinates":[-108.71022122222223,36.81510866666666]},"properties":{}},{"type":"Feature","geometry":{"type":"Point","coordinates":[-108.7087124,36.8149132]},"properties":{}},{"type":"Feature","geometry":{"type":"Point","coordinates":[-108.70664034883717,36.816206790697706]},"properties":{}},{"type":"Feature","geometry":{"type":"Point","coordinates":[-108.7098902857143,36.815049428571434]},"properties":{}},{"type":"Feature","geometry":{"type":"Point","coordinates":[-108.7158864,36.814961200000006]},"properties":{}},{"type":"Feature","geometry":{"type":"Point","coordinates":[-108.7112924,36.8148732]},"properties":{}},{"type":"Feature","geometry":{"type":"Point","coordinates":[-108.7115202,36.8147512]},"properties":{}},{"type":"Feature","geometry":{"type":"Point","coordinates":[-108.7111854,36.814690600000006]},"properties":{}},{"type":"Feature","geometry":{"type":"Point","coordinates":[-108.71037726666667,36.81472326666667]},"properties":{}},{"type":"Feature","geometry":{"type":"Point","coordinates":[-108.7099592,36.8144506]},"properties":{}},{"type":"Feature","geometry":{"type":"Point","coordinates":[-108.71007540000001,36.814308800000006]},"properties":{}},{"type":"Feature","geometry":{"type":"Point","coordinates":[-108.7070962857143,36.81420985714285]},"properties":{}},{"type":"Feature","geometry":{"type":"Point","coordinates":[-108.70974859999998,36.8139962]},"properties":{}},{"type":"Feature","geometry":{"type":"Point","coordinates":[-108.70997440000001,36.8139462]},"properties":{}},{"type":"Feature","geometry":{"type":"Point","coordinates":[-108.7195044,36.8139492]},"properties":{}},{"type":"Feature","geometry":{"type":"Point","coordinates":[-108.7115066,36.8137054]},"properties":{}},{"type":"Feature","geometry":{"type":"Point","coordinates":[-108.70791035555558,36.814152955555556]},"properties":{}},{"type":"Feature","geometry":{"type":"Point","coordinates":[-108.70709133333332,36.813125666666664]},"properties":{}},{"type":"Feature","geometry":{"type":"Point","coordinates":[-108.70887472727271,36.813019000000004]},"properties":{}},{"type":"Feature","geometry":{"type":"Point","coordinates":[-108.7083234,36.8129232]},"properties":{}},{"type":"Feature","geometry":{"type":"Point","coordinates":[-108.71437639999999,36.8129492]},"properties":{}},{"type":"Feature","geometry":{"type":"Point","coordinates":[-108.708438,36.8128352]},"properties":{}},{"type":"Feature","geometry":{"type":"Point","coordinates":[-108.71103223076923,36.812948923076924]},"properties":{}},{"type":"Feature","geometry":{"type":"Point","coordinates":[-108.71543128571429,36.81292871428572]},"properties":{}},{"type":"Feature","geometry":{"type":"Point","coordinates":[-108.6985804,36.8125542]},"properties":{}},{"type":"Feature","geometry":{"type":"Point","coordinates":[-108.71505440000001,36.8127822]},"properties":{}},{"type":"Feature","geometry":{"type":"Point","coordinates":[-108.70990239999999,36.812611200000006]},"properties":{}},{"type":"Feature","geometry":{"type":"Point","coordinates":[-108.7147314,36.8123252]},"properties":{}},{"type":"Feature","geometry":{"type":"Point","coordinates":[-108.7200036,36.8122282]},"properties":{}},{"type":"Feature","geometry":{"type":"Point","coordinates":[-108.71075055555556,36.81198444444445]},"properties":{}},{"type":"Feature","geometry":{"type":"Point","coordinates":[-108.70782901818183,36.8126104181818]},"properties":{}},{"type":"Feature","geometry":{"type":"Point","coordinates":[-108.72025019999998,36.8114942]},"properties":{}},{"type":"Feature","geometry":{"type":"Point","coordinates":[-108.71050420000002,36.8112166]},"properties":{}},{"type":"Feature","geometry":{"type":"Point","coordinates":[-108.71079199999998,36.81112714285715]},"properties":{}},{"type":"Feature","geometry":{"type":"Point","coordinates":[-108.70810828571429,36.81089514285714]},"properties":{}},{"type":"Feature","geometry":{"type":"Point","coordinates":[-108.70858547368421,36.81097194736842]},"properties":{}},{"type":"Feature","geometry":{"type":"Point","coordinates":[-108.7092864,36.8106882]},"properties":{}},{"type":"Feature","geometry":{"type":"Point","coordinates":[-108.71988142857143,36.81085114285714]},"properties":{}},{"type":"Feature","geometry":{"type":"Point","coordinates":[-108.70818755555557,36.81062333333333]},"properties":{}},{"type":"Feature","geometry":{"type":"Point","coordinates":[-108.720497,36.81072379999999]},"properties":{}},{"type":"Feature","geometry":{"type":"Point","coordinates":[-108.718931,36.810603199999996]},"properties":{}},{"type":"Feature","geometry":{"type":"Point","coordinates":[-108.71074346153847,36.810482230769225]},"properties":{}},{"type":"Feature","geometry":{"type":"Point","coordinates":[-108.70967923529415,36.810530529411764]},"properties":{}},{"type":"Feature","geometry":{"type":"Point","coordinates":[-108.720049,36.81054099999999]},"properties":{}},{"type":"Feature","geometry":{"type":"Point","coordinates":[-108.71277339999999,36.8103052]},"properties":{}},{"type":"Feature","geometry":{"type":"Point","coordinates":[-108.7205074,36.8103632]},"properties":{}},{"type":"Feature","geometry":{"type":"Point","coordinates":[-108.71983540000001,36.8103502]},"properties":{}},{"type":"Feature","geometry":{"type":"Point","coordinates":[-108.7099754,36.810161199999996]},"properties":{}},{"type":"Feature","geometry":{"type":"Point","coordinates":[-108.71939239999999,36.810162000000005]},"properties":{}},{"type":"Feature","geometry":{"type":"Point","coordinates":[-108.7184964,36.8101442]},"properties":{}},{"type":"Feature","geometry":{"type":"Point","coordinates":[-108.72018954545455,36.81022963636363]},"properties":{}},{"type":"Feature","geometry":{"type":"Point","coordinates":[-108.7198416,36.8101342]},"properties":{}},{"type":"Feature","geometry":{"type":"Point","coordinates":[-108.7205154,36.8100932]},"properties":{}},{"type":"Feature","geometry":{"type":"Point","coordinates":[-108.7206304,36.8100052]},"properties":{}},{"type":"Feature","geometry":{"type":"Point","coordinates":[-108.71950999999999,36.809984]},"properties":{}},{"type":"Feature","geometry":{"type":"Point","coordinates":[-108.71915622222222,36.809982888888875]},"properties":{}},{"type":"Feature","geometry":{"type":"Point","coordinates":[-108.720073,36.8099042]},"properties":{}},{"type":"Feature","geometry":{"type":"Point","coordinates":[-108.7195154,36.809803599999995]},"properties":{}},{"type":"Feature","geometry":{"type":"Point","coordinates":[-108.70945372727273,36.80966254545455]},"properties":{}},{"type":"Feature","geometry":{"type":"Point","coordinates":[-108.72074740000001,36.8098452]},"properties":{}},{"type":"Feature","geometry":{"type":"Point","coordinates":[-108.7201886,36.8097802]},"properties":{}},{"type":"Feature","geometry":{"type":"Point","coordinates":[-108.71940599999998,36.809711199999995]},"properties":{}},{"type":"Feature","geometry":{"type":"Point","coordinates":[-108.71986133333334,36.80972633333332]},"properties":{}},{"type":"Feature","geometry":{"type":"Point","coordinates":[-108.719302,36.8094392]},"properties":{}},{"type":"Feature","geometry":{"type":"Point","coordinates":[-108.71961909090909,36.80953027272728]},"properties":{}},{"type":"Feature","geometry":{"type":"Point","coordinates":[-108.7100044,36.8091702]},"properties":{}},{"type":"Feature","geometry":{"type":"Point","coordinates":[-108.72031120000001,36.80942846666667]},"properties":{}},{"type":"Feature","geometry":{"type":"Point","coordinates":[-108.720433,36.809100199999996]},"properties":{}},{"type":"Feature","geometry":{"type":"Point","coordinates":[-108.720209,36.809096200000006]},"properties":{}},{"type":"Feature","geometry":{"type":"Point","coordinates":[-108.71963209090909,36.80909636363637]},"properties":{}},{"type":"Feature","geometry":{"type":"Point","coordinates":[-108.72032340000001,36.8090082]},"properties":{}},{"type":"Feature","geometry":{"type":"Point","coordinates":[-108.718867,36.80898019999999]},"properties":{}},{"type":"Feature","geometry":{"type":"Point","coordinates":[-108.70369162962962,36.80891740740741]},"properties":{}},{"type":"Feature","geometry":{"type":"Point","coordinates":[-108.71943000000002,36.80890079999999]},"properties":{}},{"type":"Feature","geometry":{"type":"Point","coordinates":[-108.72069157142857,36.808922142857135]},"properties":{}},{"type":"Feature","geometry":{"type":"Point","coordinates":[-108.71864540000001,36.808903799999996]},"properties":{}},{"type":"Feature","geometry":{"type":"Point","coordinates":[-108.71920222222224,36.808852111111115]},"properties":{}},{"type":"Feature","geometry":{"type":"Point","coordinates":[-108.718875,36.80871019999999]},"properties":{}},{"type":"Feature","geometry":{"type":"Point","coordinates":[-108.71912752941176,36.808379588235304]},"properties":{}},{"type":"Feature","geometry":{"type":"Point","coordinates":[-108.7188912,36.808169199999995]},"properties":{}},{"type":"Feature","geometry":{"type":"Point","coordinates":[-108.71900600000001,36.8080812]},"properties":{}},{"type":"Feature","geometry":{"type":"Point","coordinates":[-108.713815,36.8077114]},"properties":{}},{"type":"Feature","geometry":{"type":"Point","coordinates":[-108.72125119999998,36.807980199999996]},"properties":{}},{"type":"Feature","geometry":{"type":"Point","coordinates":[-108.71397440000001,36.8076242]},"properties":{}},{"type":"Feature","geometry":{"type":"Point","coordinates":[-108.71032459999998,36.80771613333334]},"properties":{}}]}